<?xml version="1.0" encoding="UTF-8"?>
<gpx version="1.1" xmlns="http://www.topografix.com/GPX/1/1" creator="GlideCast">
  <trk><name>Beitostølen</name><trkseg>
    <trkpt lat="61.2593333" lon="8.9303002"><ele>0.0</ele></trkpt>
    <trkpt lat="61.2591837" lon="8.9309174"><ele>0.0</ele></trkpt>
    <trkpt lat="61.2590792" lon="8.9313105"><ele>0.0</ele></trkpt>
    <trkpt lat="61.2589599" lon="8.9319932"><ele>0.0</ele></trkpt>
    <trkpt lat="61.2588803" lon="8.9322932"><ele>0.0</ele></trkpt>
    <trkpt lat="61.258736" lon="8.9326139"><ele>0.0</ele></trkpt>
    <trkpt lat="61.258573" lon="8.9328993"><ele>0.0</ele></trkpt>
    <trkpt lat="61.2585095" lon="8.9331649"><ele>0.0</ele></trkpt>
    <trkpt lat="61.2584376" lon="8.933638"><ele>0.0</ele></trkpt>
    <trkpt lat="61.2581889" lon="8.9345173"><ele>0.0</ele></trkpt>
    <trkpt lat="61.2581187" lon="8.9348173"><ele>0.0</ele></trkpt>
    <trkpt lat="61.2580609" lon="8.9354314"><ele>0.0</ele></trkpt>
    <trkpt lat="61.2580351" lon="8.9366768"><ele>0.0</ele></trkpt>
    <trkpt lat="61.2579778" lon="8.9369747"><ele>0.0</ele></trkpt>
    <trkpt lat="61.2578417" lon="8.9373024"><ele>0.0</ele></trkpt>
    <trkpt lat="61.257676" lon="8.937676"><ele>0.0</ele></trkpt>
    <trkpt lat="61.257585" lon="8.9380699"><ele>0.0</ele></trkpt>
    <trkpt lat="61.257419" lon="8.93909"><ele>0.0</ele></trkpt>
    <trkpt lat="61.2571612" lon="8.9404306"><ele>0.0</ele></trkpt>
    <trkpt lat="61.2570752" lon="8.9409222"><ele>0.0</ele></trkpt>
    <trkpt lat="61.256991" lon="8.9413774"><ele>0.0</ele></trkpt>
    <trkpt lat="61.2567984" lon="8.9420447"><ele>0.0</ele></trkpt>
    <trkpt lat="61.2566884" lon="8.9427216"><ele>0.0</ele></trkpt>
    <trkpt lat="61.2566976" lon="8.9431792"><ele>0.0</ele></trkpt>
    <trkpt lat="61.2567021" lon="8.9435701"><ele>0.0</ele></trkpt>
    <trkpt lat="61.2566701" lon="8.9440563"><ele>0.0</ele></trkpt>
    <trkpt lat="61.2566884" lon="8.9444567"><ele>0.0</ele></trkpt>
    <trkpt lat="61.2568228" lon="8.9454629"><ele>0.0</ele></trkpt>
    <trkpt lat="61.2568867" lon="8.9457051"><ele>0.0</ele></trkpt>
    <trkpt lat="61.2569451" lon="8.9460488"><ele>0.0</ele></trkpt>
    <trkpt lat="61.2570569" lon="8.9466945"><ele>0.0</ele></trkpt>
    <trkpt lat="61.2571765" lon="8.9477105"><ele>0.0</ele></trkpt>
    <trkpt lat="61.2572264" lon="8.9479726"><ele>0.0</ele></trkpt>
    <trkpt lat="61.2573182" lon="8.9482307"><ele>0.0</ele></trkpt>
    <trkpt lat="61.258077" lon="8.949386"><ele>0.0</ele></trkpt>
    <trkpt lat="61.2582015" lon="8.9494961"><ele>0.0</ele></trkpt>
    <trkpt lat="61.2583169" lon="8.9495522"><ele>0.0</ele></trkpt>
    <trkpt lat="61.2586245" lon="8.9496195"><ele>0.0</ele></trkpt>
    <trkpt lat="61.2589579" lon="8.9497778"><ele>0.0</ele></trkpt>
    <trkpt lat="61.2594576" lon="8.9499317"><ele>0.0</ele></trkpt>
    <trkpt lat="61.2601049" lon="8.9502172"><ele>0.0</ele></trkpt>
    <trkpt lat="61.2605707" lon="8.950241"><ele>0.0</ele></trkpt>
    <trkpt lat="61.260946" lon="8.9501667"><ele>0.0</ele></trkpt>
    <trkpt lat="61.2611984" lon="8.9500534"><ele>0.0</ele></trkpt>
    <trkpt lat="61.2617845" lon="8.9495284"><ele>0.0</ele></trkpt>
    <trkpt lat="61.2619584" lon="8.9494755"><ele>0.0</ele></trkpt>
    <trkpt lat="61.262085" lon="8.9495598"><ele>0.0</ele></trkpt>
    <trkpt lat="61.2622626" lon="8.9498824"><ele>0.0</ele></trkpt>
    <trkpt lat="61.262387" lon="8.950045"><ele>0.0</ele></trkpt>
    <trkpt lat="61.2624701" lon="8.9501524"><ele>0.0</ele></trkpt>
    <trkpt lat="61.2625897" lon="8.9503949"><ele>0.0</ele></trkpt>
    <trkpt lat="61.2626585" lon="8.9507182"><ele>0.0</ele></trkpt>
    <trkpt lat="61.2626824" lon="8.9511722"><ele>0.0</ele></trkpt>
    <trkpt lat="61.2627379" lon="8.9517246"><ele>0.0</ele></trkpt>
    <trkpt lat="61.2627739" lon="8.9523849"><ele>0.0</ele></trkpt>
    <trkpt lat="61.2627695" lon="8.9527255"><ele>0.0</ele></trkpt>
    <trkpt lat="61.2626374" lon="8.9534839"><ele>0.0</ele></trkpt>
    <trkpt lat="61.2626483" lon="8.9536589"><ele>0.0</ele></trkpt>
    <trkpt lat="61.2626586" lon="8.9537662"><ele>0.0</ele></trkpt>
    <trkpt lat="61.2627082" lon="8.9539255"><ele>0.0</ele></trkpt>
    <trkpt lat="61.2628632" lon="8.9540563"><ele>0.0</ele></trkpt>
    <trkpt lat="61.2633216" lon="8.9544772"><ele>0.0</ele></trkpt>
    <trkpt lat="61.2635815" lon="8.9547803"><ele>0.0</ele></trkpt>
    <trkpt lat="61.2638942" lon="8.9551351"><ele>0.0</ele></trkpt>
    <trkpt lat="61.2640385" lon="8.9553326"><ele>0.0</ele></trkpt>
    <trkpt lat="61.2641407" lon="8.9555097"><ele>0.0</ele></trkpt>
    <trkpt lat="61.2641984" lon="8.9557189"><ele>0.0</ele></trkpt>
    <trkpt lat="61.2642467" lon="8.9560059"><ele>0.0</ele></trkpt>
    <trkpt lat="61.2642648" lon="8.9563727"><ele>0.0</ele></trkpt>
    <trkpt lat="61.2642666" lon="8.9576426"><ele>0.0</ele></trkpt>
    <trkpt lat="61.2643036" lon="8.9581532"><ele>0.0</ele></trkpt>
    <trkpt lat="61.2644036" lon="8.958723"><ele>0.0</ele></trkpt>
    <trkpt lat="61.2644821" lon="8.958959"><ele>0.0</ele></trkpt>
    <trkpt lat="61.2646111" lon="8.9592104"><ele>0.0</ele></trkpt>
    <trkpt lat="61.264793" lon="8.9594471"><ele>0.0</ele></trkpt>
    <trkpt lat="61.2650082" lon="8.9595866"><ele>0.0</ele></trkpt>
    <trkpt lat="61.2652685" lon="8.95963"><ele>0.0</ele></trkpt>
    <trkpt lat="61.2658561" lon="8.9598468"><ele>0.0</ele></trkpt>
    <trkpt lat="61.2662667" lon="8.9600587"><ele>0.0</ele></trkpt>
    <trkpt lat="61.266666" lon="8.9604058"><ele>0.0</ele></trkpt>
    <trkpt lat="61.2669632" lon="8.9607857"><ele>0.0</ele></trkpt>
    <trkpt lat="61.2670971" lon="8.9610136"><ele>0.0</ele></trkpt>
    <trkpt lat="61.267195" lon="8.9612768"><ele>0.0</ele></trkpt>
    <trkpt lat="61.267275" lon="8.9615822"><ele>0.0</ele></trkpt>
    <trkpt lat="61.2673157" lon="8.9618918"><ele>0.0</ele></trkpt>
    <trkpt lat="61.2673976" lon="8.9629063"><ele>0.0</ele></trkpt>
    <trkpt lat="61.2675431" lon="8.9648148"><ele>0.0</ele></trkpt>
    <trkpt lat="61.2675621" lon="8.9659385"><ele>0.0</ele></trkpt>
    <trkpt lat="61.2675871" lon="8.9663531"><ele>0.0</ele></trkpt>
    <trkpt lat="61.2678075" lon="8.9682207"><ele>0.0</ele></trkpt>
    <trkpt lat="61.2678642" lon="8.9686803"><ele>0.0</ele></trkpt>
    <trkpt lat="61.2678873" lon="8.9693289"><ele>0.0</ele></trkpt>
    <trkpt lat="61.2679136" lon="8.9718077"><ele>0.0</ele></trkpt>
    <trkpt lat="61.2679429" lon="8.9720857"><ele>0.0</ele></trkpt>
    <trkpt lat="61.2679963" lon="8.9723507"><ele>0.0</ele></trkpt>
    <trkpt lat="61.2680719" lon="8.9724988"><ele>0.0</ele></trkpt>
    <trkpt lat="61.268203" lon="8.9726752"><ele>0.0</ele></trkpt>
    <trkpt lat="61.2686769" lon="8.9729407"><ele>0.0</ele></trkpt>
    <trkpt lat="61.2687656" lon="8.9730298"><ele>0.0</ele></trkpt>
    <trkpt lat="61.2688225" lon="8.9731736"><ele>0.0</ele></trkpt>
    <trkpt lat="61.2688717" lon="8.9733444"><ele>0.0</ele></trkpt>
    <trkpt lat="61.2689749" lon="8.9743024"><ele>0.0</ele></trkpt>
    <trkpt lat="61.269031" lon="8.974731"><ele>0.0</ele></trkpt>
    <trkpt lat="61.2691127" lon="8.9752165"><ele>0.0</ele></trkpt>
    <trkpt lat="61.2692684" lon="8.9754975"><ele>0.0</ele></trkpt>
    <trkpt lat="61.2696793" lon="8.9760025"><ele>0.0</ele></trkpt>
    <trkpt lat="61.26964" lon="8.976367"><ele>0.0</ele></trkpt>
    <trkpt lat="61.2695869" lon="8.9768003"><ele>0.0</ele></trkpt>
    <trkpt lat="61.2695491" lon="8.9770604"><ele>0.0</ele></trkpt>
    <trkpt lat="61.2694936" lon="8.9776042"><ele>0.0</ele></trkpt>
    <trkpt lat="61.2694817" lon="8.9778023"><ele>0.0</ele></trkpt>
    <trkpt lat="61.2694888" lon="8.9784312"><ele>0.0</ele></trkpt>
    <trkpt lat="61.269484" lon="8.979348"><ele>0.0</ele></trkpt>
    <trkpt lat="61.269511" lon="8.980215"><ele>0.0</ele></trkpt>
    <trkpt lat="61.269671" lon="8.981904"><ele>0.0</ele></trkpt>
    <trkpt lat="61.269717" lon="8.982642"><ele>0.0</ele></trkpt>
    <trkpt lat="61.269748" lon="8.983254"><ele>0.0</ele></trkpt>
    <trkpt lat="61.2697278" lon="8.9838289"><ele>0.0</ele></trkpt>
    <trkpt lat="61.2696237" lon="8.9850622"><ele>0.0</ele></trkpt>
    <trkpt lat="61.2695856" lon="8.9855665"><ele>0.0</ele></trkpt>
    <trkpt lat="61.2694833" lon="8.9862131"><ele>0.0</ele></trkpt>
    <trkpt lat="61.2694178" lon="8.9865864"><ele>0.0</ele></trkpt>
    <trkpt lat="61.2693659" lon="8.9869357"><ele>0.0</ele></trkpt>
    <trkpt lat="61.2693063" lon="8.9873258"><ele>0.0</ele></trkpt>
    <trkpt lat="61.2692538" lon="8.9878434"><ele>0.0</ele></trkpt>
    <trkpt lat="61.2692658" lon="8.9881521"><ele>0.0</ele></trkpt>
    <trkpt lat="61.2693257" lon="8.9884722"><ele>0.0</ele></trkpt>
    <trkpt lat="61.2694703" lon="8.9888032"><ele>0.0</ele></trkpt>
    <trkpt lat="61.2696924" lon="8.9892065"><ele>0.0</ele></trkpt>
    <trkpt lat="61.2697867" lon="8.9895844"><ele>0.0</ele></trkpt>
    <trkpt lat="61.2698426" lon="8.9899323"><ele>0.0</ele></trkpt>
    <trkpt lat="61.2698486" lon="8.9903463"><ele>0.0</ele></trkpt>
    <trkpt lat="61.269828" lon="8.9906734"><ele>0.0</ele></trkpt>
    <trkpt lat="61.2697583" lon="8.9911777"><ele>0.0</ele></trkpt>
    <trkpt lat="61.2697017" lon="8.9917326"><ele>0.0</ele></trkpt>
    <trkpt lat="61.2696793" lon="8.9922988"><ele>0.0</ele></trkpt>
    <trkpt lat="61.269754" lon="8.993018"><ele>0.0</ele></trkpt>
    <trkpt lat="61.269797" lon="8.9936185"><ele>0.0</ele></trkpt>
    <trkpt lat="61.269805" lon="8.994208"><ele>0.0</ele></trkpt>
    <trkpt lat="61.2697925" lon="8.9945253"><ele>0.0</ele></trkpt>
    <trkpt lat="61.2697396" lon="8.9948158"><ele>0.0</ele></trkpt>
    <trkpt lat="61.2696283" lon="8.9951462"><ele>0.0</ele></trkpt>
    <trkpt lat="61.2691807" lon="8.9964884"><ele>0.0</ele></trkpt>
    <trkpt lat="61.2689289" lon="8.9970515"><ele>0.0</ele></trkpt>
    <trkpt lat="61.268728" lon="8.9974165"><ele>0.0</ele></trkpt>
    <trkpt lat="61.268429" lon="8.997902"><ele>0.0</ele></trkpt>
    <trkpt lat="61.2682129" lon="8.9983155"><ele>0.0</ele></trkpt>
    <trkpt lat="61.2680851" lon="8.9986624"><ele>0.0</ele></trkpt>
    <trkpt lat="61.2680264" lon="8.9990081"><ele>0.0</ele></trkpt>
    <trkpt lat="61.2679326" lon="8.9995462"><ele>0.0</ele></trkpt>
    <trkpt lat="61.2677378" lon="9.0002922"><ele>0.0</ele></trkpt>
    <trkpt lat="61.2675112" lon="9.001616"><ele>0.0</ele></trkpt>
    <trkpt lat="61.2672163" lon="9.0031273"><ele>0.0</ele></trkpt>
    <trkpt lat="61.2668624" lon="9.0051895"><ele>0.0</ele></trkpt>
    <trkpt lat="61.266611" lon="9.006544"><ele>0.0</ele></trkpt>
    <trkpt lat="61.2664656" lon="9.0071076"><ele>0.0</ele></trkpt>
    <trkpt lat="61.266322" lon="9.007753"><ele>0.0</ele></trkpt>
    <trkpt lat="61.266208" lon="9.008293"><ele>0.0</ele></trkpt>
    <trkpt lat="61.266101" lon="9.008973"><ele>0.0</ele></trkpt>
    <trkpt lat="61.265848" lon="9.010927"><ele>0.0</ele></trkpt>
    <trkpt lat="61.2657922" lon="9.0112889"><ele>0.0</ele></trkpt>
    <trkpt lat="61.265708" lon="9.011591"><ele>0.0</ele></trkpt>
    <trkpt lat="61.2655834" lon="9.0119356"><ele>0.0</ele></trkpt>
    <trkpt lat="61.2654219" lon="9.0123751"><ele>0.0</ele></trkpt>
    <trkpt lat="61.2652171" lon="9.0129679"><ele>0.0</ele></trkpt>
    <trkpt lat="61.2649941" lon="9.0139289"><ele>0.0</ele></trkpt>
    <trkpt lat="61.2647865" lon="9.0149916"><ele>0.0</ele></trkpt>
    <trkpt lat="61.26439" lon="9.0161673"><ele>0.0</ele></trkpt>
    <trkpt lat="61.2639011" lon="9.0176047"><ele>0.0</ele></trkpt>
    <trkpt lat="61.2637323" lon="9.0181259"><ele>0.0</ele></trkpt>
    <trkpt lat="61.2636708" lon="9.0185345"><ele>0.0</ele></trkpt>
    <trkpt lat="61.2635758" lon="9.0197494"><ele>0.0</ele></trkpt>
    <trkpt lat="61.2636002" lon="9.0201279"><ele>0.0</ele></trkpt>
    <trkpt lat="61.2637172" lon="9.0205228"><ele>0.0</ele></trkpt>
    <trkpt lat="61.263792" lon="9.020821"><ele>0.0</ele></trkpt>
    <trkpt lat="61.2638422" lon="9.0212158"><ele>0.0</ele></trkpt>
    <trkpt lat="61.263792" lon="9.020821"><ele>0.0</ele></trkpt>
    <trkpt lat="61.2637172" lon="9.0205228"><ele>0.0</ele></trkpt>
    <trkpt lat="61.2636002" lon="9.0201279"><ele>0.0</ele></trkpt>
    <trkpt lat="61.2635758" lon="9.0197494"><ele>0.0</ele></trkpt>
    <trkpt lat="61.2636708" lon="9.0185345"><ele>0.0</ele></trkpt>
    <trkpt lat="61.2637323" lon="9.0181259"><ele>0.0</ele></trkpt>
    <trkpt lat="61.2639011" lon="9.0176047"><ele>0.0</ele></trkpt>
    <trkpt lat="61.26439" lon="9.0161673"><ele>0.0</ele></trkpt>
    <trkpt lat="61.2647865" lon="9.0149916"><ele>0.0</ele></trkpt>
    <trkpt lat="61.2649941" lon="9.0139289"><ele>0.0</ele></trkpt>
    <trkpt lat="61.2652171" lon="9.0129679"><ele>0.0</ele></trkpt>
    <trkpt lat="61.2654219" lon="9.0123751"><ele>0.0</ele></trkpt>
    <trkpt lat="61.2655834" lon="9.0119356"><ele>0.0</ele></trkpt>
    <trkpt lat="61.265708" lon="9.011591"><ele>0.0</ele></trkpt>
    <trkpt lat="61.2657922" lon="9.0112889"><ele>0.0</ele></trkpt>
    <trkpt lat="61.265848" lon="9.010927"><ele>0.0</ele></trkpt>
    <trkpt lat="61.266101" lon="9.008973"><ele>0.0</ele></trkpt>
    <trkpt lat="61.266208" lon="9.008293"><ele>0.0</ele></trkpt>
    <trkpt lat="61.266322" lon="9.007753"><ele>0.0</ele></trkpt>
    <trkpt lat="61.2664656" lon="9.0071076"><ele>0.0</ele></trkpt>
    <trkpt lat="61.266611" lon="9.006544"><ele>0.0</ele></trkpt>
    <trkpt lat="61.2668624" lon="9.0051895"><ele>0.0</ele></trkpt>
    <trkpt lat="61.2672163" lon="9.0031273"><ele>0.0</ele></trkpt>
    <trkpt lat="61.2675112" lon="9.001616"><ele>0.0</ele></trkpt>
    <trkpt lat="61.2677378" lon="9.0002922"><ele>0.0</ele></trkpt>
    <trkpt lat="61.2679326" lon="8.9995462"><ele>0.0</ele></trkpt>
    <trkpt lat="61.2680264" lon="8.9990081"><ele>0.0</ele></trkpt>
    <trkpt lat="61.2680851" lon="8.9986624"><ele>0.0</ele></trkpt>
    <trkpt lat="61.2682129" lon="8.9983155"><ele>0.0</ele></trkpt>
    <trkpt lat="61.268429" lon="8.997902"><ele>0.0</ele></trkpt>
    <trkpt lat="61.268728" lon="8.9974165"><ele>0.0</ele></trkpt>
    <trkpt lat="61.2689289" lon="8.9970515"><ele>0.0</ele></trkpt>
    <trkpt lat="61.2691807" lon="8.9964884"><ele>0.0</ele></trkpt>
    <trkpt lat="61.2696283" lon="8.9951462"><ele>0.0</ele></trkpt>
    <trkpt lat="61.2697396" lon="8.9948158"><ele>0.0</ele></trkpt>
    <trkpt lat="61.2697925" lon="8.9945253"><ele>0.0</ele></trkpt>
    <trkpt lat="61.269805" lon="8.994208"><ele>0.0</ele></trkpt>
    <trkpt lat="61.269797" lon="8.9936185"><ele>0.0</ele></trkpt>
    <trkpt lat="61.269754" lon="8.993018"><ele>0.0</ele></trkpt>
    <trkpt lat="61.2696793" lon="8.9922988"><ele>0.0</ele></trkpt>
    <trkpt lat="61.2697017" lon="8.9917326"><ele>0.0</ele></trkpt>
    <trkpt lat="61.2697583" lon="8.9911777"><ele>0.0</ele></trkpt>
    <trkpt lat="61.269828" lon="8.9906734"><ele>0.0</ele></trkpt>
    <trkpt lat="61.2698486" lon="8.9903463"><ele>0.0</ele></trkpt>
    <trkpt lat="61.2698426" lon="8.9899323"><ele>0.0</ele></trkpt>
    <trkpt lat="61.2697867" lon="8.9895844"><ele>0.0</ele></trkpt>
    <trkpt lat="61.2696924" lon="8.9892065"><ele>0.0</ele></trkpt>
    <trkpt lat="61.2694703" lon="8.9888032"><ele>0.0</ele></trkpt>
    <trkpt lat="61.2693257" lon="8.9884722"><ele>0.0</ele></trkpt>
    <trkpt lat="61.2692658" lon="8.9881521"><ele>0.0</ele></trkpt>
    <trkpt lat="61.2692538" lon="8.9878434"><ele>0.0</ele></trkpt>
    <trkpt lat="61.2693063" lon="8.9873258"><ele>0.0</ele></trkpt>
    <trkpt lat="61.2693659" lon="8.9869357"><ele>0.0</ele></trkpt>
    <trkpt lat="61.2694178" lon="8.9865864"><ele>0.0</ele></trkpt>
    <trkpt lat="61.2694833" lon="8.9862131"><ele>0.0</ele></trkpt>
    <trkpt lat="61.2695856" lon="8.9855665"><ele>0.0</ele></trkpt>
    <trkpt lat="61.2696237" lon="8.9850622"><ele>0.0</ele></trkpt>
    <trkpt lat="61.2697278" lon="8.9838289"><ele>0.0</ele></trkpt>
    <trkpt lat="61.269748" lon="8.983254"><ele>0.0</ele></trkpt>
    <trkpt lat="61.269717" lon="8.982642"><ele>0.0</ele></trkpt>
    <trkpt lat="61.269671" lon="8.981904"><ele>0.0</ele></trkpt>
    <trkpt lat="61.269511" lon="8.980215"><ele>0.0</ele></trkpt>
    <trkpt lat="61.269484" lon="8.979348"><ele>0.0</ele></trkpt>
    <trkpt lat="61.2694888" lon="8.9784312"><ele>0.0</ele></trkpt>
    <trkpt lat="61.2694817" lon="8.9778023"><ele>0.0</ele></trkpt>
    <trkpt lat="61.2694936" lon="8.9776042"><ele>0.0</ele></trkpt>
    <trkpt lat="61.2695491" lon="8.9770604"><ele>0.0</ele></trkpt>
    <trkpt lat="61.2695869" lon="8.9768003"><ele>0.0</ele></trkpt>
    <trkpt lat="61.26964" lon="8.976367"><ele>0.0</ele></trkpt>
    <trkpt lat="61.2696793" lon="8.9760025"><ele>0.0</ele></trkpt>
    <trkpt lat="61.2698744" lon="8.9763279"><ele>0.0</ele></trkpt>
    <trkpt lat="61.2702122" lon="8.9768654"><ele>0.0</ele></trkpt>
    <trkpt lat="61.2705481" lon="8.977292"><ele>0.0</ele></trkpt>
    <trkpt lat="61.2710932" lon="8.9778672"><ele>0.0</ele></trkpt>
    <trkpt lat="61.2715421" lon="8.9781219"><ele>0.0</ele></trkpt>
    <trkpt lat="61.2719655" lon="8.9782602"><ele>0.0</ele></trkpt>
    <trkpt lat="61.27245" lon="8.9784966"><ele>0.0</ele></trkpt>
    <trkpt lat="61.2727827" lon="8.9787437"><ele>0.0</ele></trkpt>
    <trkpt lat="61.2730046" lon="8.978861"><ele>0.0</ele></trkpt>
    <trkpt lat="61.2731436" lon="8.978875"><ele>0.0</ele></trkpt>
    <trkpt lat="61.2734326" lon="8.9787108"><ele>0.0</ele></trkpt>
    <trkpt lat="61.2735405" lon="8.9787061"><ele>0.0</ele></trkpt>
    <trkpt lat="61.273837" lon="8.9787598"><ele>0.0</ele></trkpt>
    <trkpt lat="61.2740282" lon="8.9787751"><ele>0.0</ele></trkpt>
    <trkpt lat="61.2741574" lon="8.9787527"><ele>0.0</ele></trkpt>
    <trkpt lat="61.2743316" lon="8.9785906"><ele>0.0</ele></trkpt>
    <trkpt lat="61.2745295" lon="8.9782375"><ele>0.0</ele></trkpt>
    <trkpt lat="61.2747543" lon="8.9775896"><ele>0.0</ele></trkpt>
    <trkpt lat="61.2749722" lon="8.9768799"><ele>0.0</ele></trkpt>
    <trkpt lat="61.2751333" lon="8.9761899"><ele>0.0</ele></trkpt>
    <trkpt lat="61.275191" lon="8.9757872"><ele>0.0</ele></trkpt>
    <trkpt lat="61.2752617" lon="8.975043"><ele>0.0</ele></trkpt>
    <trkpt lat="61.2753276" lon="8.9746767"><ele>0.0</ele></trkpt>
    <trkpt lat="61.2753847" lon="8.9744593"><ele>0.0</ele></trkpt>
    <trkpt lat="61.2754475" lon="8.9743254"><ele>0.0</ele></trkpt>
    <trkpt lat="61.2755107" lon="8.9742637"><ele>0.0</ele></trkpt>
    <trkpt lat="61.2756095" lon="8.974216"><ele>0.0</ele></trkpt>
    <trkpt lat="61.2758118" lon="8.974232"><ele>0.0</ele></trkpt>
    <trkpt lat="61.2761379" lon="8.9743055"><ele>0.0</ele></trkpt>
    <trkpt lat="61.2761999" lon="8.9742713"><ele>0.0</ele></trkpt>
    <trkpt lat="61.27623" lon="8.9741886"><ele>0.0</ele></trkpt>
    <trkpt lat="61.2762565" lon="8.9740338"><ele>0.0</ele></trkpt>
    <trkpt lat="61.276354" lon="8.973219"><ele>0.0</ele></trkpt>
    <trkpt lat="61.2765559" lon="8.9726198"><ele>0.0</ele></trkpt>
    <trkpt lat="61.2765848" lon="8.9726115"><ele>0.0</ele></trkpt>
    <trkpt lat="61.2766965" lon="8.972538"><ele>0.0</ele></trkpt>
    <trkpt lat="61.2768276" lon="8.972386"><ele>0.0</ele></trkpt>
    <trkpt lat="61.2768714" lon="8.9723106"><ele>0.0</ele></trkpt>
    <trkpt lat="61.2770078" lon="8.9719875"><ele>0.0</ele></trkpt>
    <trkpt lat="61.2770761" lon="8.9717841"><ele>0.0</ele></trkpt>
    <trkpt lat="61.2771838" lon="8.9714179"><ele>0.0</ele></trkpt>
    <trkpt lat="61.27739" lon="8.9708303"><ele>0.0</ele></trkpt>
    <trkpt lat="61.2774447" lon="8.970629"><ele>0.0</ele></trkpt>
    <trkpt lat="61.2775348" lon="8.9701983"><ele>0.0</ele></trkpt>
    <trkpt lat="61.2775236" lon="8.969419"><ele>0.0</ele></trkpt>
    <trkpt lat="61.277511" lon="8.969078"><ele>0.0</ele></trkpt>
    <trkpt lat="61.27754" lon="8.9688768"><ele>0.0</ele></trkpt>
    <trkpt lat="61.2775997" lon="8.9686822"><ele>0.0</ele></trkpt>
    <trkpt lat="61.2779229" lon="8.9680463"><ele>0.0</ele></trkpt>
    <trkpt lat="61.2780228" lon="8.9678994"><ele>0.0</ele></trkpt>
    <trkpt lat="61.278282" lon="8.96754"><ele>0.0</ele></trkpt>
    <trkpt lat="61.278383" lon="8.967337"><ele>0.0</ele></trkpt>
    <trkpt lat="61.278441" lon="8.967109"><ele>0.0</ele></trkpt>
    <trkpt lat="61.278462" lon="8.966819"><ele>0.0</ele></trkpt>
    <trkpt lat="61.2784241" lon="8.9660055"><ele>0.0</ele></trkpt>
    <trkpt lat="61.2784247" lon="8.965669"><ele>0.0</ele></trkpt>
    <trkpt lat="61.2784628" lon="8.9654545"><ele>0.0</ele></trkpt>
    <trkpt lat="61.2787513" lon="8.9646195"><ele>0.0</ele></trkpt>
    <trkpt lat="61.278981" lon="8.9641318"><ele>0.0</ele></trkpt>
    <trkpt lat="61.2792377" lon="8.963731"><ele>0.0</ele></trkpt>
    <trkpt lat="61.2794342" lon="8.9635551"><ele>0.0</ele></trkpt>
    <trkpt lat="61.2801266" lon="8.9632349"><ele>0.0</ele></trkpt>
    <trkpt lat="61.280498" lon="8.963039"><ele>0.0</ele></trkpt>
    <trkpt lat="61.2806247" lon="8.9628754"><ele>0.0</ele></trkpt>
    <trkpt lat="61.2813238" lon="8.9618719"><ele>0.0</ele></trkpt>
    <trkpt lat="61.281783" lon="8.9613"><ele>0.0</ele></trkpt>
    <trkpt lat="61.281895" lon="8.961194"><ele>0.0</ele></trkpt>
    <trkpt lat="61.2822957" lon="8.9609494"><ele>0.0</ele></trkpt>
    <trkpt lat="61.2826401" lon="8.9606451"><ele>0.0</ele></trkpt>
    <trkpt lat="61.2828111" lon="8.9604511"><ele>0.0</ele></trkpt>
    <trkpt lat="61.2829991" lon="8.9601602"><ele>0.0</ele></trkpt>
    <trkpt lat="61.2834907" lon="8.9592271"><ele>0.0</ele></trkpt>
    <trkpt lat="61.2840184" lon="8.9583977"><ele>0.0</ele></trkpt>
    <trkpt lat="61.2843577" lon="8.9577141"><ele>0.0</ele></trkpt>
    <trkpt lat="61.2844832" lon="8.9573735"><ele>0.0</ele></trkpt>
    <trkpt lat="61.2847632" lon="8.9565816"><ele>0.0</ele></trkpt>
    <trkpt lat="61.2850614" lon="8.9558692"><ele>0.0</ele></trkpt>
    <trkpt lat="61.285424" lon="8.955196"><ele>0.0</ele></trkpt>
    <trkpt lat="61.286042" lon="8.95384"><ele>0.0</ele></trkpt>
    <trkpt lat="61.2861178" lon="8.9536773"><ele>0.0</ele></trkpt>
    <trkpt lat="61.2861735" lon="8.9534773"><ele>0.0</ele></trkpt>
    <trkpt lat="61.2861867" lon="8.9533091"><ele>0.0</ele></trkpt>
    <trkpt lat="61.2861797" lon="8.9530903"><ele>0.0</ele></trkpt>
    <trkpt lat="61.286119" lon="8.9523895"><ele>0.0</ele></trkpt>
    <trkpt lat="61.2861234" lon="8.9506903"><ele>0.0</ele></trkpt>
    <trkpt lat="61.2861501" lon="8.9503226"><ele>0.0</ele></trkpt>
    <trkpt lat="61.28639" lon="8.949201"><ele>0.0</ele></trkpt>
    <trkpt lat="61.2864588" lon="8.948931"><ele>0.0</ele></trkpt>
    <trkpt lat="61.286585" lon="8.9483399"><ele>0.0</ele></trkpt>
    <trkpt lat="61.2866875" lon="8.9475435"><ele>0.0</ele></trkpt>
    <trkpt lat="61.2867759" lon="8.9469723"><ele>0.0</ele></trkpt>
    <trkpt lat="61.286989" lon="8.9462721"><ele>0.0</ele></trkpt>
    <trkpt lat="61.287132" lon="8.9456238"><ele>0.0</ele></trkpt>
    <trkpt lat="61.2873411" lon="8.9443116"><ele>0.0</ele></trkpt>
    <trkpt lat="61.2878215" lon="8.9421812"><ele>0.0</ele></trkpt>
    <trkpt lat="61.2879904" lon="8.9413232"><ele>0.0</ele></trkpt>
    <trkpt lat="61.2881047" lon="8.9409164"><ele>0.0</ele></trkpt>
    <trkpt lat="61.2884698" lon="8.9400406"><ele>0.0</ele></trkpt>
    <trkpt lat="61.2889" lon="8.938801"><ele>0.0</ele></trkpt>
    <trkpt lat="61.2890068" lon="8.9383801"><ele>0.0</ele></trkpt>
    <trkpt lat="61.289196" lon="8.937684"><ele>0.0</ele></trkpt>
    <trkpt lat="61.2893592" lon="8.9370376"><ele>0.0</ele></trkpt>
    <trkpt lat="61.2894505" lon="8.9366821"><ele>0.0</ele></trkpt>
    <trkpt lat="61.2894755" lon="8.9364912"><ele>0.0</ele></trkpt>
    <trkpt lat="61.2894655" lon="8.9362726"><ele>0.0</ele></trkpt>
    <trkpt lat="61.2894199" lon="8.9360484"><ele>0.0</ele></trkpt>
    <trkpt lat="61.2890654" lon="8.9348422"><ele>0.0</ele></trkpt>
    <trkpt lat="61.288943" lon="8.934344"><ele>0.0</ele></trkpt>
    <trkpt lat="61.288888" lon="8.934059"><ele>0.0</ele></trkpt>
    <trkpt lat="61.2888394" lon="8.9337945"><ele>0.0</ele></trkpt>
    <trkpt lat="61.288806" lon="8.9332351"><ele>0.0</ele></trkpt>
    <trkpt lat="61.2887286" lon="8.9325745"><ele>0.0</ele></trkpt>
    <trkpt lat="61.2887082" lon="8.9315907"><ele>0.0</ele></trkpt>
    <trkpt lat="61.2886888" lon="8.9312976"><ele>0.0</ele></trkpt>
    <trkpt lat="61.288651" lon="8.931042"><ele>0.0</ele></trkpt>
    <trkpt lat="61.288511" lon="8.930541"><ele>0.0</ele></trkpt>
    <trkpt lat="61.2884399" lon="8.93032"><ele>0.0</ele></trkpt>
    <trkpt lat="61.2883858" lon="8.9299858"><ele>0.0</ele></trkpt>
    <trkpt lat="61.2883745" lon="8.9295796"><ele>0.0</ele></trkpt>
    <trkpt lat="61.288414" lon="8.929282"><ele>0.0</ele></trkpt>
    <trkpt lat="61.2884543" lon="8.9287272"><ele>0.0</ele></trkpt>
    <trkpt lat="61.288487" lon="8.928062"><ele>0.0</ele></trkpt>
    <trkpt lat="61.288491" lon="8.9274427"><ele>0.0</ele></trkpt>
    <trkpt lat="61.2884433" lon="8.9270058"><ele>0.0</ele></trkpt>
    <trkpt lat="61.2883717" lon="8.9262435"><ele>0.0</ele></trkpt>
    <trkpt lat="61.2882957" lon="8.9255375"><ele>0.0</ele></trkpt>
    <trkpt lat="61.288281" lon="8.9252164"><ele>0.0</ele></trkpt>
    <trkpt lat="61.2883126" lon="8.924863"><ele>0.0</ele></trkpt>
    <trkpt lat="61.2884111" lon="8.9244856"><ele>0.0</ele></trkpt>
    <trkpt lat="61.2884866" lon="8.9242026"><ele>0.0</ele></trkpt>
    <trkpt lat="61.2886423" lon="8.9238228"><ele>0.0</ele></trkpt>
    <trkpt lat="61.28904" lon="8.923111"><ele>0.0</ele></trkpt>
    <trkpt lat="61.28919" lon="8.922773"><ele>0.0</ele></trkpt>
    <trkpt lat="61.289609" lon="8.921442"><ele>0.0</ele></trkpt>
    <trkpt lat="61.290016" lon="8.920453"><ele>0.0</ele></trkpt>
    <trkpt lat="61.29026" lon="8.919779"><ele>0.0</ele></trkpt>
    <trkpt lat="61.290406" lon="8.919202"><ele>0.0</ele></trkpt>
    <trkpt lat="61.2905144" lon="8.9182001"><ele>0.0</ele></trkpt>
    <trkpt lat="61.2905848" lon="8.9177975"><ele>0.0</ele></trkpt>
    <trkpt lat="61.2907669" lon="8.9173204"><ele>0.0</ele></trkpt>
    <trkpt lat="61.290825" lon="8.917063"><ele>0.0</ele></trkpt>
    <trkpt lat="61.29087" lon="8.9164889"><ele>0.0</ele></trkpt>
    <trkpt lat="61.2909059" lon="8.9161943"><ele>0.0</ele></trkpt>
    <trkpt lat="61.291067" lon="8.91555"><ele>0.0</ele></trkpt>
    <trkpt lat="61.291211" lon="8.914792"><ele>0.0</ele></trkpt>
    <trkpt lat="61.2912742" lon="8.9144575"><ele>0.0</ele></trkpt>
    <trkpt lat="61.291464" lon="8.914006"><ele>0.0</ele></trkpt>
    <trkpt lat="61.291589" lon="8.91363"><ele>0.0</ele></trkpt>
    <trkpt lat="61.291856" lon="8.912683"><ele>0.0</ele></trkpt>
    <trkpt lat="61.292213" lon="8.910691"><ele>0.0</ele></trkpt>
    <trkpt lat="61.292294" lon="8.910449"><ele>0.0</ele></trkpt>
    <trkpt lat="61.292635" lon="8.909685"><ele>0.0</ele></trkpt>
    <trkpt lat="61.293106" lon="8.90853"><ele>0.0</ele></trkpt>
    <trkpt lat="61.293315" lon="8.908157"><ele>0.0</ele></trkpt>
    <trkpt lat="61.2935284" lon="8.9078307"><ele>0.0</ele></trkpt>
    <trkpt lat="61.2938829" lon="8.9072075"><ele>0.0</ele></trkpt>
    <trkpt lat="61.2940482" lon="8.906737"><ele>0.0</ele></trkpt>
    <trkpt lat="61.2941411" lon="8.9064175"><ele>0.0</ele></trkpt>
    <trkpt lat="61.2942216" lon="8.9060202"><ele>0.0</ele></trkpt>
    <trkpt lat="61.294274" lon="8.905488"><ele>0.0</ele></trkpt>
    <trkpt lat="61.2943128" lon="8.9049444"><ele>0.0</ele></trkpt>
    <trkpt lat="61.2943173" lon="8.9044112"><ele>0.0</ele></trkpt>
    <trkpt lat="61.2943035" lon="8.9040688"><ele>0.0</ele></trkpt>
    <trkpt lat="61.2942592" lon="8.9036246"><ele>0.0</ele></trkpt>
    <trkpt lat="61.2941683" lon="8.9029865"><ele>0.0</ele></trkpt>
    <trkpt lat="61.294066" lon="8.902575"><ele>0.0</ele></trkpt>
    <trkpt lat="61.293993" lon="8.902332"><ele>0.0</ele></trkpt>
    <trkpt lat="61.293836" lon="8.902031"><ele>0.0</ele></trkpt>
    <trkpt lat="61.2935747" lon="8.9016929"><ele>0.0</ele></trkpt>
    <trkpt lat="61.293468" lon="8.9014746"><ele>0.0</ele></trkpt>
    <trkpt lat="61.2933975" lon="8.9012465"><ele>0.0</ele></trkpt>
    <trkpt lat="61.2933153" lon="8.9008543"><ele>0.0</ele></trkpt>
    <trkpt lat="61.2933024" lon="8.9005787"><ele>0.0</ele></trkpt>
    <trkpt lat="61.2933235" lon="8.8999554"><ele>0.0</ele></trkpt>
    <trkpt lat="61.2933137" lon="8.899678"><ele>0.0</ele></trkpt>
    <trkpt lat="61.293287" lon="8.899424"><ele>0.0</ele></trkpt>
    <trkpt lat="61.293188" lon="8.89896"><ele>0.0</ele></trkpt>
    <trkpt lat="61.2930441" lon="8.8985591"><ele>0.0</ele></trkpt>
    <trkpt lat="61.2929296" lon="8.8982844"><ele>0.0</ele></trkpt>
    <trkpt lat="61.292817" lon="8.898017"><ele>0.0</ele></trkpt>
    <trkpt lat="61.2926892" lon="8.8978448"><ele>0.0</ele></trkpt>
    <trkpt lat="61.292522" lon="8.8977"><ele>0.0</ele></trkpt>
    <trkpt lat="61.2923522" lon="8.8976229"><ele>0.0</ele></trkpt>
    <trkpt lat="61.2921025" lon="8.8975605"><ele>0.0</ele></trkpt>
    <trkpt lat="61.291594" lon="8.897467"><ele>0.0</ele></trkpt>
    <trkpt lat="61.2915258" lon="8.8974693"><ele>0.0</ele></trkpt>
    <trkpt lat="61.2914316" lon="8.8974057"><ele>0.0</ele></trkpt>
    <trkpt lat="61.2913633" lon="8.8972707"><ele>0.0</ele></trkpt>
    <trkpt lat="61.291213" lon="8.896862"><ele>0.0</ele></trkpt>
    <trkpt lat="61.2910916" lon="8.8965815"><ele>0.0</ele></trkpt>
    <trkpt lat="61.2908813" lon="8.8962689"><ele>0.0</ele></trkpt>
    <trkpt lat="61.290714" lon="8.8960149"><ele>0.0</ele></trkpt>
    <trkpt lat="61.290572" lon="8.8958002"><ele>0.0</ele></trkpt>
    <trkpt lat="61.2904995" lon="8.8955212"><ele>0.0</ele></trkpt>
    <trkpt lat="61.2904592" lon="8.8950618"><ele>0.0</ele></trkpt>
    <trkpt lat="61.2904293" lon="8.8947415"><ele>0.0</ele></trkpt>
    <trkpt lat="61.2903809" lon="8.8945346"><ele>0.0</ele></trkpt>
    <trkpt lat="61.2903128" lon="8.8943762"><ele>0.0</ele></trkpt>
    <trkpt lat="61.2902515" lon="8.8942587"><ele>0.0</ele></trkpt>
    <trkpt lat="61.2899887" lon="8.8940415"><ele>0.0</ele></trkpt>
    <trkpt lat="61.2897914" lon="8.8937713"><ele>0.0</ele></trkpt>
    <trkpt lat="61.2894424" lon="8.8933701"><ele>0.0</ele></trkpt>
    <trkpt lat="61.2891818" lon="8.8929046"><ele>0.0</ele></trkpt>
    <trkpt lat="61.2891204" lon="8.8927774"><ele>0.0</ele></trkpt>
    <trkpt lat="61.2890193" lon="8.8926813"><ele>0.0</ele></trkpt>
    <trkpt lat="61.2889101" lon="8.8927054"><ele>0.0</ele></trkpt>
    <trkpt lat="61.2886607" lon="8.892766"><ele>0.0</ele></trkpt>
    <trkpt lat="61.2885146" lon="8.8927433"><ele>0.0</ele></trkpt>
    <trkpt lat="61.2883738" lon="8.8926164"><ele>0.0</ele></trkpt>
    <trkpt lat="61.2881926" lon="8.8922636"><ele>0.0</ele></trkpt>
  </trkseg></trk>
</gpx>