<?xml version="1.0" encoding="UTF-8"?>
<gpx version="1.1" xmlns="http://www.topografix.com/GPX/1/1" creator="GlideCast">
  <trk><name>Canmore</name><trkseg>
    <trkpt lat="51.0963362" lon="-115.3929835"><ele>1448.0</ele></trkpt>
    <trkpt lat="51.0961978" lon="-115.3929417"><ele>1448.0</ele></trkpt>
    <trkpt lat="51.0959232" lon="-115.3926426"><ele>1448.0</ele></trkpt>
    <trkpt lat="51.0956688" lon="-115.3923114"><ele>1493.0</ele></trkpt>
    <trkpt lat="51.0952061" lon="-115.3915973"><ele>1449.0</ele></trkpt>
    <trkpt lat="51.0951484" lon="-115.3915202"><ele>1449.0</ele></trkpt>
    <trkpt lat="51.0949437" lon="-115.3913525"><ele>1449.0</ele></trkpt>
    <trkpt lat="51.0946733" lon="-115.3911647"><ele>1449.0</ele></trkpt>
    <trkpt lat="51.0942488" lon="-115.3910602"><ele>1449.0</ele></trkpt>
    <trkpt lat="51.0940712" lon="-115.3908561"><ele>1449.0</ele></trkpt>
    <trkpt lat="51.0938538" lon="-115.3906497"><ele>1449.0</ele></trkpt>
    <trkpt lat="51.0935" lon="-115.39019"><ele>1468.0</ele></trkpt>
    <trkpt lat="51.0938183" lon="-115.3903458"><ele>1449.0</ele></trkpt>
    <trkpt lat="51.0939884" lon="-115.3903833"><ele>1449.0</ele></trkpt>
    <trkpt lat="51.0941151" lon="-115.390311"><ele>1449.0</ele></trkpt>
    <trkpt lat="51.0940844" lon="-115.3901473"><ele>1449.0</ele></trkpt>
    <trkpt lat="51.0939485" lon="-115.389914"><ele>1449.0</ele></trkpt>
    <trkpt lat="51.0936262" lon="-115.3895043"><ele>1442.0</ele></trkpt>
    <trkpt lat="51.0933714" lon="-115.3892504"><ele>1442.0</ele></trkpt>
    <trkpt lat="51.093276" lon="-115.3892202"><ele>1442.0</ele></trkpt>
    <trkpt lat="51.0924199" lon="-115.3885636"><ele>1442.0</ele></trkpt>
    <trkpt lat="51.09235" lon="-115.38851"><ele>1442.0</ele></trkpt>
    <trkpt lat="51.0922479" lon="-115.3883714"><ele>1442.0</ele></trkpt>
    <trkpt lat="51.092213" lon="-115.3883243"><ele>1442.0</ele></trkpt>
    <trkpt lat="51.0921207" lon="-115.3881604"><ele>1442.0</ele></trkpt>
    <trkpt lat="51.091868" lon="-115.3878295"><ele>1442.0</ele></trkpt>
    <trkpt lat="51.0918373" lon="-115.3877892"><ele>1442.0</ele></trkpt>
    <trkpt lat="51.0919155" lon="-115.3877682"><ele>1442.0</ele></trkpt>
    <trkpt lat="51.092052" lon="-115.3878044"><ele>1442.0</ele></trkpt>
    <trkpt lat="51.0922232" lon="-115.3879155"><ele>1442.0</ele></trkpt>
    <trkpt lat="51.0923965" lon="-115.388023"><ele>1442.0</ele></trkpt>
    <trkpt lat="51.092592" lon="-115.3881044"><ele>1442.0</ele></trkpt>
    <trkpt lat="51.0927445" lon="-115.3881915"><ele>1442.0</ele></trkpt>
    <trkpt lat="51.092901" lon="-115.3882684"><ele>1442.0</ele></trkpt>
    <trkpt lat="51.0930153" lon="-115.3882793"><ele>1442.0</ele></trkpt>
    <trkpt lat="51.093222" lon="-115.3885496"><ele>1442.0</ele></trkpt>
    <trkpt lat="51.0935017" lon="-115.38885"><ele>1442.0</ele></trkpt>
    <trkpt lat="51.0936886" lon="-115.389019"><ele>1442.0</ele></trkpt>
    <trkpt lat="51.0938454" lon="-115.3892175"><ele>1425.0</ele></trkpt>
    <trkpt lat="51.0938553" lon="-115.3895652"><ele>1425.0</ele></trkpt>
    <trkpt lat="51.0938089" lon="-115.3897085"><ele>1449.0</ele></trkpt>
    <trkpt lat="51.0937475" lon="-115.3898495"><ele>1468.0</ele></trkpt>
    <trkpt lat="51.0936213" lon="-115.3898344"><ele>1468.0</ele></trkpt>
    <trkpt lat="51.0934899" lon="-115.3896493"><ele>1468.0</ele></trkpt>
    <trkpt lat="51.093318" lon="-115.389424"><ele>1442.0</ele></trkpt>
    <trkpt lat="51.0930906" lon="-115.3893462"><ele>1442.0</ele></trkpt>
    <trkpt lat="51.0929306" lon="-115.3893247"><ele>1442.0</ele></trkpt>
    <trkpt lat="51.0927402" lon="-115.3893704"><ele>1442.0</ele></trkpt>
    <trkpt lat="51.0924943" lon="-115.3891852"><ele>1442.0</ele></trkpt>
    <trkpt lat="51.0923914" lon="-115.3891253"><ele>1442.0</ele></trkpt>
    <trkpt lat="51.0922821" lon="-115.3890163"><ele>1442.0</ele></trkpt>
    <trkpt lat="51.0922437" lon="-115.3889642"><ele>1442.0</ele></trkpt>
    <trkpt lat="51.0921413" lon="-115.3888268"><ele>1442.0</ele></trkpt>
    <trkpt lat="51.0920545" lon="-115.3886876"><ele>1442.0</ele></trkpt>
    <trkpt lat="51.0919349" lon="-115.388495"><ele>1442.0</ele></trkpt>
    <trkpt lat="51.09183" lon="-115.38833"><ele>1442.0</ele></trkpt>
    <trkpt lat="51.0916704" lon="-115.3881142"><ele>1442.0</ele></trkpt>
    <trkpt lat="51.0915091" lon="-115.3879547"><ele>1460.0</ele></trkpt>
    <trkpt lat="51.0912682" lon="-115.3879565"><ele>1460.0</ele></trkpt>
    <trkpt lat="51.0911296" lon="-115.3879344"><ele>1460.0</ele></trkpt>
    <trkpt lat="51.0910068" lon="-115.3879273"><ele>1460.0</ele></trkpt>
    <trkpt lat="51.0911197" lon="-115.388099"><ele>1460.0</ele></trkpt>
    <trkpt lat="51.0913875" lon="-115.3885604"><ele>1460.0</ele></trkpt>
    <trkpt lat="51.0914885" lon="-115.3887749"><ele>1460.0</ele></trkpt>
    <trkpt lat="51.091667" lon="-115.3890529"><ele>1442.0</ele></trkpt>
    <trkpt lat="51.0918827" lon="-115.3892487"><ele>1442.0</ele></trkpt>
    <trkpt lat="51.0920782" lon="-115.3895259"><ele>1442.0</ele></trkpt>
    <trkpt lat="51.09226" lon="-115.3895438"><ele>1442.0</ele></trkpt>
    <trkpt lat="51.0924741" lon="-115.3895099"><ele>1442.0</ele></trkpt>
    <trkpt lat="51.0926072" lon="-115.3894427"><ele>1442.0</ele></trkpt>
    <trkpt lat="51.0927402" lon="-115.3893704"><ele>1442.0</ele></trkpt>
    <trkpt lat="51.0929675" lon="-115.3896296"><ele>1468.0</ele></trkpt>
    <trkpt lat="51.0931484" lon="-115.3898493"><ele>1468.0</ele></trkpt>
    <trkpt lat="51.0928799" lon="-115.3898254"><ele>1468.0</ele></trkpt>
    <trkpt lat="51.0926492" lon="-115.3898934"><ele>1468.0</ele></trkpt>
    <trkpt lat="51.0925819" lon="-115.3899953"><ele>1468.0</ele></trkpt>
    <trkpt lat="51.0925634" lon="-115.3902393"><ele>1468.0</ele></trkpt>
    <trkpt lat="51.0925716" lon="-115.3905242"><ele>1468.0</ele></trkpt>
    <trkpt lat="51.0925835" lon="-115.3907669"><ele>1468.0</ele></trkpt>
    <trkpt lat="51.0926121" lon="-115.391027"><ele>1468.0</ele></trkpt>
    <trkpt lat="51.0925447" lon="-115.3908446"><ele>1468.0</ele></trkpt>
    <trkpt lat="51.0924638" lon="-115.3907763"><ele>1468.0</ele></trkpt>
    <trkpt lat="51.0923869" lon="-115.3907881"><ele>1468.0</ele></trkpt>
    <trkpt lat="51.0923114" lon="-115.3908529"><ele>1468.0</ele></trkpt>
    <trkpt lat="51.0922003" lon="-115.3909346"><ele>1468.0</ele></trkpt>
    <trkpt lat="51.0921009" lon="-115.3909684"><ele>1468.0</ele></trkpt>
    <trkpt lat="51.0919763" lon="-115.3909683"><ele>1468.0</ele></trkpt>
    <trkpt lat="51.0920249" lon="-115.3911941"><ele>1468.0</ele></trkpt>
    <trkpt lat="51.0920711" lon="-115.3913363"><ele>1468.0</ele></trkpt>
    <trkpt lat="51.0921338" lon="-115.3915027"><ele>1468.0</ele></trkpt>
    <trkpt lat="51.0921943" lon="-115.3915876"><ele>1468.0</ele></trkpt>
    <trkpt lat="51.0922381" lon="-115.3916788"><ele>1489.0</ele></trkpt>
    <trkpt lat="51.0922853" lon="-115.3919531"><ele>1489.0</ele></trkpt>
    <trkpt lat="51.0922937" lon="-115.3923091"><ele>1489.0</ele></trkpt>
    <trkpt lat="51.0923764" lon="-115.3925944"><ele>1489.0</ele></trkpt>
    <trkpt lat="51.0922834" lon="-115.392595"><ele>1489.0</ele></trkpt>
    <trkpt lat="51.0921979" lon="-115.3926248"><ele>1489.0</ele></trkpt>
    <trkpt lat="51.0921657" lon="-115.3927419"><ele>1489.0</ele></trkpt>
    <trkpt lat="51.0921818" lon="-115.392985"><ele>1489.0</ele></trkpt>
    <trkpt lat="51.0921455" lon="-115.3931138"><ele>1489.0</ele></trkpt>
    <trkpt lat="51.092089" lon="-115.3932462"><ele>1489.0</ele></trkpt>
    <trkpt lat="51.0919321" lon="-115.3932366"><ele>1489.0</ele></trkpt>
    <trkpt lat="51.0918194" lon="-115.3931688"><ele>1489.0</ele></trkpt>
    <trkpt lat="51.0919292" lon="-115.3934524"><ele>1489.0</ele></trkpt>
    <trkpt lat="51.0919938" lon="-115.3937173"><ele>1489.0</ele></trkpt>
    <trkpt lat="51.0920698" lon="-115.3940159"><ele>1512.0</ele></trkpt>
    <trkpt lat="51.0921338" lon="-115.3941769"><ele>1512.0</ele></trkpt>
    <trkpt lat="51.092218" lon="-115.394311"><ele>1512.0</ele></trkpt>
    <trkpt lat="51.0923191" lon="-115.3943002"><ele>1512.0</ele></trkpt>
    <trkpt lat="51.0923258" lon="-115.3941179"><ele>1512.0</ele></trkpt>
    <trkpt lat="51.0923326" lon="-115.3938228"><ele>1512.0</ele></trkpt>
    <trkpt lat="51.0923056" lon="-115.3935975"><ele>1489.0</ele></trkpt>
    <trkpt lat="51.0922551" lon="-115.3932166"><ele>1489.0</ele></trkpt>
    <trkpt lat="51.0921818" lon="-115.392985"><ele>1489.0</ele></trkpt>
    <trkpt lat="51.0921354" lon="-115.3928277"><ele>1489.0</ele></trkpt>
    <trkpt lat="51.0919484" lon="-115.3925881"><ele>1489.0</ele></trkpt>
    <trkpt lat="51.0917901" lon="-115.3923932"><ele>1489.0</ele></trkpt>
    <trkpt lat="51.09162" lon="-115.3921143"><ele>1525.0</ele></trkpt>
    <trkpt lat="51.09157" lon="-115.39181"><ele>1525.0</ele></trkpt>
    <trkpt lat="51.0915492" lon="-115.3915403"><ele>1487.0</ele></trkpt>
    <trkpt lat="51.0915762" lon="-115.3913605"><ele>1487.0</ele></trkpt>
    <trkpt lat="51.0915273" lon="-115.3913096"><ele>1487.0</ele></trkpt>
    <trkpt lat="51.0914888" lon="-115.3911763"><ele>1487.0</ele></trkpt>
    <trkpt lat="51.0915216" lon="-115.3909779"><ele>1487.0</ele></trkpt>
    <trkpt lat="51.0912271" lon="-115.3910329"><ele>1487.0</ele></trkpt>
    <trkpt lat="51.0910774" lon="-115.3910834"><ele>1487.0</ele></trkpt>
    <trkpt lat="51.09097" lon="-115.39117"><ele>1487.0</ele></trkpt>
    <trkpt lat="51.09089" lon="-115.39134"><ele>1487.0</ele></trkpt>
    <trkpt lat="51.09089" lon="-115.39151"><ele>1487.0</ele></trkpt>
    <trkpt lat="51.0908971" lon="-115.3916898"><ele>1525.0</ele></trkpt>
    <trkpt lat="51.0907027" lon="-115.3914444"><ele>1487.0</ele></trkpt>
    <trkpt lat="51.0906857" lon="-115.3914232"><ele>1487.0</ele></trkpt>
    <trkpt lat="51.0906402" lon="-115.3913795"><ele>1487.0</ele></trkpt>
    <trkpt lat="51.0903454" lon="-115.3910963"><ele>1487.0</ele></trkpt>
    <trkpt lat="51.0900572" lon="-115.3908547"><ele>1487.0</ele></trkpt>
    <trkpt lat="51.0900102" lon="-115.3906505"><ele>1487.0</ele></trkpt>
    <trkpt lat="51.0900591" lon="-115.3904742"><ele>1487.0</ele></trkpt>
    <trkpt lat="51.0899411" lon="-115.3905523"><ele>1487.0</ele></trkpt>
    <trkpt lat="51.0898216" lon="-115.3906022"><ele>1487.0</ele></trkpt>
    <trkpt lat="51.0896236" lon="-115.3905831"><ele>1487.0</ele></trkpt>
    <trkpt lat="51.08942" lon="-115.390527"><ele>1506.0</ele></trkpt>
    <trkpt lat="51.0892885" lon="-115.3903572"><ele>1506.0</ele></trkpt>
    <trkpt lat="51.0892182" lon="-115.3900919"><ele>1506.0</ele></trkpt>
    <trkpt lat="51.0891888" lon="-115.3899045"><ele>1506.0</ele></trkpt>
    <trkpt lat="51.0891898" lon="-115.3898307"><ele>1506.0</ele></trkpt>
    <trkpt lat="51.0888943" lon="-115.3895782"><ele>1480.0</ele></trkpt>
    <trkpt lat="51.0887375" lon="-115.3895275"><ele>1480.0</ele></trkpt>
    <trkpt lat="51.0886227" lon="-115.3894216"><ele>1480.0</ele></trkpt>
    <trkpt lat="51.0885561" lon="-115.3893197"><ele>1480.0</ele></trkpt>
    <trkpt lat="51.0883026" lon="-115.3892502"><ele>1480.0</ele></trkpt>
    <trkpt lat="51.0879664" lon="-115.3893403"><ele>1480.0</ele></trkpt>
    <trkpt lat="51.0877056" lon="-115.3894986"><ele>1480.0</ele></trkpt>
    <trkpt lat="51.0874832" lon="-115.3899867"><ele>1493.0</ele></trkpt>
    <trkpt lat="51.0873821" lon="-115.390491"><ele>1493.0</ele></trkpt>
    <trkpt lat="51.0874091" lon="-115.3909416"><ele>1493.0</ele></trkpt>
    <trkpt lat="51.08749" lon="-115.3911669"><ele>1493.0</ele></trkpt>
    <trkpt lat="51.087614" lon="-115.391416"><ele>1506.0</ele></trkpt>
    <trkpt lat="51.0877295" lon="-115.3914969"><ele>1506.0</ele></trkpt>
    <trkpt lat="51.0878558" lon="-115.3915116"><ele>1506.0</ele></trkpt>
    <trkpt lat="51.0879814" lon="-115.3915224"><ele>1506.0</ele></trkpt>
    <trkpt lat="51.0884076" lon="-115.3913722"><ele>1506.0</ele></trkpt>
    <trkpt lat="51.0886216" lon="-115.3914127"><ele>1506.0</ele></trkpt>
    <trkpt lat="51.08866" lon="-115.39142"><ele>1506.0</ele></trkpt>
    <trkpt lat="51.0888788" lon="-115.3915764"><ele>1506.0</ele></trkpt>
    <trkpt lat="51.0893657" lon="-115.3916418"><ele>1506.0</ele></trkpt>
    <trkpt lat="51.0895417" lon="-115.3919687"><ele>1532.0</ele></trkpt>
    <trkpt lat="51.0896766" lon="-115.3923142"><ele>1525.0</ele></trkpt>
    <trkpt lat="51.0899817" lon="-115.3925477"><ele>1525.0</ele></trkpt>
    <trkpt lat="51.0899869" lon="-115.3925548"><ele>1525.0</ele></trkpt>
    <trkpt lat="51.0903572" lon="-115.3931081"><ele>1525.0</ele></trkpt>
    <trkpt lat="51.0908793" lon="-115.3938273"><ele>1547.0</ele></trkpt>
    <trkpt lat="51.0916067" lon="-115.3946492"><ele>1547.0</ele></trkpt>
    <trkpt lat="51.0918648" lon="-115.3948267"><ele>1512.0</ele></trkpt>
    <trkpt lat="51.0924396" lon="-115.3948011"><ele>1512.0</ele></trkpt>
    <trkpt lat="51.0924925" lon="-115.3947987"><ele>1512.0</ele></trkpt>
    <trkpt lat="51.092603" lon="-115.3948468"><ele>1512.0</ele></trkpt>
    <trkpt lat="51.0927659" lon="-115.3949177"><ele>1512.0</ele></trkpt>
    <trkpt lat="51.092995" lon="-115.3951216"><ele>1512.0</ele></trkpt>
    <trkpt lat="51.0931499" lon="-115.3954059"><ele>1512.0</ele></trkpt>
    <trkpt lat="51.0931576" lon="-115.395487"><ele>1512.0</ele></trkpt>
    <trkpt lat="51.0931201" lon="-115.3956542"><ele>1512.0</ele></trkpt>
    <trkpt lat="51.0930556" lon="-115.3958317"><ele>1512.0</ele></trkpt>
    <trkpt lat="51.0929676" lon="-115.3959531"><ele>1542.0</ele></trkpt>
    <trkpt lat="51.0928268" lon="-115.3960092"><ele>1542.0</ele></trkpt>
    <trkpt lat="51.0926685" lon="-115.3961306"><ele>1542.0</ele></trkpt>
    <trkpt lat="51.0925981" lon="-115.396224"><ele>1542.0</ele></trkpt>
    <trkpt lat="51.0925394" lon="-115.3964014"><ele>1542.0</ele></trkpt>
    <trkpt lat="51.0925629" lon="-115.3966443"><ele>1542.0</ele></trkpt>
    <trkpt lat="51.092619" lon="-115.396754"><ele>1542.0</ele></trkpt>
    <trkpt lat="51.092733" lon="-115.3969245"><ele>1542.0</ele></trkpt>
    <trkpt lat="51.0928562" lon="-115.3970272"><ele>1542.0</ele></trkpt>
    <trkpt lat="51.0929852" lon="-115.3970646"><ele>1542.0</ele></trkpt>
    <trkpt lat="51.0931084" lon="-115.3969992"><ele>1542.0</ele></trkpt>
    <trkpt lat="51.0931436" lon="-115.3968404"><ele>1542.0</ele></trkpt>
    <trkpt lat="51.0931788" lon="-115.3967688"><ele>1542.0</ele></trkpt>
    <trkpt lat="51.0932257" lon="-115.3966443"><ele>1542.0</ele></trkpt>
    <trkpt lat="51.0933372" lon="-115.3966349"><ele>1542.0</ele></trkpt>
    <trkpt lat="51.0934604" lon="-115.3965789"><ele>1542.0</ele></trkpt>
    <trkpt lat="51.0935425" lon="-115.3964668"><ele>1542.0</ele></trkpt>
    <trkpt lat="51.0935953" lon="-115.3962987"><ele>1542.0</ele></trkpt>
    <trkpt lat="51.0936129" lon="-115.3960932"><ele>1542.0</ele></trkpt>
    <trkpt lat="51.0936463" lon="-115.3959544"><ele>1542.0</ele></trkpt>
    <trkpt lat="51.0937075" lon="-115.3960405"><ele>1542.0</ele></trkpt>
    <trkpt lat="51.0938288" lon="-115.3962765"><ele>1514.0</ele></trkpt>
    <trkpt lat="51.0940124" lon="-115.3964734"><ele>1514.0</ele></trkpt>
    <trkpt lat="51.0941589" lon="-115.3966359"><ele>1514.0</ele></trkpt>
    <trkpt lat="51.0942465" lon="-115.3968344"><ele>1514.0</ele></trkpt>
    <trkpt lat="51.0943611" lon="-115.3971026"><ele>1514.0</ele></trkpt>
    <trkpt lat="51.0945059" lon="-115.397167"><ele>1514.0</ele></trkpt>
    <trkpt lat="51.0945549" lon="-115.3972834"><ele>1514.0</ele></trkpt>
    <trkpt lat="51.0946879" lon="-115.3975103"><ele>1514.0</ele></trkpt>
    <trkpt lat="51.0947553" lon="-115.3977463"><ele>1514.0</ele></trkpt>
    <trkpt lat="51.094762" lon="-115.3978912"><ele>1514.0</ele></trkpt>
    <trkpt lat="51.0947621" lon="-115.3980559"><ele>1530.0</ele></trkpt>
    <trkpt lat="51.0947623" lon="-115.3980806"><ele>1530.0</ele></trkpt>
    <trkpt lat="51.0947451" lon="-115.3982345"><ele>1530.0</ele></trkpt>
    <trkpt lat="51.0947957" lon="-115.3984958"><ele>1530.0</ele></trkpt>
    <trkpt lat="51.095008" lon="-115.3987694"><ele>1530.0</ele></trkpt>
    <trkpt lat="51.0952673" lon="-115.3992698"><ele>1530.0</ele></trkpt>
    <trkpt lat="51.0954021" lon="-115.3995488"><ele>1530.0</ele></trkpt>
    <trkpt lat="51.0954995" lon="-115.39967"><ele>1530.0</ele></trkpt>
    <trkpt lat="51.0955975" lon="-115.3997097"><ele>1530.0</ele></trkpt>
    <trkpt lat="51.0959378" lon="-115.3999603"><ele>1523.0</ele></trkpt>
    <trkpt lat="51.0961568" lon="-115.4001373"><ele>1531.0</ele></trkpt>
    <trkpt lat="51.0963208" lon="-115.4002308"><ele>1531.0</ele></trkpt>
    <trkpt lat="51.0964754" lon="-115.4000067"><ele>1531.0</ele></trkpt>
    <trkpt lat="51.096687" lon="-115.3998942"><ele>1523.0</ele></trkpt>
    <trkpt lat="51.0968039" lon="-115.3998759"><ele>1523.0</ele></trkpt>
    <trkpt lat="51.096974" lon="-115.3997732"><ele>1523.0</ele></trkpt>
    <trkpt lat="51.0971734" lon="-115.3995677"><ele>1523.0</ele></trkpt>
    <trkpt lat="51.0972379" lon="-115.3993716"><ele>1523.0</ele></trkpt>
    <trkpt lat="51.0972497" lon="-115.3991848"><ele>1523.0</ele></trkpt>
    <trkpt lat="51.0970913" lon="-115.3989793"><ele>1523.0</ele></trkpt>
    <trkpt lat="51.0969271" lon="-115.3988112"><ele>1523.0</ele></trkpt>
    <trkpt lat="51.0966631" lon="-115.3985029"><ele>1523.0</ele></trkpt>
    <trkpt lat="51.0963522" lon="-115.3982414"><ele>1523.0</ele></trkpt>
    <trkpt lat="51.0961821" lon="-115.3980453"><ele>1523.0</ele></trkpt>
    <trkpt lat="51.0959879" lon="-115.3974963"><ele>1522.0</ele></trkpt>
    <trkpt lat="51.0957246" lon="-115.3971486"><ele>1514.0</ele></trkpt>
    <trkpt lat="51.0956518" lon="-115.3967428"><ele>1514.0</ele></trkpt>
    <trkpt lat="51.0956226" lon="-115.3962401"><ele>1514.0</ele></trkpt>
    <trkpt lat="51.0955853" lon="-115.3958309"><ele>1506.0</ele></trkpt>
    <trkpt lat="51.0956007" lon="-115.3955085"><ele>1506.0</ele></trkpt>
    <trkpt lat="51.0956198" lon="-115.3953481"><ele>1506.0</ele></trkpt>
    <trkpt lat="51.0956318" lon="-115.3951952"><ele>1506.0</ele></trkpt>
    <trkpt lat="51.0956152" lon="-115.394982"><ele>1506.0</ele></trkpt>
    <trkpt lat="51.0955702" lon="-115.394817"><ele>1506.0</ele></trkpt>
    <trkpt lat="51.0954481" lon="-115.3945918"><ele>1506.0</ele></trkpt>
    <trkpt lat="51.0953958" lon="-115.3944978"><ele>1506.0</ele></trkpt>
    <trkpt lat="51.0953621" lon="-115.394412"><ele>1506.0</ele></trkpt>
    <trkpt lat="51.0953492" lon="-115.3943186"><ele>1506.0</ele></trkpt>
    <trkpt lat="51.095288" lon="-115.3942229"><ele>1506.0</ele></trkpt>
    <trkpt lat="51.0951941" lon="-115.3942093"><ele>1506.0</ele></trkpt>
    <trkpt lat="51.0950724" lon="-115.394133"><ele>1506.0</ele></trkpt>
    <trkpt lat="51.0949443" lon="-115.3940318"><ele>1506.0</ele></trkpt>
    <trkpt lat="51.0948138" lon="-115.3939077"><ele>1506.0</ele></trkpt>
    <trkpt lat="51.0947098" lon="-115.3937489"><ele>1493.0</ele></trkpt>
    <trkpt lat="51.0946268" lon="-115.3935778"><ele>1493.0</ele></trkpt>
    <trkpt lat="51.0945565" lon="-115.3934058"><ele>1493.0</ele></trkpt>
    <trkpt lat="51.0944895" lon="-115.3932291"><ele>1493.0</ele></trkpt>
    <trkpt lat="51.0944577" lon="-115.3930749"><ele>1493.0</ele></trkpt>
    <trkpt lat="51.0944045" lon="-115.3928563"><ele>1493.0</ele></trkpt>
    <trkpt lat="51.0943478" lon="-115.3927288"><ele>1493.0</ele></trkpt>
    <trkpt lat="51.0942733" lon="-115.3926719"><ele>1493.0</ele></trkpt>
    <trkpt lat="51.0940939" lon="-115.3925067"><ele>1493.0</ele></trkpt>
    <trkpt lat="51.0938709" lon="-115.3925177"><ele>1493.0</ele></trkpt>
    <trkpt lat="51.093712" lon="-115.3923431"><ele>1489.0</ele></trkpt>
    <trkpt lat="51.0937103" lon="-115.3918315"><ele>1489.0</ele></trkpt>
    <trkpt lat="51.0936738" lon="-115.3916305"><ele>1468.0</ele></trkpt>
    <trkpt lat="51.0936347" lon="-115.3915161"><ele>1468.0</ele></trkpt>
    <trkpt lat="51.0935539" lon="-115.3914471"><ele>1468.0</ele></trkpt>
    <trkpt lat="51.093484" lon="-115.3914817"><ele>1468.0</ele></trkpt>
    <trkpt lat="51.093399" lon="-115.3915966"><ele>1468.0</ele></trkpt>
    <trkpt lat="51.0933349" lon="-115.3918245"><ele>1489.0</ele></trkpt>
    <trkpt lat="51.0932612" lon="-115.3921521"><ele>1489.0</ele></trkpt>
    <trkpt lat="51.0932507" lon="-115.3923101"><ele>1489.0</ele></trkpt>
    <trkpt lat="51.0932624" lon="-115.3926266"><ele>1489.0</ele></trkpt>
    <trkpt lat="51.0932775" lon="-115.3928563"><ele>1489.0</ele></trkpt>
    <trkpt lat="51.0932804" lon="-115.3930397"><ele>1489.0</ele></trkpt>
    <trkpt lat="51.0932287" lon="-115.3931339"><ele>1489.0</ele></trkpt>
    <trkpt lat="51.0931528" lon="-115.3931929"><ele>1489.0</ele></trkpt>
    <trkpt lat="51.0930299" lon="-115.3931902"><ele>1489.0</ele></trkpt>
    <trkpt lat="51.0929431" lon="-115.393158"><ele>1489.0</ele></trkpt>
    <trkpt lat="51.0928734" lon="-115.3931147"><ele>1489.0</ele></trkpt>
    <trkpt lat="51.0927773" lon="-115.3929484"><ele>1489.0</ele></trkpt>
    <trkpt lat="51.0926863" lon="-115.3927016"><ele>1489.0</ele></trkpt>
    <trkpt lat="51.0926618" lon="-115.3924712"><ele>1489.0</ele></trkpt>
    <trkpt lat="51.0926421" lon="-115.3925682"><ele>1489.0</ele></trkpt>
    <trkpt lat="51.0926089" lon="-115.3926487"><ele>1489.0</ele></trkpt>
    <trkpt lat="51.0925717" lon="-115.3926668"><ele>1489.0</ele></trkpt>
    <trkpt lat="51.0925183" lon="-115.3926688"><ele>1489.0</ele></trkpt>
    <trkpt lat="51.0924768" lon="-115.3926615"><ele>1489.0</ele></trkpt>
    <trkpt lat="51.0924193" lon="-115.3926463"><ele>1489.0</ele></trkpt>
    <trkpt lat="51.0925916" lon="-115.3928383"><ele>1489.0</ele></trkpt>
    <trkpt lat="51.0926993" lon="-115.3930057"><ele>1489.0</ele></trkpt>
    <trkpt lat="51.0927688" lon="-115.3931084"><ele>1489.0</ele></trkpt>
    <trkpt lat="51.0928532" lon="-115.3932168"><ele>1489.0</ele></trkpt>
    <trkpt lat="51.0929027" lon="-115.393268"><ele>1489.0</ele></trkpt>
    <trkpt lat="51.0929692" lon="-115.3932989"><ele>1489.0</ele></trkpt>
    <trkpt lat="51.0930577" lon="-115.3933056"><ele>1489.0</ele></trkpt>
    <trkpt lat="51.0931346" lon="-115.3932912"><ele>1489.0</ele></trkpt>
    <trkpt lat="51.0930439" lon="-115.3934593"><ele>1489.0</ele></trkpt>
    <trkpt lat="51.0929911" lon="-115.3935994"><ele>1489.0</ele></trkpt>
    <trkpt lat="51.0929852" lon="-115.3937862"><ele>1512.0</ele></trkpt>
    <trkpt lat="51.093038" lon="-115.393889"><ele>1512.0</ele></trkpt>
    <trkpt lat="51.0930833" lon="-115.3940459"><ele>1512.0</ele></trkpt>
    <trkpt lat="51.0930967" lon="-115.3941972"><ele>1512.0</ele></trkpt>
    <trkpt lat="51.0930322" lon="-115.3944307"><ele>1512.0</ele></trkpt>
    <trkpt lat="51.0928855" lon="-115.3946549"><ele>1512.0</ele></trkpt>
    <trkpt lat="51.0929735" lon="-115.3947763"><ele>1512.0</ele></trkpt>
    <trkpt lat="51.0930674" lon="-115.3949164"><ele>1512.0</ele></trkpt>
    <trkpt lat="51.0932492" lon="-115.3949351"><ele>1512.0</ele></trkpt>
    <trkpt lat="51.0934897" lon="-115.3950565"><ele>1512.0</ele></trkpt>
    <trkpt lat="51.0935673" lon="-115.3951013"><ele>1512.0</ele></trkpt>
    <trkpt lat="51.0936565" lon="-115.3952254"><ele>1512.0</ele></trkpt>
    <trkpt lat="51.0937361" lon="-115.3953647"><ele>1512.0</ele></trkpt>
    <trkpt lat="51.0939015" lon="-115.3955542"><ele>1506.0</ele></trkpt>
    <trkpt lat="51.094088" lon="-115.3957663"><ele>1506.0</ele></trkpt>
    <trkpt lat="51.0944873" lon="-115.3961092"><ele>1514.0</ele></trkpt>
    <trkpt lat="51.0945763" lon="-115.3962171"><ele>1514.0</ele></trkpt>
    <trkpt lat="51.0946555" lon="-115.396376"><ele>1514.0</ele></trkpt>
    <trkpt lat="51.094704" lon="-115.3965976"><ele>1514.0</ele></trkpt>
    <trkpt lat="51.0947098" lon="-115.3968404"><ele>1514.0</ele></trkpt>
    <trkpt lat="51.0946394" lon="-115.3970739"><ele>1514.0</ele></trkpt>
    <trkpt lat="51.0945059" lon="-115.397167"><ele>1514.0</ele></trkpt>
  </trkseg></trk>
</gpx>