<?xml version="1.0" encoding="UTF-8"?>
<gpx version="1.1" xmlns="http://www.topografix.com/GPX/1/1" creator="GlideCast">
  <trk><name>Cogne</name><trkseg>
    <trkpt lat="45.5814062" lon="7.3363221"><ele>1693.0</ele></trkpt>
    <trkpt lat="45.5815109" lon="7.336472"><ele>1693.0</ele></trkpt>
    <trkpt lat="45.5816263" lon="7.3365893"><ele>1693.0</ele></trkpt>
    <trkpt lat="45.5817389" lon="7.3366842"><ele>1693.0</ele></trkpt>
    <trkpt lat="45.582008" lon="7.336887"><ele>1693.0</ele></trkpt>
    <trkpt lat="45.5822742" lon="7.3370635"><ele>1693.0</ele></trkpt>
    <trkpt lat="45.582008" lon="7.336887"><ele>1693.0</ele></trkpt>
    <trkpt lat="45.5817389" lon="7.3366842"><ele>1693.0</ele></trkpt>
    <trkpt lat="45.5816263" lon="7.3365893"><ele>1693.0</ele></trkpt>
    <trkpt lat="45.5815109" lon="7.336472"><ele>1693.0</ele></trkpt>
    <trkpt lat="45.5814062" lon="7.3363221"><ele>1693.0</ele></trkpt>
    <trkpt lat="45.581088" lon="7.3362461"><ele>1691.0</ele></trkpt>
    <trkpt lat="45.5809339" lon="7.3361726"><ele>1691.0</ele></trkpt>
    <trkpt lat="45.5807252" lon="7.3360311"><ele>1691.0</ele></trkpt>
    <trkpt lat="45.5805178" lon="7.3358284"><ele>1691.0</ele></trkpt>
    <trkpt lat="45.5802335" lon="7.3355787"><ele>1691.0</ele></trkpt>
    <trkpt lat="45.579806" lon="7.3350514"><ele>1687.0</ele></trkpt>
    <trkpt lat="45.579694" lon="7.3349521"><ele>1687.0</ele></trkpt>
    <trkpt lat="45.5796397" lon="7.3348559"><ele>1687.0</ele></trkpt>
    <trkpt lat="45.5794864" lon="7.334593"><ele>1687.0</ele></trkpt>
    <trkpt lat="45.5794067" lon="7.3343283"><ele>1687.0</ele></trkpt>
    <trkpt lat="45.5793244" lon="7.3340397"><ele>1687.0</ele></trkpt>
    <trkpt lat="45.579243" lon="7.3337958"><ele>1687.0</ele></trkpt>
    <trkpt lat="45.5791181" lon="7.3336573"><ele>1697.0</ele></trkpt>
    <trkpt lat="45.5788675" lon="7.3335411"><ele>1697.0</ele></trkpt>
    <trkpt lat="45.5786033" lon="7.3334513"><ele>1697.0</ele></trkpt>
    <trkpt lat="45.5783887" lon="7.3333667"><ele>1697.0</ele></trkpt>
    <trkpt lat="45.5782538" lon="7.3333254"><ele>1692.0</ele></trkpt>
    <trkpt lat="45.5780535" lon="7.3332382"><ele>1692.0</ele></trkpt>
    <trkpt lat="45.5778106" lon="7.333156"><ele>1692.0</ele></trkpt>
    <trkpt lat="45.5776025" lon="7.3330948"><ele>1692.0</ele></trkpt>
    <trkpt lat="45.5773201" lon="7.3329816"><ele>1692.0</ele></trkpt>
    <trkpt lat="45.577149" lon="7.3329217"><ele>1692.0</ele></trkpt>
    <trkpt lat="45.5770112" lon="7.3328945"><ele>1700.0</ele></trkpt>
    <trkpt lat="45.5768706" lon="7.332946"><ele>1700.0</ele></trkpt>
    <trkpt lat="45.5766558" lon="7.3331122"><ele>1700.0</ele></trkpt>
    <trkpt lat="45.5768706" lon="7.332946"><ele>1700.0</ele></trkpt>
    <trkpt lat="45.5770112" lon="7.3328945"><ele>1700.0</ele></trkpt>
    <trkpt lat="45.577149" lon="7.3329217"><ele>1692.0</ele></trkpt>
    <trkpt lat="45.5773201" lon="7.3329816"><ele>1692.0</ele></trkpt>
    <trkpt lat="45.5776025" lon="7.3330948"><ele>1692.0</ele></trkpt>
    <trkpt lat="45.5778106" lon="7.333156"><ele>1692.0</ele></trkpt>
    <trkpt lat="45.5780535" lon="7.3332382"><ele>1692.0</ele></trkpt>
    <trkpt lat="45.5782538" lon="7.3333254"><ele>1692.0</ele></trkpt>
    <trkpt lat="45.5783887" lon="7.3333667"><ele>1697.0</ele></trkpt>
    <trkpt lat="45.5786033" lon="7.3334513"><ele>1697.0</ele></trkpt>
    <trkpt lat="45.5788675" lon="7.3335411"><ele>1697.0</ele></trkpt>
    <trkpt lat="45.5791181" lon="7.3336573"><ele>1697.0</ele></trkpt>
    <trkpt lat="45.579243" lon="7.3337958"><ele>1687.0</ele></trkpt>
    <trkpt lat="45.5793244" lon="7.3340397"><ele>1687.0</ele></trkpt>
    <trkpt lat="45.5794067" lon="7.3343283"><ele>1687.0</ele></trkpt>
    <trkpt lat="45.5794864" lon="7.334593"><ele>1687.0</ele></trkpt>
    <trkpt lat="45.5796397" lon="7.3348559"><ele>1687.0</ele></trkpt>
    <trkpt lat="45.579694" lon="7.3349521"><ele>1687.0</ele></trkpt>
    <trkpt lat="45.5807854" lon="7.3350518"><ele>1687.0</ele></trkpt>
    <trkpt lat="45.5807452" lon="7.3349312"><ele>1687.0</ele></trkpt>
    <trkpt lat="45.580584" lon="7.3346818"><ele>1687.0</ele></trkpt>
    <trkpt lat="45.5804654" lon="7.3345696"><ele>1687.0</ele></trkpt>
    <trkpt lat="45.5802333" lon="7.33445"><ele>1687.0</ele></trkpt>
    <trkpt lat="45.5798772" lon="7.3343377"><ele>1687.0</ele></trkpt>
  </trkseg></trk>
</gpx>