<?xml version="1.0" encoding="UTF-8"?>
<gpx version="1.1" xmlns="http://www.topografix.com/GPX/1/1" creator="GlideCast">
  <trk><name>Craftsbury</name><trkseg>
    <trkpt lat="44.6964012" lon="-72.3557492"><ele>359.0</ele></trkpt>
    <trkpt lat="44.6964929" lon="-72.3557642"><ele>359.0</ele></trkpt>
    <trkpt lat="44.6966335" lon="-72.3557642"><ele>359.0</ele></trkpt>
    <trkpt lat="44.6968619" lon="-72.3557727"><ele>359.0</ele></trkpt>
    <trkpt lat="44.6971139" lon="-72.3557213"><ele>359.0</ele></trkpt>
    <trkpt lat="44.6973118" lon="-72.355644"><ele>359.0</ele></trkpt>
    <trkpt lat="44.6974952" lon="-72.355571"><ele>359.0</ele></trkpt>
    <trkpt lat="44.6977088" lon="-72.3555389"><ele>359.0</ele></trkpt>
    <trkpt lat="44.6978407" lon="-72.3555338"><ele>359.0</ele></trkpt>
    <trkpt lat="44.6978843" lon="-72.3555498"><ele>359.0</ele></trkpt>
    <trkpt lat="44.6979252" lon="-72.3555695"><ele>377.0</ele></trkpt>
    <trkpt lat="44.6979638" lon="-72.3555728"><ele>377.0</ele></trkpt>
    <trkpt lat="44.6980644" lon="-72.3555761"><ele>377.0</ele></trkpt>
    <trkpt lat="44.6981335" lon="-72.3555778"><ele>377.0</ele></trkpt>
    <trkpt lat="44.6982036" lon="-72.355558"><ele>377.0</ele></trkpt>
    <trkpt lat="44.6982504" lon="-72.3555465"><ele>377.0</ele></trkpt>
    <trkpt lat="44.6983066" lon="-72.3555136"><ele>377.0</ele></trkpt>
    <trkpt lat="44.6983686" lon="-72.3554774"><ele>377.0</ele></trkpt>
    <trkpt lat="44.6984236" lon="-72.3554412"><ele>377.0</ele></trkpt>
    <trkpt lat="44.6984797" lon="-72.355377"><ele>377.0</ele></trkpt>
    <trkpt lat="44.6985078" lon="-72.3553358"><ele>377.0</ele></trkpt>
    <trkpt lat="44.6985382" lon="-72.3552963"><ele>377.0</ele></trkpt>
    <trkpt lat="44.6985616" lon="-72.3552634"><ele>377.0</ele></trkpt>
    <trkpt lat="44.6985827" lon="-72.355219"><ele>377.0</ele></trkpt>
    <trkpt lat="44.6986253" lon="-72.355164"><ele>377.0</ele></trkpt>
    <trkpt lat="44.6990463" lon="-72.3548694"><ele>377.0</ele></trkpt>
    <trkpt lat="44.6990688" lon="-72.3548544"><ele>377.0</ele></trkpt>
    <trkpt lat="44.6991692" lon="-72.3547334"><ele>377.0</ele></trkpt>
    <trkpt lat="44.6992344" lon="-72.3546549"><ele>377.0</ele></trkpt>
    <trkpt lat="44.6994994" lon="-72.3542977"><ele>377.0</ele></trkpt>
    <trkpt lat="44.6996283" lon="-72.3541678"><ele>377.0</ele></trkpt>
    <trkpt lat="44.6997032" lon="-72.3541013"><ele>364.0</ele></trkpt>
    <trkpt lat="44.6997919" lon="-72.3540557"><ele>364.0</ele></trkpt>
    <trkpt lat="44.6998225" lon="-72.3540364"><ele>364.0</ele></trkpt>
    <trkpt lat="44.6999131" lon="-72.3539794"><ele>364.0</ele></trkpt>
    <trkpt lat="44.6999625" lon="-72.3539483"><ele>364.0</ele></trkpt>
    <trkpt lat="44.699981" lon="-72.3538229"><ele>364.0</ele></trkpt>
    <trkpt lat="44.699978" lon="-72.3537079"><ele>364.0</ele></trkpt>
    <trkpt lat="44.6999477" lon="-72.3535716"><ele>364.0</ele></trkpt>
    <trkpt lat="44.6998569" lon="-72.3534396"><ele>364.0</ele></trkpt>
    <trkpt lat="44.6997716" lon="-72.353342"><ele>364.0</ele></trkpt>
    <trkpt lat="44.6996842" lon="-72.3532955"><ele>364.0</ele></trkpt>
    <trkpt lat="44.6994873" lon="-72.3532866"><ele>364.0</ele></trkpt>
    <trkpt lat="44.6993257" lon="-72.3533348"><ele>364.0</ele></trkpt>
    <trkpt lat="44.6991192" lon="-72.3533583"><ele>364.0</ele></trkpt>
    <trkpt lat="44.6989408" lon="-72.3533488"><ele>364.0</ele></trkpt>
    <trkpt lat="44.6988069" lon="-72.3533233"><ele>364.0</ele></trkpt>
    <trkpt lat="44.698668" lon="-72.3533"><ele>364.0</ele></trkpt>
    <trkpt lat="44.6984971" lon="-72.3533412"><ele>364.0</ele></trkpt>
    <trkpt lat="44.6983583" lon="-72.3534592"><ele>364.0</ele></trkpt>
    <trkpt lat="44.6982133" lon="-72.3536227"><ele>364.0</ele></trkpt>
    <trkpt lat="44.6980589" lon="-72.3537462"><ele>364.0</ele></trkpt>
    <trkpt lat="44.6978894" lon="-72.3538442"><ele>347.0</ele></trkpt>
    <trkpt lat="44.6975624" lon="-72.3540401"><ele>347.0</ele></trkpt>
    <trkpt lat="44.6973808" lon="-72.3541295"><ele>347.0</ele></trkpt>
    <trkpt lat="44.6972658" lon="-72.3542232"><ele>359.0</ele></trkpt>
    <trkpt lat="44.6972173" lon="-72.3542573"><ele>359.0</ele></trkpt>
    <trkpt lat="44.6971568" lon="-72.3542913"><ele>359.0</ele></trkpt>
    <trkpt lat="44.6970902" lon="-72.3542956"><ele>359.0</ele></trkpt>
    <trkpt lat="44.6969903" lon="-72.3542317"><ele>359.0</ele></trkpt>
    <trkpt lat="44.6969116" lon="-72.3541849"><ele>359.0</ele></trkpt>
    <trkpt lat="44.6968443" lon="-72.3542941"><ele>359.0</ele></trkpt>
    <trkpt lat="44.6967566" lon="-72.3544537"><ele>359.0</ele></trkpt>
    <trkpt lat="44.6966829" lon="-72.354592"><ele>359.0</ele></trkpt>
    <trkpt lat="44.6965753" lon="-72.3548092"><ele>359.0</ele></trkpt>
    <trkpt lat="44.6964992" lon="-72.3549507"><ele>359.0</ele></trkpt>
    <trkpt lat="44.6964559" lon="-72.3550462"><ele>359.0</ele></trkpt>
    <trkpt lat="44.696367" lon="-72.3552157"><ele>359.0</ele></trkpt>
    <trkpt lat="44.6962887" lon="-72.3553869"><ele>359.0</ele></trkpt>
    <trkpt lat="44.6962348" lon="-72.3554774"><ele>359.0</ele></trkpt>
    <trkpt lat="44.6962322" lon="-72.3555135"><ele>359.0</ele></trkpt>
    <trkpt lat="44.6962499" lon="-72.3555634"><ele>359.0</ele></trkpt>
    <trkpt lat="44.6962992" lon="-72.3556041"><ele>359.0</ele></trkpt>
    <trkpt lat="44.6963518" lon="-72.3556189"><ele>359.0</ele></trkpt>
    <trkpt lat="44.6964138" lon="-72.3556403"><ele>359.0</ele></trkpt>
    <trkpt lat="44.6964012" lon="-72.3557492"><ele>359.0</ele></trkpt>
    <trkpt lat="44.6964091" lon="-72.355837"><ele>359.0</ele></trkpt>
    <trkpt lat="44.6964243" lon="-72.3560015"><ele>359.0</ele></trkpt>
    <trkpt lat="44.6965565" lon="-72.3562947"><ele>351.0</ele></trkpt>
    <trkpt lat="44.6967141" lon="-72.3565236"><ele>351.0</ele></trkpt>
    <trkpt lat="44.6968666" lon="-72.3567239"><ele>351.0</ele></trkpt>
    <trkpt lat="44.6970293" lon="-72.3569885"><ele>351.0</ele></trkpt>
    <trkpt lat="44.6971426" lon="-72.3570824"><ele>351.0</ele></trkpt>
    <trkpt lat="44.6970076" lon="-72.3572173"><ele>351.0</ele></trkpt>
    <trkpt lat="44.6968724" lon="-72.3573035"><ele>351.0</ele></trkpt>
    <trkpt lat="44.6967304" lon="-72.3574431"><ele>351.0</ele></trkpt>
    <trkpt lat="44.6965976" lon="-72.3575103"><ele>351.0</ele></trkpt>
    <trkpt lat="44.6964346" lon="-72.3575055"><ele>351.0</ele></trkpt>
    <trkpt lat="44.6962483" lon="-72.3574999"><ele>351.0</ele></trkpt>
    <trkpt lat="44.6961313" lon="-72.3574768"><ele>351.0</ele></trkpt>
    <trkpt lat="44.6960398" lon="-72.3573867"><ele>351.0</ele></trkpt>
    <trkpt lat="44.6959053" lon="-72.3573625"><ele>351.0</ele></trkpt>
    <trkpt lat="44.6957786" lon="-72.3574114"><ele>357.0</ele></trkpt>
    <trkpt lat="44.6956765" lon="-72.3574588"><ele>357.0</ele></trkpt>
    <trkpt lat="44.6955705" lon="-72.3575654"><ele>357.0</ele></trkpt>
    <trkpt lat="44.695465" lon="-72.3576665"><ele>357.0</ele></trkpt>
    <trkpt lat="44.6953065" lon="-72.3577915"><ele>357.0</ele></trkpt>
    <trkpt lat="44.695157" lon="-72.3579085"><ele>357.0</ele></trkpt>
    <trkpt lat="44.6950659" lon="-72.3580549"><ele>357.0</ele></trkpt>
    <trkpt lat="44.695019" lon="-72.3581987"><ele>357.0</ele></trkpt>
    <trkpt lat="44.6950162" lon="-72.3583968"><ele>345.0</ele></trkpt>
    <trkpt lat="44.6949847" lon="-72.3585754"><ele>345.0</ele></trkpt>
    <trkpt lat="44.6949263" lon="-72.3587233"><ele>345.0</ele></trkpt>
    <trkpt lat="44.6948593" lon="-72.3588095"><ele>345.0</ele></trkpt>
    <trkpt lat="44.6947973" lon="-72.358822"><ele>345.0</ele></trkpt>
    <trkpt lat="44.694702" lon="-72.3587819"><ele>345.0</ele></trkpt>
    <trkpt lat="44.6945765" lon="-72.3588073"><ele>345.0</ele></trkpt>
    <trkpt lat="44.6944272" lon="-72.3589908"><ele>345.0</ele></trkpt>
    <trkpt lat="44.6943416" lon="-72.3590496"><ele>345.0</ele></trkpt>
    <trkpt lat="44.6942817" lon="-72.3590325"><ele>345.0</ele></trkpt>
    <trkpt lat="44.6941673" lon="-72.3589797"><ele>345.0</ele></trkpt>
    <trkpt lat="44.6939814" lon="-72.3590024"><ele>345.0</ele></trkpt>
    <trkpt lat="44.693857" lon="-72.3590546"><ele>345.0</ele></trkpt>
    <trkpt lat="44.6937319" lon="-72.3592077"><ele>363.0</ele></trkpt>
    <trkpt lat="44.6936185" lon="-72.35937"><ele>363.0</ele></trkpt>
    <trkpt lat="44.6935271" lon="-72.3595428"><ele>363.0</ele></trkpt>
    <trkpt lat="44.6934574" lon="-72.3597061"><ele>363.0</ele></trkpt>
    <trkpt lat="44.6934014" lon="-72.3598727"><ele>363.0</ele></trkpt>
    <trkpt lat="44.6934029" lon="-72.3600098"><ele>363.0</ele></trkpt>
    <trkpt lat="44.6933578" lon="-72.3601295"><ele>363.0</ele></trkpt>
    <trkpt lat="44.6932406" lon="-72.3602836"><ele>363.0</ele></trkpt>
    <trkpt lat="44.6931447" lon="-72.3604496"><ele>343.0</ele></trkpt>
    <trkpt lat="44.6930388" lon="-72.3606261"><ele>343.0</ele></trkpt>
    <trkpt lat="44.6929435" lon="-72.3607568"><ele>343.0</ele></trkpt>
    <trkpt lat="44.6928631" lon="-72.3608781"><ele>343.0</ele></trkpt>
    <trkpt lat="44.6928039" lon="-72.3610044"><ele>343.0</ele></trkpt>
    <trkpt lat="44.6927281" lon="-72.3611295"><ele>343.0</ele></trkpt>
    <trkpt lat="44.6925683" lon="-72.3612043"><ele>343.0</ele></trkpt>
    <trkpt lat="44.6924363" lon="-72.3612782"><ele>343.0</ele></trkpt>
    <trkpt lat="44.6923309" lon="-72.3613373"><ele>343.0</ele></trkpt>
    <trkpt lat="44.6922088" lon="-72.3613468"><ele>343.0</ele></trkpt>
    <trkpt lat="44.6920925" lon="-72.3614038"><ele>343.0</ele></trkpt>
    <trkpt lat="44.6920132" lon="-72.3615293"><ele>343.0</ele></trkpt>
    <trkpt lat="44.6919321" lon="-72.3616224"><ele>343.0</ele></trkpt>
    <trkpt lat="44.6917941" lon="-72.3616856"><ele>343.0</ele></trkpt>
    <trkpt lat="44.691706" lon="-72.361767"><ele>343.0</ele></trkpt>
    <trkpt lat="44.6916394" lon="-72.3618415"><ele>356.0</ele></trkpt>
    <trkpt lat="44.6915705" lon="-72.3618486"><ele>356.0</ele></trkpt>
    <trkpt lat="44.6914915" lon="-72.3618235"><ele>356.0</ele></trkpt>
    <trkpt lat="44.6914322" lon="-72.3618196"><ele>356.0</ele></trkpt>
    <trkpt lat="44.6913677" lon="-72.3618558"><ele>356.0</ele></trkpt>
    <trkpt lat="44.6912649" lon="-72.3618783"><ele>356.0</ele></trkpt>
    <trkpt lat="44.6911919" lon="-72.3618734"><ele>356.0</ele></trkpt>
    <trkpt lat="44.6910906" lon="-72.3618339"><ele>356.0</ele></trkpt>
    <trkpt lat="44.6909346" lon="-72.3618602"><ele>356.0</ele></trkpt>
    <trkpt lat="44.6908259" lon="-72.361836"><ele>356.0</ele></trkpt>
    <trkpt lat="44.6907017" lon="-72.361791"><ele>356.0</ele></trkpt>
    <trkpt lat="44.6904261" lon="-72.361763"><ele>356.0</ele></trkpt>
    <trkpt lat="44.6903655" lon="-72.3617124"><ele>356.0</ele></trkpt>
    <trkpt lat="44.69032" lon="-72.3615959"><ele>356.0</ele></trkpt>
    <trkpt lat="44.6902863" lon="-72.3614522"><ele>356.0</ele></trkpt>
    <trkpt lat="44.6902032" lon="-72.3612813"><ele>356.0</ele></trkpt>
    <trkpt lat="44.6901111" lon="-72.3612321"><ele>356.0</ele></trkpt>
    <trkpt lat="44.6900116" lon="-72.3612486"><ele>356.0</ele></trkpt>
    <trkpt lat="44.6899284" lon="-72.3612365"><ele>356.0</ele></trkpt>
    <trkpt lat="44.6898422" lon="-72.3613002"><ele>356.0</ele></trkpt>
    <trkpt lat="44.6897435" lon="-72.3613382"><ele>356.0</ele></trkpt>
    <trkpt lat="44.6896402" lon="-72.3613288"><ele>356.0</ele></trkpt>
    <trkpt lat="44.6895215" lon="-72.3612034"><ele>348.0</ele></trkpt>
    <trkpt lat="44.689412" lon="-72.3611476"><ele>348.0</ele></trkpt>
    <trkpt lat="44.6893094" lon="-72.3611082"><ele>348.0</ele></trkpt>
    <trkpt lat="44.6891451" lon="-72.3611862"><ele>348.0</ele></trkpt>
    <trkpt lat="44.6890135" lon="-72.3613174"><ele>348.0</ele></trkpt>
    <trkpt lat="44.6888529" lon="-72.3615049"><ele>348.0</ele></trkpt>
    <trkpt lat="44.6887593" lon="-72.3616616"><ele>348.0</ele></trkpt>
    <trkpt lat="44.688629" lon="-72.3617836"><ele>348.0</ele></trkpt>
    <trkpt lat="44.6884965" lon="-72.3618301"><ele>348.0</ele></trkpt>
    <trkpt lat="44.6883533" lon="-72.3618282"><ele>348.0</ele></trkpt>
    <trkpt lat="44.6881612" lon="-72.3617611"><ele>348.0</ele></trkpt>
    <trkpt lat="44.6880386" lon="-72.3617293"><ele>348.0</ele></trkpt>
    <trkpt lat="44.6878188" lon="-72.3617086"><ele>348.0</ele></trkpt>
    <trkpt lat="44.6876751" lon="-72.3616927"><ele>348.0</ele></trkpt>
    <trkpt lat="44.687527" lon="-72.3617503"><ele>348.0</ele></trkpt>
    <trkpt lat="44.6874394" lon="-72.3618488"><ele>347.0</ele></trkpt>
    <trkpt lat="44.6873453" lon="-72.3619717"><ele>347.0</ele></trkpt>
    <trkpt lat="44.6871856" lon="-72.362073"><ele>347.0</ele></trkpt>
    <trkpt lat="44.6870694" lon="-72.3620963"><ele>347.0</ele></trkpt>
    <trkpt lat="44.6868416" lon="-72.3621226"><ele>347.0</ele></trkpt>
    <trkpt lat="44.6865981" lon="-72.3621973"><ele>347.0</ele></trkpt>
    <trkpt lat="44.6864014" lon="-72.3622456"><ele>347.0</ele></trkpt>
    <trkpt lat="44.6862172" lon="-72.3622368"><ele>347.0</ele></trkpt>
    <trkpt lat="44.6858444" lon="-72.3622193"><ele>347.0</ele></trkpt>
    <trkpt lat="44.6856937" lon="-72.3621937"><ele>347.0</ele></trkpt>
    <trkpt lat="44.6855967" lon="-72.3621091"><ele>347.0</ele></trkpt>
    <trkpt lat="44.6855332" lon="-72.3620228"><ele>347.0</ele></trkpt>
    <trkpt lat="44.6854591" lon="-72.361887"><ele>347.0</ele></trkpt>
    <trkpt lat="44.6854231" lon="-72.36174"><ele>347.0</ele></trkpt>
    <trkpt lat="44.6853801" lon="-72.361611"><ele>353.0</ele></trkpt>
    <trkpt lat="44.685266" lon="-72.36129"><ele>353.0</ele></trkpt>
    <trkpt lat="44.6851949" lon="-72.3612234"><ele>353.0</ele></trkpt>
    <trkpt lat="44.6851163" lon="-72.3611385"><ele>353.0</ele></trkpt>
    <trkpt lat="44.6851002" lon="-72.360963"><ele>353.0</ele></trkpt>
    <trkpt lat="44.6850507" lon="-72.3608933"><ele>353.0</ele></trkpt>
    <trkpt lat="44.6847751" lon="-72.3607843"><ele>353.0</ele></trkpt>
    <trkpt lat="44.6846907" lon="-72.3606745"><ele>353.0</ele></trkpt>
    <trkpt lat="44.6845991" lon="-72.3607477"><ele>353.0</ele></trkpt>
    <trkpt lat="44.6845594" lon="-72.3607532"><ele>353.0</ele></trkpt>
    <trkpt lat="44.6843015" lon="-72.3607568"><ele>353.0</ele></trkpt>
    <trkpt lat="44.6840853" lon="-72.3607726"><ele>353.0</ele></trkpt>
    <trkpt lat="44.6837954" lon="-72.3607899"><ele>353.0</ele></trkpt>
    <trkpt lat="44.6836257" lon="-72.3608028"><ele>353.0</ele></trkpt>
    <trkpt lat="44.683378" lon="-72.3606821"><ele>353.0</ele></trkpt>
    <trkpt lat="44.6832329" lon="-72.3605937"><ele>357.0</ele></trkpt>
    <trkpt lat="44.683134" lon="-72.3605335"><ele>357.0</ele></trkpt>
    <trkpt lat="44.6830826" lon="-72.3604761"><ele>357.0</ele></trkpt>
    <trkpt lat="44.6829709" lon="-72.3603538"><ele>341.0</ele></trkpt>
    <trkpt lat="44.6829205" lon="-72.3602952"><ele>341.0</ele></trkpt>
    <trkpt lat="44.6826881" lon="-72.3599576"><ele>341.0</ele></trkpt>
    <trkpt lat="44.6825349" lon="-72.3595586"><ele>341.0</ele></trkpt>
    <trkpt lat="44.6824172" lon="-72.3593778"><ele>341.0</ele></trkpt>
    <trkpt lat="44.6822853" lon="-72.3592705"><ele>341.0</ele></trkpt>
    <trkpt lat="44.6820954" lon="-72.3591618"><ele>341.0</ele></trkpt>
    <trkpt lat="44.6820011" lon="-72.3590769"><ele>341.0</ele></trkpt>
    <trkpt lat="44.6819701" lon="-72.3589903"><ele>341.0</ele></trkpt>
    <trkpt lat="44.6818884" lon="-72.3589165"><ele>341.0</ele></trkpt>
    <trkpt lat="44.6818206" lon="-72.3589261"><ele>341.0</ele></trkpt>
    <trkpt lat="44.681794" lon="-72.3589311"><ele>341.0</ele></trkpt>
    <trkpt lat="44.6817666" lon="-72.3589953"><ele>341.0</ele></trkpt>
    <trkpt lat="44.681776" lon="-72.3591056"><ele>341.0</ele></trkpt>
    <trkpt lat="44.6817923" lon="-72.3592384"><ele>341.0</ele></trkpt>
    <trkpt lat="44.6818367" lon="-72.3594015"><ele>341.0</ele></trkpt>
    <trkpt lat="44.6818742" lon="-72.3595302"><ele>341.0</ele></trkpt>
    <trkpt lat="44.6819476" lon="-72.3596973"><ele>341.0</ele></trkpt>
    <trkpt lat="44.6820268" lon="-72.3598627"><ele>341.0</ele></trkpt>
    <trkpt lat="44.6820884" lon="-72.3600347"><ele>341.0</ele></trkpt>
    <trkpt lat="44.6821086" lon="-72.3603489"><ele>341.0</ele></trkpt>
    <trkpt lat="44.6821018" lon="-72.3604017"><ele>341.0</ele></trkpt>
    <trkpt lat="44.6820715" lon="-72.3605254"><ele>357.0</ele></trkpt>
    <trkpt lat="44.6819719" lon="-72.3607313"><ele>357.0</ele></trkpt>
    <trkpt lat="44.6819457" lon="-72.3607989"><ele>357.0</ele></trkpt>
    <trkpt lat="44.6819264" lon="-72.3609296"><ele>357.0</ele></trkpt>
    <trkpt lat="44.6819953" lon="-72.360994"><ele>357.0</ele></trkpt>
    <trkpt lat="44.6821967" lon="-72.3610992"><ele>357.0</ele></trkpt>
    <trkpt lat="44.6823864" lon="-72.3612334"><ele>357.0</ele></trkpt>
    <trkpt lat="44.6825312" lon="-72.3613675"><ele>357.0</ele></trkpt>
    <trkpt lat="44.6826101" lon="-72.3614727"><ele>357.0</ele></trkpt>
    <trkpt lat="44.6826529" lon="-72.3615734"><ele>357.0</ele></trkpt>
    <trkpt lat="44.6826619" lon="-72.3616849"><ele>357.0</ele></trkpt>
    <trkpt lat="44.6826192" lon="-72.3617632"><ele>357.0</ele></trkpt>
    <trkpt lat="44.6825306" lon="-72.3618052"><ele>357.0</ele></trkpt>
    <trkpt lat="44.682404" lon="-72.3617702"><ele>357.0</ele></trkpt>
    <trkpt lat="44.6822974" lon="-72.3616682"><ele>357.0</ele></trkpt>
    <trkpt lat="44.682207" lon="-72.3615632"><ele>357.0</ele></trkpt>
    <trkpt lat="44.6820899" lon="-72.3614832"><ele>357.0</ele></trkpt>
    <trkpt lat="44.6818763" lon="-72.3614008"><ele>357.0</ele></trkpt>
    <trkpt lat="44.6816707" lon="-72.3613836"><ele>357.0</ele></trkpt>
    <trkpt lat="44.6815183" lon="-72.3613452"><ele>357.0</ele></trkpt>
    <trkpt lat="44.6813729" lon="-72.3613876"><ele>357.0</ele></trkpt>
    <trkpt lat="44.681235" lon="-72.3614622"><ele>356.0</ele></trkpt>
    <trkpt lat="44.6811177" lon="-72.3614801"><ele>356.0</ele></trkpt>
    <trkpt lat="44.6809988" lon="-72.3614608"><ele>356.0</ele></trkpt>
    <trkpt lat="44.6808577" lon="-72.361415"><ele>356.0</ele></trkpt>
    <trkpt lat="44.6807413" lon="-72.3613956"><ele>356.0</ele></trkpt>
    <trkpt lat="44.6806001" lon="-72.3613557"><ele>356.0</ele></trkpt>
    <trkpt lat="44.6804722" lon="-72.3614163"><ele>356.0</ele></trkpt>
    <trkpt lat="44.6803398" lon="-72.3617811"><ele>356.0</ele></trkpt>
    <trkpt lat="44.6803701" lon="-72.3618031"><ele>356.0</ele></trkpt>
    <trkpt lat="44.680519" lon="-72.3619116"><ele>356.0</ele></trkpt>
    <trkpt lat="44.6806606" lon="-72.3619747"><ele>356.0</ele></trkpt>
    <trkpt lat="44.6807457" lon="-72.3619642"><ele>356.0</ele></trkpt>
    <trkpt lat="44.680519" lon="-72.3619116"><ele>356.0</ele></trkpt>
    <trkpt lat="44.6809414" lon="-72.3629311"><ele>360.0</ele></trkpt>
    <trkpt lat="44.6809898" lon="-72.3630849"><ele>360.0</ele></trkpt>
    <trkpt lat="44.6810584" lon="-72.3632315"><ele>360.0</ele></trkpt>
    <trkpt lat="44.6811398" lon="-72.3632708"><ele>360.0</ele></trkpt>
    <trkpt lat="44.6812364" lon="-72.3632422"><ele>360.0</ele></trkpt>
    <trkpt lat="44.6813864" lon="-72.3631242"><ele>344.0</ele></trkpt>
    <trkpt lat="44.6815288" lon="-72.3629955"><ele>344.0</ele></trkpt>
    <trkpt lat="44.6816331" lon="-72.362856"><ele>344.0</ele></trkpt>
    <trkpt lat="44.6816967" lon="-72.3626807"><ele>344.0</ele></trkpt>
    <trkpt lat="44.6817346" lon="-72.3625858"><ele>344.0</ele></trkpt>
    <trkpt lat="44.6820842" lon="-72.3625501"><ele>344.0</ele></trkpt>
    <trkpt lat="44.6823741" lon="-72.3625071"><ele>344.0</ele></trkpt>
    <trkpt lat="44.6825378" lon="-72.3624474"><ele>357.0</ele></trkpt>
    <trkpt lat="44.6827787" lon="-72.3623556"><ele>357.0</ele></trkpt>
    <trkpt lat="44.6830461" lon="-72.3622809"><ele>357.0</ele></trkpt>
    <trkpt lat="44.6832134" lon="-72.3622408"><ele>357.0</ele></trkpt>
    <trkpt lat="44.6833441" lon="-72.3622063"><ele>353.0</ele></trkpt>
    <trkpt lat="44.6834767" lon="-72.3622006"><ele>353.0</ele></trkpt>
    <trkpt lat="44.6835673" lon="-72.3621874"><ele>353.0</ele></trkpt>
    <trkpt lat="44.6835126" lon="-72.3624272"><ele>353.0</ele></trkpt>
    <trkpt lat="44.683444" lon="-72.3625504"><ele>341.0</ele></trkpt>
    <trkpt lat="44.6832346" lon="-72.3625879"><ele>344.0</ele></trkpt>
    <trkpt lat="44.6831012" lon="-72.3626522"><ele>344.0</ele></trkpt>
    <trkpt lat="44.6830136" lon="-72.3628611"><ele>344.0</ele></trkpt>
    <trkpt lat="44.6829794" lon="-72.3631075"><ele>344.0</ele></trkpt>
    <trkpt lat="44.6830174" lon="-72.3632736"><ele>344.0</ele></trkpt>
    <trkpt lat="44.6831508" lon="-72.3634718"><ele>344.0</ele></trkpt>
    <trkpt lat="44.6833107" lon="-72.3636218"><ele>344.0</ele></trkpt>
    <trkpt lat="44.6835621" lon="-72.3636968"><ele>341.0</ele></trkpt>
    <trkpt lat="44.6838326" lon="-72.3637289"><ele>341.0</ele></trkpt>
    <trkpt lat="44.6839392" lon="-72.3638093"><ele>341.0</ele></trkpt>
    <trkpt lat="44.6840306" lon="-72.3639218"><ele>341.0</ele></trkpt>
    <trkpt lat="44.6840573" lon="-72.3640932"><ele>341.0</ele></trkpt>
    <trkpt lat="44.6839963" lon="-72.3642539"><ele>341.0</ele></trkpt>
    <trkpt lat="44.6838783" lon="-72.3643718"><ele>341.0</ele></trkpt>
    <trkpt lat="44.6835316" lon="-72.3645272"><ele>341.0</ele></trkpt>
    <trkpt lat="44.6832346" lon="-72.3645754"><ele>344.0</ele></trkpt>
    <trkpt lat="44.682827" lon="-72.3646879"><ele>342.0</ele></trkpt>
    <trkpt lat="44.6821985" lon="-72.3648861"><ele>342.0</ele></trkpt>
    <trkpt lat="44.6818192" lon="-72.3650713"><ele>342.0</ele></trkpt>
    <trkpt lat="44.6816243" lon="-72.3652909"><ele>342.0</ele></trkpt>
    <trkpt lat="44.681476" lon="-72.3654887"><ele>342.0</ele></trkpt>
    <trkpt lat="44.6815108" lon="-72.3657663"><ele>342.0</ele></trkpt>
    <trkpt lat="44.6816605" lon="-72.3664813"><ele>342.0</ele></trkpt>
    <trkpt lat="44.6817495" lon="-72.3668261"><ele>348.0</ele></trkpt>
    <trkpt lat="44.6818176" lon="-72.3668736"><ele>348.0</ele></trkpt>
    <trkpt lat="44.6820385" lon="-72.3669111"><ele>348.0</ele></trkpt>
    <trkpt lat="44.6825223" lon="-72.3668254"><ele>348.0</ele></trkpt>
    <trkpt lat="44.6830517" lon="-72.3667557"><ele>348.0</ele></trkpt>
    <trkpt lat="44.6832917" lon="-72.3667021"><ele>348.0</ele></trkpt>
    <trkpt lat="44.6835278" lon="-72.3666914"><ele>358.0</ele></trkpt>
    <trkpt lat="44.6836764" lon="-72.3666807"><ele>358.0</ele></trkpt>
    <trkpt lat="44.6839849" lon="-72.3665039"><ele>341.0</ele></trkpt>
    <trkpt lat="44.6841906" lon="-72.3663593"><ele>341.0</ele></trkpt>
    <trkpt lat="44.6843848" lon="-72.3661557"><ele>341.0</ele></trkpt>
    <trkpt lat="44.6847238" lon="-72.365995"><ele>341.0</ele></trkpt>
    <trkpt lat="44.6855427" lon="-72.3657218"><ele>352.0</ele></trkpt>
    <trkpt lat="44.6858589" lon="-72.3655825"><ele>352.0</ele></trkpt>
    <trkpt lat="44.6860721" lon="-72.3654647"><ele>352.0</ele></trkpt>
    <trkpt lat="44.6863083" lon="-72.3654218"><ele>352.0</ele></trkpt>
    <trkpt lat="44.6865559" lon="-72.3652611"><ele>352.0</ele></trkpt>
    <trkpt lat="44.6870662" lon="-72.3651111"><ele>352.0</ele></trkpt>
    <trkpt lat="44.6881822" lon="-72.3647629"><ele>367.0</ele></trkpt>
    <trkpt lat="44.6886925" lon="-72.3646504"><ele>367.0</ele></trkpt>
    <trkpt lat="44.68901" lon="-72.3645043"><ele>341.0</ele></trkpt>
    <trkpt lat="44.6891678" lon="-72.3644742"><ele>341.0</ele></trkpt>
    <trkpt lat="44.6892516" lon="-72.3644632"><ele>341.0</ele></trkpt>
    <trkpt lat="44.6893412" lon="-72.3644111"><ele>341.0</ele></trkpt>
    <trkpt lat="44.6894074" lon="-72.3643646"><ele>341.0</ele></trkpt>
    <trkpt lat="44.6895789" lon="-72.3643289"><ele>341.0</ele></trkpt>
    <trkpt lat="44.6898049" lon="-72.3642494"><ele>339.0</ele></trkpt>
    <trkpt lat="44.6900036" lon="-72.3642083"><ele>339.0</ele></trkpt>
    <trkpt lat="44.6901439" lon="-72.3641426"><ele>339.0</ele></trkpt>
    <trkpt lat="44.6902978" lon="-72.3640932"><ele>339.0</ele></trkpt>
    <trkpt lat="44.6904459" lon="-72.3640412"><ele>339.0</ele></trkpt>
    <trkpt lat="44.6905608" lon="-72.3639754"><ele>339.0</ele></trkpt>
    <trkpt lat="44.6907264" lon="-72.3639261"><ele>339.0</ele></trkpt>
    <trkpt lat="44.6908199" lon="-72.3638987"><ele>339.0</ele></trkpt>
    <trkpt lat="44.6909329" lon="-72.3638329"><ele>339.0</ele></trkpt>
    <trkpt lat="44.6910771" lon="-72.3637836"><ele>339.0</ele></trkpt>
    <trkpt lat="44.691194" lon="-72.3637342"><ele>339.0</ele></trkpt>
    <trkpt lat="44.691268" lon="-72.3636849"><ele>339.0</ele></trkpt>
    <trkpt lat="44.6913421" lon="-72.3636109"><ele>339.0</ele></trkpt>
    <trkpt lat="44.6914726" lon="-72.3635259"><ele>339.0</ele></trkpt>
    <trkpt lat="44.6916148" lon="-72.3633889"><ele>339.0</ele></trkpt>
    <trkpt lat="44.6918915" lon="-72.3631066"><ele>376.0</ele></trkpt>
    <trkpt lat="44.6921175" lon="-72.3629148"><ele>376.0</ele></trkpt>
    <trkpt lat="44.6923221" lon="-72.3626517"><ele>376.0</ele></trkpt>
    <trkpt lat="44.6926805" lon="-72.362216"><ele>343.0</ele></trkpt>
    <trkpt lat="44.6929572" lon="-72.3619145"><ele>343.0</ele></trkpt>
    <trkpt lat="44.6931247" lon="-72.3617528"><ele>343.0</ele></trkpt>
    <trkpt lat="44.6932825" lon="-72.3616514"><ele>343.0</ele></trkpt>
    <trkpt lat="44.6934014" lon="-72.3616048"><ele>343.0</ele></trkpt>
    <trkpt lat="44.693715" lon="-72.3615226"><ele>343.0</ele></trkpt>
    <trkpt lat="44.6938592" lon="-72.3614897"><ele>351.0</ele></trkpt>
    <trkpt lat="44.6940715" lon="-72.3614185"><ele>351.0</ele></trkpt>
    <trkpt lat="44.69443" lon="-72.3612787"><ele>351.0</ele></trkpt>
    <trkpt lat="44.6945975" lon="-72.3612102"><ele>351.0</ele></trkpt>
    <trkpt lat="44.694843" lon="-72.3611225"><ele>351.0</ele></trkpt>
    <trkpt lat="44.6950339" lon="-72.3610211"><ele>351.0</ele></trkpt>
    <trkpt lat="44.69518" lon="-72.3609772"><ele>351.0</ele></trkpt>
    <trkpt lat="44.6955245" lon="-72.3608682"><ele>351.0</ele></trkpt>
    <trkpt lat="44.6958254" lon="-72.3608254"><ele>351.0</ele></trkpt>
    <trkpt lat="44.6960443" lon="-72.360804"><ele>351.0</ele></trkpt>
    <trkpt lat="44.6966553" lon="-72.3607784"><ele>351.0</ele></trkpt>
    <trkpt lat="44.696938" lon="-72.3607698"><ele>351.0</ele></trkpt>
    <trkpt lat="44.6971478" lon="-72.3607698"><ele>351.0</ele></trkpt>
    <trkpt lat="44.6974062" lon="-72.3607185"><ele>351.0</ele></trkpt>
    <trkpt lat="44.6976433" lon="-72.3606287"><ele>351.0</ele></trkpt>
    <trkpt lat="44.6978227" lon="-72.3605774"><ele>351.0</ele></trkpt>
    <trkpt lat="44.6982087" lon="-72.3604918"><ele>365.0</ele></trkpt>
    <trkpt lat="44.6985918" lon="-72.3604063"><ele>344.0</ele></trkpt>
    <trkpt lat="44.6990234" lon="-72.3602994"><ele>344.0</ele></trkpt>
    <trkpt lat="44.6992423" lon="-72.3602438"><ele>344.0</ele></trkpt>
    <trkpt lat="44.6994855" lon="-72.3601454"><ele>344.0</ele></trkpt>
    <trkpt lat="44.6996952" lon="-72.3600471"><ele>344.0</ele></trkpt>
    <trkpt lat="44.6999718" lon="-72.3599829"><ele>344.0</ele></trkpt>
    <trkpt lat="44.7004157" lon="-72.3598247"><ele>342.0</ele></trkpt>
    <trkpt lat="44.7009142" lon="-72.3596323"><ele>342.0</ele></trkpt>
    <trkpt lat="44.7012121" lon="-72.3595467"><ele>342.0</ele></trkpt>
    <trkpt lat="44.70144" lon="-72.3594441"><ele>342.0</ele></trkpt>
    <trkpt lat="44.7016528" lon="-72.3592858"><ele>342.0</ele></trkpt>
    <trkpt lat="44.7018434" lon="-72.359146"><ele>342.0</ele></trkpt>
    <trkpt lat="44.7020201" lon="-72.3590237"><ele>342.0</ele></trkpt>
    <trkpt lat="44.7021309" lon="-72.3589586"><ele>355.0</ele></trkpt>
    <trkpt lat="44.7023551" lon="-72.3589015"><ele>355.0</ele></trkpt>
    <trkpt lat="44.7026652" lon="-72.3588622"><ele>355.0</ele></trkpt>
    <trkpt lat="44.7030796" lon="-72.3587477"><ele>355.0</ele></trkpt>
    <trkpt lat="44.7033693" lon="-72.3587263"><ele>355.0</ele></trkpt>
    <trkpt lat="44.7036083" lon="-72.3586941"><ele>355.0</ele></trkpt>
    <trkpt lat="44.7038599" lon="-72.358619"><ele>355.0</ele></trkpt>
    <trkpt lat="44.7041471" lon="-72.358526"><ele>355.0</ele></trkpt>
    <trkpt lat="44.7043861" lon="-72.358433"><ele>366.0</ele></trkpt>
    <trkpt lat="44.704531" lon="-72.3584008"><ele>366.0</ele></trkpt>
    <trkpt lat="44.7047928" lon="-72.3583114"><ele>340.0</ele></trkpt>
    <trkpt lat="44.7049631" lon="-72.3582578"><ele>340.0</ele></trkpt>
    <trkpt lat="44.7052884" lon="-72.358197"><ele>340.0</ele></trkpt>
    <trkpt lat="44.7054562" lon="-72.3581326"><ele>340.0</ele></trkpt>
    <trkpt lat="44.7055629" lon="-72.3580825"><ele>340.0</ele></trkpt>
    <trkpt lat="44.705751" lon="-72.3579752"><ele>340.0</ele></trkpt>
    <trkpt lat="44.7059162" lon="-72.3578536"><ele>340.0</ele></trkpt>
    <trkpt lat="44.7060992" lon="-72.3576283"><ele>340.0</ele></trkpt>
    <trkpt lat="44.7061933" lon="-72.3574209"><ele>340.0</ele></trkpt>
    <trkpt lat="44.706239" lon="-72.3571563"><ele>340.0</ele></trkpt>
    <trkpt lat="44.7062314" lon="-72.3568594"><ele>340.0</ele></trkpt>
    <trkpt lat="44.7061958" lon="-72.3563981"><ele>340.0</ele></trkpt>
    <trkpt lat="44.7060942" lon="-72.3558402"><ele>340.0</ele></trkpt>
    <trkpt lat="44.706023" lon="-72.3554683"><ele>340.0</ele></trkpt>
    <trkpt lat="44.7059366" lon="-72.3551249"><ele>340.0</ele></trkpt>
    <trkpt lat="44.7058552" lon="-72.3549783"><ele>340.0</ele></trkpt>
    <trkpt lat="44.7057764" lon="-72.3549139"><ele>340.0</ele></trkpt>
    <trkpt lat="44.7055858" lon="-72.3548674"><ele>340.0</ele></trkpt>
    <trkpt lat="44.7054536" lon="-72.3548639"><ele>340.0</ele></trkpt>
    <trkpt lat="44.7051969" lon="-72.3549461"><ele>340.0</ele></trkpt>
    <trkpt lat="44.7049834" lon="-72.3550641"><ele>340.0</ele></trkpt>
    <trkpt lat="44.7048055" lon="-72.355243"><ele>340.0</ele></trkpt>
    <trkpt lat="44.7046758" lon="-72.3554718"><ele>340.0</ele></trkpt>
    <trkpt lat="44.704597" lon="-72.3557472"><ele>340.0</ele></trkpt>
    <trkpt lat="44.7045818" lon="-72.3559153"><ele>340.0</ele></trkpt>
    <trkpt lat="44.7045691" lon="-72.356255"><ele>340.0</ele></trkpt>
    <trkpt lat="44.7044903" lon="-72.3565304"><ele>340.0</ele></trkpt>
    <trkpt lat="44.7043683" lon="-72.3566985"><ele>340.0</ele></trkpt>
    <trkpt lat="44.7041649" lon="-72.3568916"><ele>348.0</ele></trkpt>
    <trkpt lat="44.7038091" lon="-72.3570812"><ele>348.0</ele></trkpt>
    <trkpt lat="44.7031762" lon="-72.3573029"><ele>348.0</ele></trkpt>
    <trkpt lat="44.7026729" lon="-72.3574746"><ele>348.0</ele></trkpt>
    <trkpt lat="44.7017069" lon="-72.3577535"><ele>353.0</ele></trkpt>
    <trkpt lat="44.7014654" lon="-72.3578536"><ele>353.0</ele></trkpt>
    <trkpt lat="44.7011579" lon="-72.3580825"><ele>353.0</ele></trkpt>
    <trkpt lat="44.7008528" lon="-72.3583579"><ele>342.0</ele></trkpt>
    <trkpt lat="44.7006952" lon="-72.3584938"><ele>342.0</ele></trkpt>
    <trkpt lat="44.7000063" lon="-72.3588371"><ele>342.0</ele></trkpt>
    <trkpt lat="44.6993734" lon="-72.3591125"><ele>344.0</ele></trkpt>
    <trkpt lat="44.6989209" lon="-72.359277"><ele>344.0</ele></trkpt>
    <trkpt lat="44.6987201" lon="-72.3593628"><ele>344.0</ele></trkpt>
    <trkpt lat="44.6984786" lon="-72.359556"><ele>344.0</ele></trkpt>
    <trkpt lat="44.6983337" lon="-72.3596382"><ele>344.0</ele></trkpt>
    <trkpt lat="44.6982117" lon="-72.3596811"><ele>344.0</ele></trkpt>
    <trkpt lat="44.6980286" lon="-72.3596811"><ele>344.0</ele></trkpt>
    <trkpt lat="44.6978812" lon="-72.3596454"><ele>342.0</ele></trkpt>
    <trkpt lat="44.6977719" lon="-72.3595595"><ele>342.0</ele></trkpt>
    <trkpt lat="44.6977287" lon="-72.359463"><ele>342.0</ele></trkpt>
    <trkpt lat="44.6977159" lon="-72.3593342"><ele>342.0</ele></trkpt>
    <trkpt lat="44.6977388" lon="-72.3591483"><ele>342.0</ele></trkpt>
    <trkpt lat="44.6978075" lon="-72.3589408"><ele>342.0</ele></trkpt>
    <trkpt lat="44.6978812" lon="-72.3587692"><ele>342.0</ele></trkpt>
    <trkpt lat="44.6979905" lon="-72.3585796"><ele>344.0</ele></trkpt>
    <trkpt lat="44.6980744" lon="-72.3582935"><ele>352.0</ele></trkpt>
    <trkpt lat="44.6981176" lon="-72.3581004"><ele>352.0</ele></trkpt>
    <trkpt lat="44.6981329" lon="-72.3579466"><ele>352.0</ele></trkpt>
    <trkpt lat="44.69811" lon="-72.3577714"><ele>352.0</ele></trkpt>
    <trkpt lat="44.6980515" lon="-72.3575997"><ele>352.0</ele></trkpt>
    <trkpt lat="44.6980337" lon="-72.3574924"><ele>352.0</ele></trkpt>
    <trkpt lat="44.6980515" lon="-72.3571277"><ele>352.0</ele></trkpt>
    <trkpt lat="44.6980515" lon="-72.3569167"><ele>352.0</ele></trkpt>
    <trkpt lat="44.6980057" lon="-72.3567593"><ele>352.0</ele></trkpt>
    <trkpt lat="44.697929" lon="-72.3566713"><ele>352.0</ele></trkpt>
    <trkpt lat="44.6975757" lon="-72.3567617"><ele>351.0</ele></trkpt>
    <trkpt lat="44.6971426" lon="-72.3570824"><ele>351.0</ele></trkpt>
  </trkseg></trk>
</gpx>