<?xml version="1.0" encoding="UTF-8"?>
<gpx version="1.1" xmlns="http://www.topografix.com/GPX/1/1" creator="GlideCast">
  <trk><name>Davos</name><trkseg>
    <trkpt lat="46.8318138" lon="9.8547044"><ele>1643.0</ele></trkpt>
    <trkpt lat="46.8317256" lon="9.8547199"><ele>1643.0</ele></trkpt>
    <trkpt lat="46.8316105" lon="9.8548084"><ele>1643.0</ele></trkpt>
    <trkpt lat="46.8315439" lon="9.8549275"><ele>1643.0</ele></trkpt>
    <trkpt lat="46.8314987" lon="9.8551064"><ele>1643.0</ele></trkpt>
    <trkpt lat="46.8314696" lon="9.8553103"><ele>1643.0</ele></trkpt>
    <trkpt lat="46.8314167" lon="9.8554722"><ele>1643.0</ele></trkpt>
    <trkpt lat="46.8312169" lon="9.8559502"><ele>1612.0</ele></trkpt>
    <trkpt lat="46.8310655" lon="9.8562157"><ele>1612.0</ele></trkpt>
    <trkpt lat="46.8309455" lon="9.8564566"><ele>1610.0</ele></trkpt>
    <trkpt lat="46.8308112" lon="9.8566406"><ele>1610.0</ele></trkpt>
    <trkpt lat="46.8306934" lon="9.8568431"><ele>1610.0</ele></trkpt>
    <trkpt lat="46.8306259" lon="9.856959"><ele>1610.0</ele></trkpt>
    <trkpt lat="46.8305466" lon="9.8570516"><ele>1610.0</ele></trkpt>
    <trkpt lat="46.83044" lon="9.8571424"><ele>1610.0</ele></trkpt>
    <trkpt lat="46.8302067" lon="9.8573916"><ele>1610.0</ele></trkpt>
    <trkpt lat="46.830127" lon="9.8574726"><ele>1610.0</ele></trkpt>
    <trkpt lat="46.8300182" lon="9.8575784"><ele>1610.0</ele></trkpt>
    <trkpt lat="46.8299141" lon="9.8576451"><ele>1610.0</ele></trkpt>
    <trkpt lat="46.8298076" lon="9.8576962"><ele>1610.0</ele></trkpt>
    <trkpt lat="46.8296057" lon="9.8577155"><ele>1610.0</ele></trkpt>
    <trkpt lat="46.8294473" lon="9.8577695"><ele>1610.0</ele></trkpt>
    <trkpt lat="46.8293963" lon="9.8578038"><ele>1610.0</ele></trkpt>
    <trkpt lat="46.8292824" lon="9.8579137"><ele>1610.0</ele></trkpt>
    <trkpt lat="46.8292518" lon="9.8579289"><ele>1610.0</ele></trkpt>
    <trkpt lat="46.8292078" lon="9.8579262"><ele>1610.0</ele></trkpt>
    <trkpt lat="46.8288921" lon="9.8578027"><ele>1589.0</ele></trkpt>
    <trkpt lat="46.8287297" lon="9.8577825"><ele>1589.0</ele></trkpt>
    <trkpt lat="46.8286039" lon="9.8577791"><ele>1589.0</ele></trkpt>
    <trkpt lat="46.8285365" lon="9.8577811"><ele>1589.0</ele></trkpt>
    <trkpt lat="46.8284683" lon="9.8577983"><ele>1589.0</ele></trkpt>
    <trkpt lat="46.8284377" lon="9.8578103"><ele>1589.0</ele></trkpt>
    <trkpt lat="46.8284067" lon="9.857831"><ele>1589.0</ele></trkpt>
    <trkpt lat="46.8283792" lon="9.8578574"><ele>1589.0</ele></trkpt>
    <trkpt lat="46.8283547" lon="9.8578883"><ele>1589.0</ele></trkpt>
    <trkpt lat="46.8283262" lon="9.8579331"><ele>1589.0</ele></trkpt>
    <trkpt lat="46.8282921" lon="9.8579966"><ele>1589.0</ele></trkpt>
    <trkpt lat="46.8282687" lon="9.8580533"><ele>1589.0</ele></trkpt>
    <trkpt lat="46.8282161" lon="9.858202"><ele>1589.0</ele></trkpt>
    <trkpt lat="46.8281717" lon="9.8583344"><ele>1628.0</ele></trkpt>
    <trkpt lat="46.8281434" lon="9.8584143"><ele>1628.0</ele></trkpt>
    <trkpt lat="46.8281195" lon="9.8584625"><ele>1628.0</ele></trkpt>
    <trkpt lat="46.8281" lon="9.858501"><ele>1628.0</ele></trkpt>
    <trkpt lat="46.8280702" lon="9.8585469"><ele>1628.0</ele></trkpt>
    <trkpt lat="46.8280443" lon="9.8585835"><ele>1628.0</ele></trkpt>
    <trkpt lat="46.8280166" lon="9.8586172"><ele>1628.0</ele></trkpt>
    <trkpt lat="46.8279811" lon="9.8586523"><ele>1628.0</ele></trkpt>
    <trkpt lat="46.8279528" lon="9.8586742"><ele>1628.0</ele></trkpt>
    <trkpt lat="46.8279086" lon="9.858705"><ele>1628.0</ele></trkpt>
    <trkpt lat="46.8278882" lon="9.8587219"><ele>1628.0</ele></trkpt>
    <trkpt lat="46.8278722" lon="9.8587439"><ele>1628.0</ele></trkpt>
    <trkpt lat="46.8278602" lon="9.8587627"><ele>1628.0</ele></trkpt>
    <trkpt lat="46.8278479" lon="9.8587954"><ele>1628.0</ele></trkpt>
    <trkpt lat="46.8278165" lon="9.8588848"><ele>1628.0</ele></trkpt>
    <trkpt lat="46.8277911" lon="9.8589561"><ele>1628.0</ele></trkpt>
    <trkpt lat="46.8277672" lon="9.858998"><ele>1628.0</ele></trkpt>
    <trkpt lat="46.827748" lon="9.8590279"><ele>1628.0</ele></trkpt>
    <trkpt lat="46.8275033" lon="9.8592736"><ele>1628.0</ele></trkpt>
    <trkpt lat="46.8273072" lon="9.8594675"><ele>1628.0</ele></trkpt>
    <trkpt lat="46.827265" lon="9.8595801"><ele>1628.0</ele></trkpt>
    <trkpt lat="46.8272246" lon="9.8596751"><ele>1628.0</ele></trkpt>
    <trkpt lat="46.8270701" lon="9.8599027"><ele>1595.0</ele></trkpt>
    <trkpt lat="46.8270158" lon="9.8600145"><ele>1595.0</ele></trkpt>
    <trkpt lat="46.8269681" lon="9.8601557"><ele>1595.0</ele></trkpt>
    <trkpt lat="46.8269308" lon="9.8603136"><ele>1595.0</ele></trkpt>
    <trkpt lat="46.8269282" lon="9.8605247"><ele>1599.0</ele></trkpt>
    <trkpt lat="46.8268799" lon="9.8607928"><ele>1599.0</ele></trkpt>
    <trkpt lat="46.8268708" lon="9.8611307"><ele>1599.0</ele></trkpt>
    <trkpt lat="46.8267864" lon="9.8612273"><ele>1599.0</ele></trkpt>
    <trkpt lat="46.8266799" lon="9.8612273"><ele>1599.0</ele></trkpt>
    <trkpt lat="46.8264707" lon="9.8611629"><ele>1599.0</ele></trkpt>
    <trkpt lat="46.8261514" lon="9.8613775"><ele>1599.0</ele></trkpt>
    <trkpt lat="46.8258688" lon="9.8613775"><ele>1599.0</ele></trkpt>
    <trkpt lat="46.8254577" lon="9.8612219"><ele>1599.0</ele></trkpt>
    <trkpt lat="46.8253219" lon="9.8612541"><ele>1599.0</ele></trkpt>
    <trkpt lat="46.8251824" lon="9.8612541"><ele>1599.0</ele></trkpt>
    <trkpt lat="46.8249805" lon="9.8612004"><ele>1590.0</ele></trkpt>
    <trkpt lat="46.8246025" lon="9.8613614"><ele>1590.0</ele></trkpt>
    <trkpt lat="46.8238592" lon="9.8620507"><ele>1590.0</ele></trkpt>
    <trkpt lat="46.8235086" lon="9.8627025"><ele>1611.0</ele></trkpt>
    <trkpt lat="46.8230498" lon="9.8630405"><ele>1611.0</ele></trkpt>
    <trkpt lat="46.8227745" lon="9.8630136"><ele>1633.0</ele></trkpt>
    <trkpt lat="46.8226075" lon="9.8627642"><ele>1633.0</ele></trkpt>
    <trkpt lat="46.8222978" lon="9.8625797"><ele>1633.0</ele></trkpt>
    <trkpt lat="46.8222779" lon="9.8625499"><ele>1633.0</ele></trkpt>
    <trkpt lat="46.8222591" lon="9.8625277"><ele>1633.0</ele></trkpt>
    <trkpt lat="46.8222024" lon="9.8625217"><ele>1633.0</ele></trkpt>
    <trkpt lat="46.8221463" lon="9.8625157"><ele>1633.0</ele></trkpt>
    <trkpt lat="46.8220761" lon="9.8625106"><ele>1633.0</ele></trkpt>
    <trkpt lat="46.8220504" lon="9.8625029"><ele>1633.0</ele></trkpt>
    <trkpt lat="46.8220159" lon="9.8624534"><ele>1586.0</ele></trkpt>
    <trkpt lat="46.821955" lon="9.8624157"><ele>1586.0</ele></trkpt>
    <trkpt lat="46.8218369" lon="9.862314"><ele>1586.0</ele></trkpt>
    <trkpt lat="46.8217691" lon="9.8622064"><ele>1586.0</ele></trkpt>
    <trkpt lat="46.8217527" lon="9.8621337"><ele>1586.0</ele></trkpt>
    <trkpt lat="46.8217334" lon="9.862097"><ele>1586.0</ele></trkpt>
    <trkpt lat="46.8216825" lon="9.8620337"><ele>1586.0</ele></trkpt>
    <trkpt lat="46.8216392" lon="9.8619483"><ele>1586.0</ele></trkpt>
    <trkpt lat="46.8215936" lon="9.8617918"><ele>1586.0</ele></trkpt>
    <trkpt lat="46.8215574" lon="9.8616919"><ele>1586.0</ele></trkpt>
    <trkpt lat="46.8215217" lon="9.8616303"><ele>1586.0</ele></trkpt>
    <trkpt lat="46.8214808" lon="9.861579"><ele>1586.0</ele></trkpt>
    <trkpt lat="46.8214246" lon="9.861532"><ele>1586.0</ele></trkpt>
    <trkpt lat="46.8213211" lon="9.8614739"><ele>1586.0</ele></trkpt>
    <trkpt lat="46.8212445" lon="9.8614124"><ele>1586.0</ele></trkpt>
    <trkpt lat="46.8211597" lon="9.8613278"><ele>1586.0</ele></trkpt>
    <trkpt lat="46.8210872" lon="9.8612808"><ele>1586.0</ele></trkpt>
    <trkpt lat="46.8209872" lon="9.8612397"><ele>1586.0</ele></trkpt>
    <trkpt lat="46.8208943" lon="9.8611886"><ele>1586.0</ele></trkpt>
    <trkpt lat="46.8208393" lon="9.8611585"><ele>1586.0</ele></trkpt>
    <trkpt lat="46.8204899" lon="9.8613737"><ele>1621.0</ele></trkpt>
    <trkpt lat="46.8205291" lon="9.8614122"><ele>1621.0</ele></trkpt>
    <trkpt lat="46.8205489" lon="9.8614235"><ele>1621.0</ele></trkpt>
    <trkpt lat="46.8205681" lon="9.8614271"><ele>1621.0</ele></trkpt>
    <trkpt lat="46.8205868" lon="9.8614195"><ele>1621.0</ele></trkpt>
    <trkpt lat="46.8206011" lon="9.861408"><ele>1621.0</ele></trkpt>
    <trkpt lat="46.8206129" lon="9.861382"><ele>1621.0</ele></trkpt>
    <trkpt lat="46.8206246" lon="9.8613567"><ele>1621.0</ele></trkpt>
    <trkpt lat="46.8206327" lon="9.8613248"><ele>1621.0</ele></trkpt>
    <trkpt lat="46.8206402" lon="9.8612814"><ele>1621.0</ele></trkpt>
    <trkpt lat="46.8206531" lon="9.861245"><ele>1621.0</ele></trkpt>
    <trkpt lat="46.8206675" lon="9.861216"><ele>1621.0</ele></trkpt>
    <trkpt lat="46.8206907" lon="9.8611752"><ele>1621.0</ele></trkpt>
    <trkpt lat="46.820718" lon="9.8611418"><ele>1621.0</ele></trkpt>
    <trkpt lat="46.8207416" lon="9.8611286"><ele>1621.0</ele></trkpt>
    <trkpt lat="46.8207534" lon="9.8611233"><ele>1621.0</ele></trkpt>
    <trkpt lat="46.8207668" lon="9.8611204"><ele>1621.0</ele></trkpt>
    <trkpt lat="46.8207788" lon="9.8611212"><ele>1621.0</ele></trkpt>
    <trkpt lat="46.8207978" lon="9.8611262"><ele>1621.0</ele></trkpt>
    <trkpt lat="46.8208126" lon="9.8611339"><ele>1621.0</ele></trkpt>
    <trkpt lat="46.8207978" lon="9.8611262"><ele>1621.0</ele></trkpt>
    <trkpt lat="46.8207788" lon="9.8611212"><ele>1621.0</ele></trkpt>
    <trkpt lat="46.8207668" lon="9.8611204"><ele>1621.0</ele></trkpt>
    <trkpt lat="46.8207534" lon="9.8611233"><ele>1621.0</ele></trkpt>
    <trkpt lat="46.8207416" lon="9.8611286"><ele>1621.0</ele></trkpt>
    <trkpt lat="46.820718" lon="9.8611418"><ele>1621.0</ele></trkpt>
    <trkpt lat="46.8206907" lon="9.8611752"><ele>1621.0</ele></trkpt>
    <trkpt lat="46.8206675" lon="9.861216"><ele>1621.0</ele></trkpt>
    <trkpt lat="46.8206531" lon="9.861245"><ele>1621.0</ele></trkpt>
    <trkpt lat="46.8206402" lon="9.8612814"><ele>1621.0</ele></trkpt>
    <trkpt lat="46.8206327" lon="9.8613248"><ele>1621.0</ele></trkpt>
    <trkpt lat="46.8206246" lon="9.8613567"><ele>1621.0</ele></trkpt>
    <trkpt lat="46.8206129" lon="9.861382"><ele>1621.0</ele></trkpt>
    <trkpt lat="46.8206011" lon="9.861408"><ele>1621.0</ele></trkpt>
    <trkpt lat="46.8205868" lon="9.8614195"><ele>1621.0</ele></trkpt>
    <trkpt lat="46.8205681" lon="9.8614271"><ele>1621.0</ele></trkpt>
    <trkpt lat="46.8205489" lon="9.8614235"><ele>1621.0</ele></trkpt>
    <trkpt lat="46.8205291" lon="9.8614122"><ele>1621.0</ele></trkpt>
    <trkpt lat="46.8204899" lon="9.8613737"><ele>1621.0</ele></trkpt>
    <trkpt lat="46.8204472" lon="9.8613138"><ele>1621.0</ele></trkpt>
    <trkpt lat="46.8203926" lon="9.8612205"><ele>1621.0</ele></trkpt>
    <trkpt lat="46.82037" lon="9.8611813"><ele>1621.0</ele></trkpt>
    <trkpt lat="46.820314" lon="9.8610948"><ele>1621.0</ele></trkpt>
    <trkpt lat="46.8201868" lon="9.8609375"><ele>1621.0</ele></trkpt>
    <trkpt lat="46.8200651" lon="9.8607981"><ele>1621.0</ele></trkpt>
    <trkpt lat="46.82001" lon="9.8607119"><ele>1621.0</ele></trkpt>
    <trkpt lat="46.8199577" lon="9.8606332"><ele>1621.0</ele></trkpt>
    <trkpt lat="46.8198898" lon="9.8605486"><ele>1621.0</ele></trkpt>
    <trkpt lat="46.8197721" lon="9.8604631"><ele>1621.0</ele></trkpt>
    <trkpt lat="46.8197264" lon="9.8604413"><ele>1621.0</ele></trkpt>
    <trkpt lat="46.8196725" lon="9.8604365"><ele>1621.0</ele></trkpt>
    <trkpt lat="46.8196166" lon="9.8604611"><ele>1621.0</ele></trkpt>
    <trkpt lat="46.819436" lon="9.8605952"><ele>1621.0</ele></trkpt>
    <trkpt lat="46.8193759" lon="9.8606079"><ele>1621.0</ele></trkpt>
    <trkpt lat="46.8193219" lon="9.860603"><ele>1621.0</ele></trkpt>
    <trkpt lat="46.819285" lon="9.8605708"><ele>1621.0</ele></trkpt>
    <trkpt lat="46.8192621" lon="9.8605215"><ele>1621.0</ele></trkpt>
    <trkpt lat="46.8192402" lon="9.860425"><ele>1621.0</ele></trkpt>
    <trkpt lat="46.8192312" lon="9.8603252"><ele>1622.0</ele></trkpt>
    <trkpt lat="46.8192356" lon="9.8602443"><ele>1622.0</ele></trkpt>
    <trkpt lat="46.8192497" lon="9.8601623"><ele>1622.0</ele></trkpt>
    <trkpt lat="46.8192654" lon="9.8600705"><ele>1622.0</ele></trkpt>
    <trkpt lat="46.8192664" lon="9.8599975"><ele>1622.0</ele></trkpt>
    <trkpt lat="46.8192624" lon="9.8599428"><ele>1622.0</ele></trkpt>
    <trkpt lat="46.8192371" lon="9.8598731"><ele>1622.0</ele></trkpt>
    <trkpt lat="46.8192024" lon="9.8597952"><ele>1622.0</ele></trkpt>
    <trkpt lat="46.8191697" lon="9.8597331"><ele>1622.0</ele></trkpt>
    <trkpt lat="46.819129" lon="9.8596408"><ele>1622.0</ele></trkpt>
    <trkpt lat="46.8191019" lon="9.8595497"><ele>1622.0</ele></trkpt>
    <trkpt lat="46.8190776" lon="9.8594309"><ele>1622.0</ele></trkpt>
    <trkpt lat="46.8190556" lon="9.859324"><ele>1622.0</ele></trkpt>
    <trkpt lat="46.8190281" lon="9.8591907"><ele>1622.0</ele></trkpt>
    <trkpt lat="46.8189963" lon="9.8590624"><ele>1622.0</ele></trkpt>
    <trkpt lat="46.8189282" lon="9.8588066"><ele>1622.0</ele></trkpt>
    <trkpt lat="46.8189084" lon="9.8586957"><ele>1622.0</ele></trkpt>
    <trkpt lat="46.8189024" lon="9.8586013"><ele>1622.0</ele></trkpt>
    <trkpt lat="46.8189047" lon="9.858471"><ele>1622.0</ele></trkpt>
    <trkpt lat="46.818914" lon="9.8583597"><ele>1622.0</ele></trkpt>
    <trkpt lat="46.818929" lon="9.8582221"><ele>1558.0</ele></trkpt>
    <trkpt lat="46.8189306" lon="9.8580788"><ele>1558.0</ele></trkpt>
    <trkpt lat="46.8189187" lon="9.858005"><ele>1558.0</ele></trkpt>
    <trkpt lat="46.8189073" lon="9.8579555"><ele>1558.0</ele></trkpt>
    <trkpt lat="46.8188725" lon="9.8578971"><ele>1558.0</ele></trkpt>
    <trkpt lat="46.818822" lon="9.8578449"><ele>1558.0</ele></trkpt>
    <trkpt lat="46.818744" lon="9.8577844"><ele>1617.0</ele></trkpt>
    <trkpt lat="46.818656" lon="9.8577382"><ele>1617.0</ele></trkpt>
    <trkpt lat="46.8185535" lon="9.8577015"><ele>1617.0</ele></trkpt>
    <trkpt lat="46.8184523" lon="9.8576743"><ele>1617.0</ele></trkpt>
    <trkpt lat="46.818332" lon="9.857636"><ele>1617.0</ele></trkpt>
    <trkpt lat="46.8182602" lon="9.8576003"><ele>1617.0</ele></trkpt>
    <trkpt lat="46.8181755" lon="9.8575583"><ele>1617.0</ele></trkpt>
    <trkpt lat="46.8180786" lon="9.8575032"><ele>1617.0</ele></trkpt>
    <trkpt lat="46.8179719" lon="9.8574492"><ele>1617.0</ele></trkpt>
    <trkpt lat="46.8178738" lon="9.8573951"><ele>1617.0</ele></trkpt>
    <trkpt lat="46.8177984" lon="9.8573648"><ele>1617.0</ele></trkpt>
    <trkpt lat="46.817707" lon="9.8573334"><ele>1617.0</ele></trkpt>
    <trkpt lat="46.8176036" lon="9.8572806"><ele>1617.0</ele></trkpt>
    <trkpt lat="46.8174716" lon="9.857202"><ele>1617.0</ele></trkpt>
    <trkpt lat="46.8173289" lon="9.8571304"><ele>1617.0</ele></trkpt>
    <trkpt lat="46.8171364" lon="9.8570795"><ele>1617.0</ele></trkpt>
    <trkpt lat="46.8169775" lon="9.857037"><ele>1617.0</ele></trkpt>
    <trkpt lat="46.8167287" lon="9.8569468"><ele>1617.0</ele></trkpt>
    <trkpt lat="46.8165987" lon="9.8569014"><ele>1679.0</ele></trkpt>
    <trkpt lat="46.8164802" lon="9.8568504"><ele>1679.0</ele></trkpt>
    <trkpt lat="46.8163866" lon="9.8567874"><ele>1679.0</ele></trkpt>
    <trkpt lat="46.8163101" lon="9.8566995"><ele>1679.0</ele></trkpt>
    <trkpt lat="46.8162626" lon="9.8566271"><ele>1679.0</ele></trkpt>
    <trkpt lat="46.8162002" lon="9.8565483"><ele>1679.0</ele></trkpt>
    <trkpt lat="46.8161182" lon="9.8564833"><ele>1679.0</ele></trkpt>
    <trkpt lat="46.8160215" lon="9.8564266"><ele>1679.0</ele></trkpt>
    <trkpt lat="46.8159544" lon="9.8563677"><ele>1679.0</ele></trkpt>
    <trkpt lat="46.8158747" lon="9.8563108"><ele>1679.0</ele></trkpt>
    <trkpt lat="46.8157967" lon="9.8562488"><ele>1650.0</ele></trkpt>
    <trkpt lat="46.8156925" lon="9.856175"><ele>1650.0</ele></trkpt>
    <trkpt lat="46.8156082" lon="9.8561225"><ele>1650.0</ele></trkpt>
    <trkpt lat="46.8155492" lon="9.8560943"><ele>1650.0</ele></trkpt>
    <trkpt lat="46.8154998" lon="9.8560819"><ele>1650.0</ele></trkpt>
    <trkpt lat="46.8154239" lon="9.8560686"><ele>1650.0</ele></trkpt>
    <trkpt lat="46.8153259" lon="9.856058"><ele>1650.0</ele></trkpt>
    <trkpt lat="46.8152542" lon="9.8560555"><ele>1650.0</ele></trkpt>
    <trkpt lat="46.8151811" lon="9.8560529"><ele>1650.0</ele></trkpt>
    <trkpt lat="46.8151256" lon="9.8560603"><ele>1650.0</ele></trkpt>
    <trkpt lat="46.8150703" lon="9.8560682"><ele>1650.0</ele></trkpt>
    <trkpt lat="46.8150088" lon="9.8560807"><ele>1650.0</ele></trkpt>
    <trkpt lat="46.8149449" lon="9.856093"><ele>1650.0</ele></trkpt>
    <trkpt lat="46.8148385" lon="9.8561135"><ele>1650.0</ele></trkpt>
    <trkpt lat="46.8147537" lon="9.8561276"><ele>1650.0</ele></trkpt>
    <trkpt lat="46.8146359" lon="9.8561348"><ele>1650.0</ele></trkpt>
    <trkpt lat="46.8144172" lon="9.856133"><ele>1627.0</ele></trkpt>
    <trkpt lat="46.814294" lon="9.8561253"><ele>1627.0</ele></trkpt>
    <trkpt lat="46.8141465" lon="9.8561028"><ele>1627.0</ele></trkpt>
    <trkpt lat="46.8140038" lon="9.8560508"><ele>1627.0</ele></trkpt>
    <trkpt lat="46.8138677" lon="9.8559858"><ele>1627.0</ele></trkpt>
    <trkpt lat="46.8137777" lon="9.8559294"><ele>1627.0</ele></trkpt>
    <trkpt lat="46.8137357" lon="9.8558924"><ele>1627.0</ele></trkpt>
    <trkpt lat="46.8137078" lon="9.8558566"><ele>1627.0</ele></trkpt>
    <trkpt lat="46.8136399" lon="9.8557324"><ele>1627.0</ele></trkpt>
    <trkpt lat="46.8137318" lon="9.855655"><ele>1627.0</ele></trkpt>
    <trkpt lat="46.813821" lon="9.855553"><ele>1627.0</ele></trkpt>
    <trkpt lat="46.8138685" lon="9.855482"><ele>1627.0</ele></trkpt>
    <trkpt lat="46.8139145" lon="9.855401"><ele>1627.0</ele></trkpt>
    <trkpt lat="46.813963" lon="9.8552797"><ele>1627.0</ele></trkpt>
    <trkpt lat="46.8140139" lon="9.8551384"><ele>1627.0</ele></trkpt>
    <trkpt lat="46.8140444" lon="9.8550173"><ele>1627.0</ele></trkpt>
    <trkpt lat="46.8140555" lon="9.8549635"><ele>1627.0</ele></trkpt>
    <trkpt lat="46.8140532" lon="9.8548925"><ele>1627.0</ele></trkpt>
    <trkpt lat="46.814044" lon="9.8548402"><ele>1627.0</ele></trkpt>
    <trkpt lat="46.8140195" lon="9.8548044"><ele>1627.0</ele></trkpt>
    <trkpt lat="46.8139888" lon="9.8547905"><ele>1627.0</ele></trkpt>
    <trkpt lat="46.8139414" lon="9.8547949"><ele>1627.0</ele></trkpt>
    <trkpt lat="46.8138104" lon="9.8548358"><ele>1627.0</ele></trkpt>
    <trkpt lat="46.8137081" lon="9.8548678"><ele>1627.0</ele></trkpt>
    <trkpt lat="46.8136336" lon="9.8548824"><ele>1627.0</ele></trkpt>
    <trkpt lat="46.8135568" lon="9.8548844"><ele>1627.0</ele></trkpt>
    <trkpt lat="46.8133353" lon="9.8548654"><ele>1627.0</ele></trkpt>
    <trkpt lat="46.8132542" lon="9.8548329"><ele>1627.0</ele></trkpt>
    <trkpt lat="46.8132234" lon="9.8548095"><ele>1627.0</ele></trkpt>
    <trkpt lat="46.8131754" lon="9.8547613"><ele>1627.0</ele></trkpt>
    <trkpt lat="46.8130229" lon="9.8545463"><ele>1627.0</ele></trkpt>
    <trkpt lat="46.8129083" lon="9.854385"><ele>1627.0</ele></trkpt>
    <trkpt lat="46.8127722" lon="9.8541957"><ele>1627.0</ele></trkpt>
    <trkpt lat="46.8126918" lon="9.8540077"><ele>1599.0</ele></trkpt>
    <trkpt lat="46.8126127" lon="9.8537204"><ele>1599.0</ele></trkpt>
    <trkpt lat="46.8125389" lon="9.853519"><ele>1599.0</ele></trkpt>
    <trkpt lat="46.8123613" lon="9.8531655"><ele>1589.0</ele></trkpt>
    <trkpt lat="46.8122676" lon="9.8530536"><ele>1589.0</ele></trkpt>
    <trkpt lat="46.8118634" lon="9.8527692"><ele>1589.0</ele></trkpt>
    <trkpt lat="46.811633" lon="9.8524685"><ele>1589.0</ele></trkpt>
    <trkpt lat="46.8116751" lon="9.8524034"><ele>1589.0</ele></trkpt>
    <trkpt lat="46.811633" lon="9.8524685"><ele>1589.0</ele></trkpt>
    <trkpt lat="46.8118634" lon="9.8527692"><ele>1589.0</ele></trkpt>
    <trkpt lat="46.8122676" lon="9.8530536"><ele>1589.0</ele></trkpt>
    <trkpt lat="46.8123613" lon="9.8531655"><ele>1589.0</ele></trkpt>
    <trkpt lat="46.8125389" lon="9.853519"><ele>1599.0</ele></trkpt>
    <trkpt lat="46.8126127" lon="9.8537204"><ele>1599.0</ele></trkpt>
    <trkpt lat="46.8126918" lon="9.8540077"><ele>1599.0</ele></trkpt>
    <trkpt lat="46.8127722" lon="9.8541957"><ele>1627.0</ele></trkpt>
    <trkpt lat="46.8129083" lon="9.854385"><ele>1627.0</ele></trkpt>
    <trkpt lat="46.8130229" lon="9.8545463"><ele>1627.0</ele></trkpt>
    <trkpt lat="46.8131754" lon="9.8547613"><ele>1627.0</ele></trkpt>
    <trkpt lat="46.8132234" lon="9.8548095"><ele>1627.0</ele></trkpt>
    <trkpt lat="46.8132542" lon="9.8548329"><ele>1627.0</ele></trkpt>
    <trkpt lat="46.8133353" lon="9.8548654"><ele>1627.0</ele></trkpt>
    <trkpt lat="46.8135568" lon="9.8548844"><ele>1627.0</ele></trkpt>
    <trkpt lat="46.8136336" lon="9.8548824"><ele>1627.0</ele></trkpt>
    <trkpt lat="46.8137081" lon="9.8548678"><ele>1627.0</ele></trkpt>
    <trkpt lat="46.8138104" lon="9.8548358"><ele>1627.0</ele></trkpt>
    <trkpt lat="46.8139414" lon="9.8547949"><ele>1627.0</ele></trkpt>
    <trkpt lat="46.8139888" lon="9.8547905"><ele>1627.0</ele></trkpt>
    <trkpt lat="46.8140195" lon="9.8548044"><ele>1627.0</ele></trkpt>
    <trkpt lat="46.814044" lon="9.8548402"><ele>1627.0</ele></trkpt>
    <trkpt lat="46.8140532" lon="9.8548925"><ele>1627.0</ele></trkpt>
    <trkpt lat="46.8140555" lon="9.8549635"><ele>1627.0</ele></trkpt>
    <trkpt lat="46.8140444" lon="9.8550173"><ele>1627.0</ele></trkpt>
    <trkpt lat="46.8140139" lon="9.8551384"><ele>1627.0</ele></trkpt>
    <trkpt lat="46.813963" lon="9.8552797"><ele>1627.0</ele></trkpt>
    <trkpt lat="46.8139145" lon="9.855401"><ele>1627.0</ele></trkpt>
    <trkpt lat="46.8138685" lon="9.855482"><ele>1627.0</ele></trkpt>
    <trkpt lat="46.813821" lon="9.855553"><ele>1627.0</ele></trkpt>
    <trkpt lat="46.8137318" lon="9.855655"><ele>1627.0</ele></trkpt>
    <trkpt lat="46.8136399" lon="9.8557324"><ele>1627.0</ele></trkpt>
    <trkpt lat="46.8137078" lon="9.8558566"><ele>1627.0</ele></trkpt>
    <trkpt lat="46.8137357" lon="9.8558924"><ele>1627.0</ele></trkpt>
    <trkpt lat="46.8137777" lon="9.8559294"><ele>1627.0</ele></trkpt>
    <trkpt lat="46.8138677" lon="9.8559858"><ele>1627.0</ele></trkpt>
    <trkpt lat="46.8140038" lon="9.8560508"><ele>1627.0</ele></trkpt>
    <trkpt lat="46.8141465" lon="9.8561028"><ele>1627.0</ele></trkpt>
    <trkpt lat="46.814294" lon="9.8561253"><ele>1627.0</ele></trkpt>
    <trkpt lat="46.8144172" lon="9.856133"><ele>1627.0</ele></trkpt>
    <trkpt lat="46.8146359" lon="9.8561348"><ele>1650.0</ele></trkpt>
    <trkpt lat="46.8147537" lon="9.8561276"><ele>1650.0</ele></trkpt>
    <trkpt lat="46.8148385" lon="9.8561135"><ele>1650.0</ele></trkpt>
    <trkpt lat="46.8149449" lon="9.856093"><ele>1650.0</ele></trkpt>
    <trkpt lat="46.8150088" lon="9.8560807"><ele>1650.0</ele></trkpt>
    <trkpt lat="46.8150703" lon="9.8560682"><ele>1650.0</ele></trkpt>
    <trkpt lat="46.8151256" lon="9.8560603"><ele>1650.0</ele></trkpt>
    <trkpt lat="46.8151811" lon="9.8560529"><ele>1650.0</ele></trkpt>
    <trkpt lat="46.8152542" lon="9.8560555"><ele>1650.0</ele></trkpt>
    <trkpt lat="46.8153259" lon="9.856058"><ele>1650.0</ele></trkpt>
    <trkpt lat="46.8154239" lon="9.8560686"><ele>1650.0</ele></trkpt>
    <trkpt lat="46.8154998" lon="9.8560819"><ele>1650.0</ele></trkpt>
    <trkpt lat="46.8155492" lon="9.8560943"><ele>1650.0</ele></trkpt>
    <trkpt lat="46.8156082" lon="9.8561225"><ele>1650.0</ele></trkpt>
    <trkpt lat="46.8156925" lon="9.856175"><ele>1650.0</ele></trkpt>
    <trkpt lat="46.8157967" lon="9.8562488"><ele>1650.0</ele></trkpt>
    <trkpt lat="46.8158747" lon="9.8563108"><ele>1679.0</ele></trkpt>
    <trkpt lat="46.8159544" lon="9.8563677"><ele>1679.0</ele></trkpt>
    <trkpt lat="46.8160215" lon="9.8564266"><ele>1679.0</ele></trkpt>
    <trkpt lat="46.8161182" lon="9.8564833"><ele>1679.0</ele></trkpt>
    <trkpt lat="46.8162002" lon="9.8565483"><ele>1679.0</ele></trkpt>
    <trkpt lat="46.8162626" lon="9.8566271"><ele>1679.0</ele></trkpt>
    <trkpt lat="46.8163101" lon="9.8566995"><ele>1679.0</ele></trkpt>
    <trkpt lat="46.8163866" lon="9.8567874"><ele>1679.0</ele></trkpt>
    <trkpt lat="46.8164802" lon="9.8568504"><ele>1679.0</ele></trkpt>
    <trkpt lat="46.8165987" lon="9.8569014"><ele>1679.0</ele></trkpt>
    <trkpt lat="46.8167287" lon="9.8569468"><ele>1617.0</ele></trkpt>
    <trkpt lat="46.8169775" lon="9.857037"><ele>1617.0</ele></trkpt>
    <trkpt lat="46.8171364" lon="9.8570795"><ele>1617.0</ele></trkpt>
    <trkpt lat="46.8173289" lon="9.8571304"><ele>1617.0</ele></trkpt>
    <trkpt lat="46.8174716" lon="9.857202"><ele>1617.0</ele></trkpt>
    <trkpt lat="46.8176036" lon="9.8572806"><ele>1617.0</ele></trkpt>
    <trkpt lat="46.817707" lon="9.8573334"><ele>1617.0</ele></trkpt>
    <trkpt lat="46.8177984" lon="9.8573648"><ele>1617.0</ele></trkpt>
    <trkpt lat="46.8178738" lon="9.8573951"><ele>1617.0</ele></trkpt>
    <trkpt lat="46.8179719" lon="9.8574492"><ele>1617.0</ele></trkpt>
    <trkpt lat="46.8180786" lon="9.8575032"><ele>1617.0</ele></trkpt>
    <trkpt lat="46.8181755" lon="9.8575583"><ele>1617.0</ele></trkpt>
    <trkpt lat="46.8182602" lon="9.8576003"><ele>1617.0</ele></trkpt>
    <trkpt lat="46.818332" lon="9.857636"><ele>1617.0</ele></trkpt>
    <trkpt lat="46.8184523" lon="9.8576743"><ele>1617.0</ele></trkpt>
    <trkpt lat="46.8185535" lon="9.8577015"><ele>1617.0</ele></trkpt>
    <trkpt lat="46.818656" lon="9.8577382"><ele>1617.0</ele></trkpt>
    <trkpt lat="46.818744" lon="9.8577844"><ele>1617.0</ele></trkpt>
    <trkpt lat="46.818822" lon="9.8578449"><ele>1558.0</ele></trkpt>
    <trkpt lat="46.8188725" lon="9.8578971"><ele>1558.0</ele></trkpt>
    <trkpt lat="46.8189073" lon="9.8579555"><ele>1558.0</ele></trkpt>
    <trkpt lat="46.8189187" lon="9.858005"><ele>1558.0</ele></trkpt>
    <trkpt lat="46.8189306" lon="9.8580788"><ele>1558.0</ele></trkpt>
    <trkpt lat="46.818929" lon="9.8582221"><ele>1558.0</ele></trkpt>
    <trkpt lat="46.818914" lon="9.8583597"><ele>1622.0</ele></trkpt>
    <trkpt lat="46.8189047" lon="9.858471"><ele>1622.0</ele></trkpt>
    <trkpt lat="46.8189024" lon="9.8586013"><ele>1622.0</ele></trkpt>
    <trkpt lat="46.8189084" lon="9.8586957"><ele>1622.0</ele></trkpt>
    <trkpt lat="46.8189282" lon="9.8588066"><ele>1622.0</ele></trkpt>
    <trkpt lat="46.8189963" lon="9.8590624"><ele>1622.0</ele></trkpt>
    <trkpt lat="46.8190281" lon="9.8591907"><ele>1622.0</ele></trkpt>
    <trkpt lat="46.8190556" lon="9.859324"><ele>1622.0</ele></trkpt>
    <trkpt lat="46.8190776" lon="9.8594309"><ele>1622.0</ele></trkpt>
    <trkpt lat="46.8191019" lon="9.8595497"><ele>1622.0</ele></trkpt>
    <trkpt lat="46.819129" lon="9.8596408"><ele>1622.0</ele></trkpt>
    <trkpt lat="46.8191697" lon="9.8597331"><ele>1622.0</ele></trkpt>
    <trkpt lat="46.8192024" lon="9.8597952"><ele>1622.0</ele></trkpt>
    <trkpt lat="46.8192371" lon="9.8598731"><ele>1622.0</ele></trkpt>
    <trkpt lat="46.8192624" lon="9.8599428"><ele>1622.0</ele></trkpt>
    <trkpt lat="46.8192664" lon="9.8599975"><ele>1622.0</ele></trkpt>
    <trkpt lat="46.8192654" lon="9.8600705"><ele>1622.0</ele></trkpt>
    <trkpt lat="46.8192497" lon="9.8601623"><ele>1622.0</ele></trkpt>
    <trkpt lat="46.8192356" lon="9.8602443"><ele>1622.0</ele></trkpt>
    <trkpt lat="46.8192312" lon="9.8603252"><ele>1622.0</ele></trkpt>
    <trkpt lat="46.8192402" lon="9.860425"><ele>1621.0</ele></trkpt>
    <trkpt lat="46.8192621" lon="9.8605215"><ele>1621.0</ele></trkpt>
    <trkpt lat="46.819285" lon="9.8605708"><ele>1621.0</ele></trkpt>
    <trkpt lat="46.8193219" lon="9.860603"><ele>1621.0</ele></trkpt>
    <trkpt lat="46.8193759" lon="9.8606079"><ele>1621.0</ele></trkpt>
    <trkpt lat="46.819436" lon="9.8605952"><ele>1621.0</ele></trkpt>
    <trkpt lat="46.8196166" lon="9.8604611"><ele>1621.0</ele></trkpt>
    <trkpt lat="46.8196725" lon="9.8604365"><ele>1621.0</ele></trkpt>
    <trkpt lat="46.8197264" lon="9.8604413"><ele>1621.0</ele></trkpt>
    <trkpt lat="46.8197721" lon="9.8604631"><ele>1621.0</ele></trkpt>
    <trkpt lat="46.8198898" lon="9.8605486"><ele>1621.0</ele></trkpt>
    <trkpt lat="46.8199577" lon="9.8606332"><ele>1621.0</ele></trkpt>
    <trkpt lat="46.82001" lon="9.8607119"><ele>1621.0</ele></trkpt>
    <trkpt lat="46.8200651" lon="9.8607981"><ele>1621.0</ele></trkpt>
    <trkpt lat="46.8201868" lon="9.8609375"><ele>1621.0</ele></trkpt>
    <trkpt lat="46.820314" lon="9.8610948"><ele>1621.0</ele></trkpt>
    <trkpt lat="46.82037" lon="9.8611813"><ele>1621.0</ele></trkpt>
    <trkpt lat="46.8203926" lon="9.8612205"><ele>1621.0</ele></trkpt>
    <trkpt lat="46.8204472" lon="9.8613138"><ele>1621.0</ele></trkpt>
    <trkpt lat="46.8204899" lon="9.8613737"><ele>1621.0</ele></trkpt>
  </trkseg></trk>
</gpx>