<?xml version="1.0" encoding="UTF-8"?>
<gpx version="1.1" xmlns="http://www.topografix.com/GPX/1/1" creator="GlideCast">
  <trk><name>Falun</name><trkseg>
    <trkpt lat="60.629175" lon="15.6422638"><ele>0.0</ele></trkpt>
    <trkpt lat="60.629244" lon="15.6423597"><ele>0.0</ele></trkpt>
    <trkpt lat="60.629344" lon="15.6424885"><ele>0.0</ele></trkpt>
    <trkpt lat="60.629465" lon="15.6428318"><ele>0.0</ele></trkpt>
    <trkpt lat="60.629544" lon="15.643497"><ele>0.0</ele></trkpt>
    <trkpt lat="60.6295598" lon="15.6438296"><ele>0.0</ele></trkpt>
    <trkpt lat="60.6294966" lon="15.6443875"><ele>0.0</ele></trkpt>
    <trkpt lat="60.6294756" lon="15.6449132"><ele>0.0</ele></trkpt>
    <trkpt lat="60.6293651" lon="15.6452994"><ele>0.0</ele></trkpt>
    <trkpt lat="60.6296176" lon="15.6448166"><ele>0.0</ele></trkpt>
    <trkpt lat="60.6298965" lon="15.6446772"><ele>0.0</ele></trkpt>
    <trkpt lat="60.6302333" lon="15.6446986"><ele>0.0</ele></trkpt>
    <trkpt lat="60.630449" lon="15.6447093"><ele>0.0</ele></trkpt>
    <trkpt lat="60.6305437" lon="15.6447844"><ele>0.0</ele></trkpt>
    <trkpt lat="60.6306585" lon="15.6449191"><ele>0.0</ele></trkpt>
    <trkpt lat="60.6307174" lon="15.6449883"><ele>0.0</ele></trkpt>
    <trkpt lat="60.6308542" lon="15.6453423"><ele>0.0</ele></trkpt>
    <trkpt lat="60.6309121" lon="15.6459002"><ele>0.0</ele></trkpt>
    <trkpt lat="60.6309068" lon="15.6463508"><ele>0.0</ele></trkpt>
    <trkpt lat="60.6308174" lon="15.646662"><ele>0.0</ele></trkpt>
    <trkpt lat="60.63067" lon="15.6470053"><ele>0.0</ele></trkpt>
    <trkpt lat="60.6306016" lon="15.6472521"><ele>0.0</ele></trkpt>
    <trkpt lat="60.6305583" lon="15.6478624"><ele>0.0</ele></trkpt>
    <trkpt lat="60.6305543" lon="15.6479494"><ele>0.0</ele></trkpt>
    <trkpt lat="60.63057" lon="15.6483357"><ele>0.0</ele></trkpt>
    <trkpt lat="60.6305753" lon="15.6488614"><ele>0.0</ele></trkpt>
    <trkpt lat="60.6305227" lon="15.6492476"><ele>0.0</ele></trkpt>
    <trkpt lat="60.6304543" lon="15.6497519"><ele>0.0</ele></trkpt>
    <trkpt lat="60.6304227" lon="15.6502454"><ele>0.0</ele></trkpt>
    <trkpt lat="60.6303438" lon="15.6508838"><ele>0.0</ele></trkpt>
    <trkpt lat="60.6303043" lon="15.6510796"><ele>0.0</ele></trkpt>
    <trkpt lat="60.6301807" lon="15.6525253"><ele>0.0</ele></trkpt>
    <trkpt lat="60.6301123" lon="15.6527962"><ele>0.0</ele></trkpt>
    <trkpt lat="60.6300399" lon="15.6530993"><ele>0.0</ele></trkpt>
    <trkpt lat="60.6300162" lon="15.6533675"><ele>0.0</ele></trkpt>
    <trkpt lat="60.6300083" lon="15.6536733"><ele>0.0</ele></trkpt>
    <trkpt lat="60.6299953" lon="15.6538786"><ele>0.0</ele></trkpt>
    <trkpt lat="60.6299899" lon="15.6539281"><ele>0.0</ele></trkpt>
    <trkpt lat="60.6299465" lon="15.6541963"><ele>0.0</ele></trkpt>
    <trkpt lat="60.6299241" lon="15.6544565"><ele>0.0</ele></trkpt>
    <trkpt lat="60.6298623" lon="15.6546737"><ele>0.0</ele></trkpt>
    <trkpt lat="60.6297189" lon="15.6550546"><ele>0.0</ele></trkpt>
    <trkpt lat="60.6297176" lon="15.6553014"><ele>0.0</ele></trkpt>
    <trkpt lat="60.6297492" lon="15.6555267"><ele>0.0</ele></trkpt>
    <trkpt lat="60.629861" lon="15.6561275"><ele>0.0</ele></trkpt>
    <trkpt lat="60.6299215" lon="15.6562455"><ele>0.0</ele></trkpt>
    <trkpt lat="60.630032" lon="15.6563823"><ele>0.0</ele></trkpt>
    <trkpt lat="60.6301807" lon="15.6564252"><ele>0.0</ele></trkpt>
    <trkpt lat="60.6302977" lon="15.6563984"><ele>0.0</ele></trkpt>
    <trkpt lat="60.6304359" lon="15.6564225"><ele>0.0</ele></trkpt>
    <trkpt lat="60.6305661" lon="15.6566452"><ele>0.0</ele></trkpt>
    <trkpt lat="60.6307082" lon="15.6568141"><ele>0.0</ele></trkpt>
    <trkpt lat="60.6307884" lon="15.656841"><ele>0.0</ele></trkpt>
    <trkpt lat="60.6310715" lon="15.6575659"><ele>0.0</ele></trkpt>
    <trkpt lat="60.6310831" lon="15.6578656"><ele>0.0</ele></trkpt>
    <trkpt lat="60.6311659" lon="15.6584798"><ele>0.0</ele></trkpt>
    <trkpt lat="60.6312462" lon="15.6587132"><ele>0.0</ele></trkpt>
    <trkpt lat="60.6313777" lon="15.6588741"><ele>0.0</ele></trkpt>
    <trkpt lat="60.631554" lon="15.6589331"><ele>0.0</ele></trkpt>
    <trkpt lat="60.6317132" lon="15.6588312"><ele>0.0</ele></trkpt>
    <trkpt lat="60.6318394" lon="15.6587266"><ele>0.0</ele></trkpt>
    <trkpt lat="60.6320052" lon="15.6585254"><ele>0.0</ele></trkpt>
    <trkpt lat="60.6320946" lon="15.6583886"><ele>0.0</ele></trkpt>
    <trkpt lat="60.6321893" lon="15.6580587"><ele>0.0</ele></trkpt>
    <trkpt lat="60.6323222" lon="15.6577932"><ele>0.0</ele></trkpt>
    <trkpt lat="60.632388" lon="15.6577395"><ele>0.0</ele></trkpt>
    <trkpt lat="60.6326826" lon="15.6575383"><ele>0.0</ele></trkpt>
    <trkpt lat="60.633047" lon="15.6575866"><ele>0.0</ele></trkpt>
    <trkpt lat="60.6331903" lon="15.6575571"><ele>0.0</ele></trkpt>
    <trkpt lat="60.6333508" lon="15.6574337"><ele>0.0</ele></trkpt>
    <trkpt lat="60.6334679" lon="15.6573801"><ele>0.0</ele></trkpt>
    <trkpt lat="60.6336376" lon="15.6573506"><ele>0.0</ele></trkpt>
    <trkpt lat="60.6339611" lon="15.6575598"><ele>0.0</ele></trkpt>
    <trkpt lat="60.6341229" lon="15.6576188"><ele>0.0</ele></trkpt>
    <trkpt lat="60.6342821" lon="15.6575222"><ele>0.0</ele></trkpt>
    <trkpt lat="60.634357" lon="15.6572728"><ele>0.0</ele></trkpt>
    <trkpt lat="60.6343741" lon="15.6570126"><ele>0.0</ele></trkpt>
    <trkpt lat="60.6343294" lon="15.6567203"><ele>0.0</ele></trkpt>
    <trkpt lat="60.6342544" lon="15.6564494"><ele>0.0</ele></trkpt>
    <trkpt lat="60.6342189" lon="15.6561892"><ele>0.0</ele></trkpt>
    <trkpt lat="60.6340111" lon="15.6554301"><ele>0.0</ele></trkpt>
    <trkpt lat="60.6339493" lon="15.6551485"><ele>0.0</ele></trkpt>
    <trkpt lat="60.633923" lon="15.6550788"><ele>0.0</ele></trkpt>
    <trkpt lat="60.6336981" lon="15.6545316"><ele>0.0</ele></trkpt>
    <trkpt lat="60.6337454" lon="15.6541534"><ele>0.0</ele></trkpt>
    <trkpt lat="60.6337441" lon="15.6536465"><ele>0.0</ele></trkpt>
    <trkpt lat="60.6337928" lon="15.653389"><ele>0.0</ele></trkpt>
    <trkpt lat="60.6339243" lon="15.6531556"><ele>0.0</ele></trkpt>
    <trkpt lat="60.6342123" lon="15.652992"><ele>0.0</ele></trkpt>
    <trkpt lat="60.6343123" lon="15.6528069"><ele>0.0</ele></trkpt>
    <trkpt lat="60.6343399" lon="15.6525843"><ele>0.0</ele></trkpt>
    <trkpt lat="60.6343189" lon="15.6520425"><ele>0.0</ele></trkpt>
    <trkpt lat="60.6343676" lon="15.65138"><ele>0.0</ele></trkpt>
    <trkpt lat="60.6344018" lon="15.6510072"><ele>0.0</ele></trkpt>
    <trkpt lat="60.6344267" lon="15.65035"><ele>0.0</ele></trkpt>
    <trkpt lat="60.6344596" lon="15.6500845"><ele>0.0</ele></trkpt>
    <trkpt lat="60.6345346" lon="15.6496929"><ele>0.0</ele></trkpt>
    <trkpt lat="60.6346083" lon="15.6494917"><ele>0.0</ele></trkpt>
    <trkpt lat="60.6347214" lon="15.649304"><ele>0.0</ele></trkpt>
    <trkpt lat="60.6348305" lon="15.6491752"><ele>0.0</ele></trkpt>
    <trkpt lat="60.6349792" lon="15.6489258"><ele>0.0</ele></trkpt>
    <trkpt lat="60.6351278" lon="15.6485342"><ele>0.0</ele></trkpt>
    <trkpt lat="60.6352567" lon="15.6481828"><ele>0.0</ele></trkpt>
    <trkpt lat="60.6354237" lon="15.6479655"><ele>0.0</ele></trkpt>
    <trkpt lat="60.6355382" lon="15.6477778"><ele>0.0</ele></trkpt>
    <trkpt lat="60.6356841" lon="15.6475954"><ele>0.0</ele></trkpt>
    <trkpt lat="60.6358288" lon="15.6474827"><ele>0.0</ele></trkpt>
    <trkpt lat="60.6359695" lon="15.6475342"><ele>0.0</ele></trkpt>
    <trkpt lat="60.6360028" lon="15.6475706"><ele>0.0</ele></trkpt>
    <trkpt lat="60.6360814" lon="15.647708"><ele>0.0</ele></trkpt>
    <trkpt lat="60.6365154" lon="15.6480675"><ele>0.0</ele></trkpt>
    <trkpt lat="60.636775" lon="15.6486291"><ele>0.0</ele></trkpt>
    <trkpt lat="60.6368178" lon="15.6487882"><ele>0.0</ele></trkpt>
    <trkpt lat="60.636877" lon="15.6492488"><ele>0.0</ele></trkpt>
    <trkpt lat="60.6369547" lon="15.6494381"><ele>0.0</ele></trkpt>
    <trkpt lat="60.6370362" lon="15.6497251"><ele>0.0</ele></trkpt>
    <trkpt lat="60.6370599" lon="15.6499128"><ele>0.0</ele></trkpt>
    <trkpt lat="60.637077" lon="15.6502454"><ele>0.0</ele></trkpt>
    <trkpt lat="60.6370927" lon="15.6506692"><ele>0.0</ele></trkpt>
    <trkpt lat="60.6371335" lon="15.6508757"><ele>0.0</ele></trkpt>
    <trkpt lat="60.6372664" lon="15.6513049"><ele>0.0</ele></trkpt>
    <trkpt lat="60.6373453" lon="15.6517904"><ele>0.0</ele></trkpt>
    <trkpt lat="60.6373111" lon="15.6520264"><ele>0.0</ele></trkpt>
    <trkpt lat="60.6373255" lon="15.6526245"><ele>0.0</ele></trkpt>
    <trkpt lat="60.6373242" lon="15.6527774"><ele>0.0</ele></trkpt>
    <trkpt lat="60.6373466" lon="15.6535016"><ele>0.0</ele></trkpt>
    <trkpt lat="60.637344" lon="15.6537725"><ele>0.0</ele></trkpt>
    <trkpt lat="60.6373597" lon="15.6541078"><ele>0.0</ele></trkpt>
    <trkpt lat="60.637376" lon="15.6543818"><ele>0.0</ele></trkpt>
    <trkpt lat="60.6374339" lon="15.6546147"><ele>0.0</ele></trkpt>
    <trkpt lat="60.6375124" lon="15.6548859"><ele>0.0</ele></trkpt>
    <trkpt lat="60.6376131" lon="15.6552463"><ele>0.0</ele></trkpt>
    <trkpt lat="60.6377153" lon="15.6552994"><ele>0.0</ele></trkpt>
    <trkpt lat="60.6378313" lon="15.6553973"><ele>0.0</ele></trkpt>
    <trkpt lat="60.6379648" lon="15.6554111"><ele>0.0</ele></trkpt>
    <trkpt lat="60.6380276" lon="15.6553718"><ele>0.0</ele></trkpt>
    <trkpt lat="60.6381369" lon="15.6552363"><ele>0.0</ele></trkpt>
    <trkpt lat="60.6382554" lon="15.6550627"><ele>0.0</ele></trkpt>
    <trkpt lat="60.6382988" lon="15.655009"><ele>0.0</ele></trkpt>
    <trkpt lat="60.6384079" lon="15.6549178"><ele>0.0</ele></trkpt>
    <trkpt lat="60.6386433" lon="15.6547462"><ele>0.0</ele></trkpt>
    <trkpt lat="60.6388537" lon="15.6546711"><ele>0.0</ele></trkpt>
    <trkpt lat="60.6389971" lon="15.6545289"><ele>0.0</ele></trkpt>
    <trkpt lat="60.6392207" lon="15.6541346"><ele>0.0</ele></trkpt>
    <trkpt lat="60.6393488" lon="15.6538707"><ele>0.0</ele></trkpt>
    <trkpt lat="60.6394824" lon="15.6535955"><ele>0.0</ele></trkpt>
    <trkpt lat="60.6396112" lon="15.6532683"><ele>0.0</ele></trkpt>
    <trkpt lat="60.6396481" lon="15.6529679"><ele>0.0</ele></trkpt>
    <trkpt lat="60.6396875" lon="15.6522383"><ele>0.0</ele></trkpt>
    <trkpt lat="60.6397296" lon="15.6519003"><ele>0.0</ele></trkpt>
    <trkpt lat="60.639798" lon="15.6515624"><ele>0.0</ele></trkpt>
    <trkpt lat="60.6398624" lon="15.6511466"><ele>0.0</ele></trkpt>
    <trkpt lat="60.6399098" lon="15.6507094"><ele>0.0</ele></trkpt>
    <trkpt lat="60.6398953" lon="15.6503822"><ele>0.0</ele></trkpt>
    <trkpt lat="60.6398243" lon="15.6500925"><ele>0.0</ele></trkpt>
    <trkpt lat="60.6394192" lon="15.6492074"><ele>0.0</ele></trkpt>
    <trkpt lat="60.6390734" lon="15.6486951"><ele>0.0</ele></trkpt>
    <trkpt lat="60.6390444" lon="15.6486602"><ele>0.0</ele></trkpt>
    <trkpt lat="60.6388932" lon="15.6484135"><ele>0.0</ele></trkpt>
    <trkpt lat="60.6386578" lon="15.6479736"><ele>0.0</ele></trkpt>
    <trkpt lat="60.6385683" lon="15.647855"><ele>0.0</ele></trkpt>
    <trkpt lat="60.6384353" lon="15.647875"><ele>0.0</ele></trkpt>
    <trkpt lat="60.6382702" lon="15.6479468"><ele>0.0</ele></trkpt>
    <trkpt lat="60.6382208" lon="15.6478977"><ele>0.0</ele></trkpt>
    <trkpt lat="60.6381445" lon="15.6477768"><ele>0.0</ele></trkpt>
    <trkpt lat="60.6379923" lon="15.6474532"><ele>0.0</ele></trkpt>
    <trkpt lat="60.6378779" lon="15.6471689"><ele>0.0</ele></trkpt>
    <trkpt lat="60.6378332" lon="15.647059"><ele>0.0</ele></trkpt>
    <trkpt lat="60.6376188" lon="15.6467425"><ele>0.0</ele></trkpt>
    <trkpt lat="60.6375846" lon="15.6466432"><ele>0.0</ele></trkpt>
    <trkpt lat="60.6374939" lon="15.6463857"><ele>0.0</ele></trkpt>
    <trkpt lat="60.6374649" lon="15.6463428"><ele>0.0</ele></trkpt>
    <trkpt lat="60.6373874" lon="15.6462221"><ele>0.0</ele></trkpt>
    <trkpt lat="60.6371835" lon="15.6461416"><ele>0.0</ele></trkpt>
    <trkpt lat="60.6370389" lon="15.6460585"><ele>0.0</ele></trkpt>
    <trkpt lat="60.6368771" lon="15.6459163"><ele>0.0</ele></trkpt>
    <trkpt lat="60.6364365" lon="15.6453879"><ele>0.0</ele></trkpt>
    <trkpt lat="60.6362116" lon="15.6451519"><ele>0.0</ele></trkpt>
    <trkpt lat="60.636176" lon="15.6450768"><ele>0.0</ele></trkpt>
    <trkpt lat="60.6360853" lon="15.6449829"><ele>0.0</ele></trkpt>
    <trkpt lat="60.635959" lon="15.6449078"><ele>0.0</ele></trkpt>
    <trkpt lat="60.6358393" lon="15.644822"><ele>0.0</ele></trkpt>
    <trkpt lat="60.6357183" lon="15.6446637"><ele>0.0</ele></trkpt>
    <trkpt lat="60.6356447" lon="15.6445028"><ele>0.0</ele></trkpt>
    <trkpt lat="60.6355776" lon="15.644307"><ele>0.0</ele></trkpt>
    <trkpt lat="60.6355105" lon="15.6441085"><ele>0.0</ele></trkpt>
    <trkpt lat="60.6354356" lon="15.6439154"><ele>0.0</ele></trkpt>
    <trkpt lat="60.6353922" lon="15.6436955"><ele>0.0</ele></trkpt>
    <trkpt lat="60.6353106" lon="15.6433146"><ele>0.0</ele></trkpt>
    <trkpt lat="60.6352093" lon="15.6429981"><ele>0.0</ele></trkpt>
    <trkpt lat="60.6349884" lon="15.6425931"><ele>0.0</ele></trkpt>
    <trkpt lat="60.6348212" lon="15.6423612"><ele>0.0</ele></trkpt>
    <trkpt lat="60.6347795" lon="15.6423214"><ele>0.0</ele></trkpt>
    <trkpt lat="60.6347325" lon="15.6422911"><ele>0.0</ele></trkpt>
    <trkpt lat="60.634702" lon="15.6421288"><ele>0.0</ele></trkpt>
    <trkpt lat="60.6345352" lon="15.6422764"><ele>0.0</ele></trkpt>
    <trkpt lat="60.6344525" lon="15.6423496"><ele>0.0</ele></trkpt>
    <trkpt lat="60.6340789" lon="15.6423282"><ele>0.0</ele></trkpt>
    <trkpt lat="60.6337211" lon="15.6421458"><ele>0.0</ele></trkpt>
    <trkpt lat="60.6335843" lon="15.6420278"><ele>0.0</ele></trkpt>
    <trkpt lat="60.6335317" lon="15.642017"><ele>0.0</ele></trkpt>
    <trkpt lat="60.6333897" lon="15.6420814"><ele>0.0</ele></trkpt>
    <trkpt lat="60.6332792" lon="15.64206"><ele>0.0</ele></trkpt>
    <trkpt lat="60.6331477" lon="15.6419956"><ele>0.0</ele></trkpt>
    <trkpt lat="60.6330372" lon="15.6420278"><ele>0.0</ele></trkpt>
    <trkpt lat="60.632832" lon="15.6419634"><ele>0.0</ele></trkpt>
    <trkpt lat="60.6327004" lon="15.6419634"><ele>0.0</ele></trkpt>
    <trkpt lat="60.632411" lon="15.6420814"><ele>0.0</ele></trkpt>
    <trkpt lat="60.6322164" lon="15.6420278"><ele>0.0</ele></trkpt>
    <trkpt lat="60.6321059" lon="15.642017"><ele>0.0</ele></trkpt>
    <trkpt lat="60.6320301" lon="15.641952"><ele>0.0</ele></trkpt>
    <trkpt lat="60.631927" lon="15.641899"><ele>0.0</ele></trkpt>
    <trkpt lat="60.6317691" lon="15.6419419"><ele>0.0</ele></trkpt>
    <trkpt lat="60.6315797" lon="15.642017"><ele>0.0</ele></trkpt>
    <trkpt lat="60.6314534" lon="15.6421672"><ele>0.0</ele></trkpt>
    <trkpt lat="60.6313055" lon="15.6421428"><ele>0.0</ele></trkpt>
    <trkpt lat="60.6312587" lon="15.6421351"><ele>0.0</ele></trkpt>
    <trkpt lat="60.6310371" lon="15.6421869"><ele>0.0</ele></trkpt>
    <trkpt lat="60.6307484" lon="15.6421887"><ele>0.0</ele></trkpt>
    <trkpt lat="60.6306273" lon="15.6421351"><ele>0.0</ele></trkpt>
    <trkpt lat="60.6305011" lon="15.6420814"><ele>0.0</ele></trkpt>
    <trkpt lat="60.6303379" lon="15.6419527"><ele>0.0</ele></trkpt>
    <trkpt lat="60.6302327" lon="15.6418239"><ele>0.0</ele></trkpt>
    <trkpt lat="60.6300591" lon="15.6417488"><ele>0.0</ele></trkpt>
    <trkpt lat="60.6298012" lon="15.6416737"><ele>0.0</ele></trkpt>
    <trkpt lat="60.6295329" lon="15.6416308"><ele>0.0</ele></trkpt>
    <trkpt lat="60.6294663" lon="15.6416691"><ele>0.0</ele></trkpt>
    <trkpt lat="60.6293276" lon="15.6417488"><ele>0.0</ele></trkpt>
    <trkpt lat="60.6292224" lon="15.6418883"><ele>0.0</ele></trkpt>
    <trkpt lat="60.6291856" lon="15.6420707"><ele>0.0</ele></trkpt>
    <trkpt lat="60.629175" lon="15.6422638"><ele>0.0</ele></trkpt>
    <trkpt lat="60.6290856" lon="15.6422316"><ele>0.0</ele></trkpt>
    <trkpt lat="60.6288961" lon="15.642296"><ele>0.0</ele></trkpt>
    <trkpt lat="60.6286646" lon="15.6423067"><ele>0.0</ele></trkpt>
    <trkpt lat="60.6285517" lon="15.6422299"><ele>0.0</ele></trkpt>
    <trkpt lat="60.6284752" lon="15.642178"><ele>0.0</ele></trkpt>
    <trkpt lat="60.6282857" lon="15.6420492"><ele>0.0</ele></trkpt>
    <trkpt lat="60.6280384" lon="15.6419741"><ele>0.0</ele></trkpt>
    <trkpt lat="60.6278384" lon="15.6420063"><ele>0.0</ele></trkpt>
    <trkpt lat="60.6276595" lon="15.6420707"><ele>0.0</ele></trkpt>
    <trkpt lat="60.6275069" lon="15.6422531"><ele>0.0</ele></trkpt>
    <trkpt lat="60.6273701" lon="15.642296"><ele>0.0</ele></trkpt>
    <trkpt lat="60.6272811" lon="15.6423363"><ele>0.0</ele></trkpt>
    <trkpt lat="60.6271807" lon="15.6423818"><ele>0.0</ele></trkpt>
    <trkpt lat="60.6269491" lon="15.6426608"><ele>0.0</ele></trkpt>
    <trkpt lat="60.6266787" lon="15.6430255"><ele>0.0</ele></trkpt>
    <trkpt lat="60.6266481" lon="15.643138"><ele>0.0</ele></trkpt>
    <trkpt lat="60.6265649" lon="15.643444"><ele>0.0</ele></trkpt>
    <trkpt lat="60.6265071" lon="15.6435942"><ele>0.0</ele></trkpt>
    <trkpt lat="60.6264123" lon="15.6437336"><ele>0.0</ele></trkpt>
    <trkpt lat="60.6263229" lon="15.6439804"><ele>0.0</ele></trkpt>
    <trkpt lat="60.6262334" lon="15.6441306"><ele>0.0</ele></trkpt>
    <trkpt lat="60.6261703" lon="15.6441628"><ele>0.0</ele></trkpt>
    <trkpt lat="60.6259235" lon="15.644484"><ele>0.0</ele></trkpt>
    <trkpt lat="60.6257656" lon="15.6447844"><ele>0.0</ele></trkpt>
    <trkpt lat="60.6255288" lon="15.6454818"><ele>0.0</ele></trkpt>
    <trkpt lat="60.6254341" lon="15.6456642"><ele>0.0</ele></trkpt>
    <trkpt lat="60.6251341" lon="15.645911"><ele>0.0</ele></trkpt>
    <trkpt lat="60.6249236" lon="15.6465654"><ele>0.0</ele></trkpt>
    <trkpt lat="60.6247657" lon="15.6471662"><ele>0.0</ele></trkpt>
    <trkpt lat="60.624692" lon="15.6472306"><ele>0.0</ele></trkpt>
    <trkpt lat="60.6246467" lon="15.647359"><ele>0.0</ele></trkpt>
    <trkpt lat="60.6244499" lon="15.6479173"><ele>0.0</ele></trkpt>
    <trkpt lat="60.6243575" lon="15.648443"><ele>0.0</ele></trkpt>
    <trkpt lat="60.6240237" lon="15.6484537"><ele>0.0</ele></trkpt>
    <trkpt lat="60.6239668" lon="15.6485017"><ele>0.0</ele></trkpt>
    <trkpt lat="60.6236552" lon="15.6487648"><ele>0.0</ele></trkpt>
    <trkpt lat="60.6234329" lon="15.6489757"><ele>0.0</ele></trkpt>
    <trkpt lat="60.6232763" lon="15.6492262"><ele>0.0</ele></trkpt>
    <trkpt lat="60.6229421" lon="15.6499438"><ele>0.0</ele></trkpt>
    <trkpt lat="60.6228816" lon="15.6500738"><ele>0.0</ele></trkpt>
    <trkpt lat="60.6225553" lon="15.6507282"><ele>0.0</ele></trkpt>
    <trkpt lat="60.6222192" lon="15.6514837"><ele>0.0</ele></trkpt>
  </trkseg></trk>
</gpx>