<?xml version="1.0" encoding="UTF-8"?>
<gpx version="1.1" xmlns="http://www.topografix.com/GPX/1/1" creator="GlideCast">
  <trk><name>Gällivare</name><trkseg>
    <trkpt lat="67.1229533" lon="20.564693"><ele>0.0</ele></trkpt>
    <trkpt lat="67.1228204" lon="20.5646858"><ele>0.0</ele></trkpt>
    <trkpt lat="67.1219296" lon="20.5646581"><ele>0.0</ele></trkpt>
    <trkpt lat="67.121735" lon="20.5645204"><ele>0.0</ele></trkpt>
    <trkpt lat="67.1215925" lon="20.5642359"><ele>0.0</ele></trkpt>
    <trkpt lat="67.121523" lon="20.5637626"><ele>0.0</ele></trkpt>
    <trkpt lat="67.1213766" lon="20.5628261"><ele>0.0</ele></trkpt>
    <trkpt lat="67.1211432" lon="20.5622143"><ele>0.0</ele></trkpt>
    <trkpt lat="67.1207419" lon="20.5615949"><ele>0.0</ele></trkpt>
    <trkpt lat="67.1203237" lon="20.5612723"><ele>0.0</ele></trkpt>
    <trkpt lat="67.1199854" lon="20.5611041"><ele>0.0</ele></trkpt>
    <trkpt lat="67.119757" lon="20.5608651"><ele>0.0</ele></trkpt>
    <trkpt lat="67.11938" lon="20.5601258"><ele>0.0</ele></trkpt>
    <trkpt lat="67.1192006" lon="20.5598711"><ele>0.0</ele></trkpt>
    <trkpt lat="67.1189501" lon="20.5596509"><ele>0.0</ele></trkpt>
    <trkpt lat="67.1186706" lon="20.5593488"><ele>0.0</ele></trkpt>
    <trkpt lat="67.1183783" lon="20.5586308"><ele>0.0</ele></trkpt>
    <trkpt lat="67.1179877" lon="20.5575009"><ele>0.0</ele></trkpt>
    <trkpt lat="67.1174254" lon="20.5559217"><ele>0.0</ele></trkpt>
    <trkpt lat="67.1169495" lon="20.5545488"><ele>0.0</ele></trkpt>
    <trkpt lat="67.116887" lon="20.5543753"><ele>0.0</ele></trkpt>
    <trkpt lat="67.1166374" lon="20.5536816"><ele>0.0</ele></trkpt>
    <trkpt lat="67.116502" lon="20.5535424"><ele>0.0</ele></trkpt>
    <trkpt lat="67.116208" lon="20.5534009"><ele>0.0</ele></trkpt>
    <trkpt lat="67.1157143" lon="20.5531977"><ele>0.0</ele></trkpt>
    <trkpt lat="67.1151623" lon="20.5531723"><ele>0.0</ele></trkpt>
    <trkpt lat="67.1146949" lon="20.5533829"><ele>0.0</ele></trkpt>
    <trkpt lat="67.1143146" lon="20.5536868"><ele>0.0</ele></trkpt>
    <trkpt lat="67.1141556" lon="20.5538657"><ele>0.0</ele></trkpt>
    <trkpt lat="67.1140823" lon="20.5541237"><ele>0.0</ele></trkpt>
    <trkpt lat="67.1140435" lon="20.5545525"><ele>0.0</ele></trkpt>
    <trkpt lat="67.1140232" lon="20.5554743"><ele>0.0</ele></trkpt>
    <trkpt lat="67.1140388" lon="20.5565487"><ele>0.0</ele></trkpt>
    <trkpt lat="67.1140735" lon="20.5574952"><ele>0.0</ele></trkpt>
    <trkpt lat="67.1141048" lon="20.5584965"><ele>0.0</ele></trkpt>
    <trkpt lat="67.1141259" lon="20.5593481"><ele>0.0</ele></trkpt>
    <trkpt lat="67.1141313" lon="20.5595662"><ele>0.0</ele></trkpt>
    <trkpt lat="67.1140672" lon="20.5604817"><ele>0.0</ele></trkpt>
    <trkpt lat="67.1138811" lon="20.5617773"><ele>0.0</ele></trkpt>
    <trkpt lat="67.1137261" lon="20.5625733"><ele>0.0</ele></trkpt>
    <trkpt lat="67.1135835" lon="20.5631822"><ele>0.0</ele></trkpt>
    <trkpt lat="67.1134099" lon="20.5637139"><ele>0.0</ele></trkpt>
    <trkpt lat="67.1130889" lon="20.5642879"><ele>0.0</ele></trkpt>
    <trkpt lat="67.1124032" lon="20.5653973"><ele>0.0</ele></trkpt>
    <trkpt lat="67.112188" lon="20.5657492"><ele>0.0</ele></trkpt>
    <trkpt lat="67.1117492" lon="20.5664713"><ele>0.0</ele></trkpt>
    <trkpt lat="67.111186" lon="20.5674222"><ele>0.0</ele></trkpt>
    <trkpt lat="67.110674" lon="20.5681316"><ele>0.0</ele></trkpt>
    <trkpt lat="67.1101112" lon="20.5688264"><ele>0.0</ele></trkpt>
    <trkpt lat="67.1095195" lon="20.5694092"><ele>0.0</ele></trkpt>
    <trkpt lat="67.1090812" lon="20.569757"><ele>0.0</ele></trkpt>
    <trkpt lat="67.1086016" lon="20.5701378"><ele>0.0</ele></trkpt>
    <trkpt lat="67.106497" lon="20.5717148"><ele>0.0</ele></trkpt>
    <trkpt lat="67.1057198" lon="20.5723047"><ele>0.0</ele></trkpt>
    <trkpt lat="67.1054151" lon="20.5725147"><ele>0.0</ele></trkpt>
    <trkpt lat="67.1050896" lon="20.5727684"><ele>0.0</ele></trkpt>
    <trkpt lat="67.1045785" lon="20.5731667"><ele>0.0</ele></trkpt>
    <trkpt lat="67.1039644" lon="20.5738671"><ele>0.0</ele></trkpt>
    <trkpt lat="67.1034334" lon="20.5746094"><ele>0.0</ele></trkpt>
    <trkpt lat="67.1027728" lon="20.5757184"><ele>0.0</ele></trkpt>
    <trkpt lat="67.1022058" lon="20.577005"><ele>0.0</ele></trkpt>
    <trkpt lat="67.1016846" lon="20.5782291"><ele>0.0</ele></trkpt>
    <trkpt lat="67.1010537" lon="20.5796668"><ele>0.0</ele></trkpt>
    <trkpt lat="67.1003687" lon="20.5811999"><ele>0.0</ele></trkpt>
    <trkpt lat="67.1003064" lon="20.5813589"><ele>0.0</ele></trkpt>
    <trkpt lat="67.0998626" lon="20.5824914"><ele>0.0</ele></trkpt>
    <trkpt lat="67.0995078" lon="20.5836512"><ele>0.0</ele></trkpt>
    <trkpt lat="67.0991455" lon="20.585331"><ele>0.0</ele></trkpt>
    <trkpt lat="67.0989081" lon="20.5868436"><ele>0.0</ele></trkpt>
    <trkpt lat="67.0988896" lon="20.5869695"><ele>0.0</ele></trkpt>
    <trkpt lat="67.0987116" lon="20.5885587"><ele>0.0</ele></trkpt>
    <trkpt lat="67.0985367" lon="20.5911189"><ele>0.0</ele></trkpt>
    <trkpt lat="67.0984533" lon="20.5923403"><ele>0.0</ele></trkpt>
    <trkpt lat="67.0983596" lon="20.5937547"><ele>0.0</ele></trkpt>
    <trkpt lat="67.0983351" lon="20.5956165"><ele>0.0</ele></trkpt>
    <trkpt lat="67.0983702" lon="20.5966757"><ele>0.0</ele></trkpt>
    <trkpt lat="67.0983813" lon="20.5970101"><ele>0.0</ele></trkpt>
    <trkpt lat="67.0984743" lon="20.5981395"><ele>0.0</ele></trkpt>
    <trkpt lat="67.0985985" lon="20.5992015"><ele>0.0</ele></trkpt>
    <trkpt lat="67.0989178" lon="20.6009861"><ele>0.0</ele></trkpt>
    <trkpt lat="67.099336" lon="20.6032775"><ele>0.0</ele></trkpt>
    <trkpt lat="67.0998079" lon="20.6056349"><ele>0.0</ele></trkpt>
    <trkpt lat="67.0998991" lon="20.6062479"><ele>0.0</ele></trkpt>
    <trkpt lat="67.0999839" lon="20.6066864"><ele>0.0</ele></trkpt>
    <trkpt lat="67.100057" lon="20.6070643"><ele>0.0</ele></trkpt>
    <trkpt lat="67.1000754" lon="20.6072587"><ele>0.0</ele></trkpt>
    <trkpt lat="67.1001955" lon="20.6085225"><ele>0.0</ele></trkpt>
    <trkpt lat="67.1002126" lon="20.6090267"><ele>0.0</ele></trkpt>
    <trkpt lat="67.1001955" lon="20.6085225"><ele>0.0</ele></trkpt>
    <trkpt lat="67.1000754" lon="20.6072587"><ele>0.0</ele></trkpt>
    <trkpt lat="67.100057" lon="20.6070643"><ele>0.0</ele></trkpt>
    <trkpt lat="67.0999839" lon="20.6066864"><ele>0.0</ele></trkpt>
    <trkpt lat="67.0998991" lon="20.6062479"><ele>0.0</ele></trkpt>
    <trkpt lat="67.0998079" lon="20.6056349"><ele>0.0</ele></trkpt>
    <trkpt lat="67.099336" lon="20.6032775"><ele>0.0</ele></trkpt>
    <trkpt lat="67.0989178" lon="20.6009861"><ele>0.0</ele></trkpt>
    <trkpt lat="67.0985985" lon="20.5992015"><ele>0.0</ele></trkpt>
    <trkpt lat="67.0984743" lon="20.5981395"><ele>0.0</ele></trkpt>
    <trkpt lat="67.0983813" lon="20.5970101"><ele>0.0</ele></trkpt>
    <trkpt lat="67.0983702" lon="20.5966757"><ele>0.0</ele></trkpt>
    <trkpt lat="67.0982474" lon="20.5967295"><ele>0.0</ele></trkpt>
    <trkpt lat="67.0981069" lon="20.5967142"><ele>0.0</ele></trkpt>
    <trkpt lat="67.0980304" lon="20.5963408"><ele>0.0</ele></trkpt>
    <trkpt lat="67.0980068" lon="20.5960902"><ele>0.0</ele></trkpt>
    <trkpt lat="67.0979287" lon="20.5955128"><ele>0.0</ele></trkpt>
    <trkpt lat="67.0978112" lon="20.594889"><ele>0.0</ele></trkpt>
    <trkpt lat="67.0973918" lon="20.5935599"><ele>0.0</ele></trkpt>
    <trkpt lat="67.0971757" lon="20.5925642"><ele>0.0</ele></trkpt>
    <trkpt lat="67.0969629" lon="20.5917907"><ele>0.0</ele></trkpt>
    <trkpt lat="67.0968093" lon="20.5914253"><ele>0.0</ele></trkpt>
    <trkpt lat="67.0966998" lon="20.5908251"><ele>0.0</ele></trkpt>
    <trkpt lat="67.0965181" lon="20.5901958"><ele>0.0</ele></trkpt>
    <trkpt lat="67.0962237" lon="20.5889427"><ele>0.0</ele></trkpt>
    <trkpt lat="67.0961343" lon="20.5883377"><ele>0.0</ele></trkpt>
    <trkpt lat="67.0960332" lon="20.5877104"><ele>0.0</ele></trkpt>
    <trkpt lat="67.0958749" lon="20.5874487"><ele>0.0</ele></trkpt>
    <trkpt lat="67.0957093" lon="20.5868569"><ele>0.0</ele></trkpt>
    <trkpt lat="67.0954569" lon="20.5862565"><ele>0.0</ele></trkpt>
    <trkpt lat="67.0952309" lon="20.5858721"><ele>0.0</ele></trkpt>
    <trkpt lat="67.0950993" lon="20.5856503"><ele>0.0</ele></trkpt>
    <trkpt lat="67.0948316" lon="20.5852785"><ele>0.0</ele></trkpt>
    <trkpt lat="67.0947522" lon="20.5847678"><ele>0.0</ele></trkpt>
    <trkpt lat="67.094449" lon="20.5835076"><ele>0.0</ele></trkpt>
    <trkpt lat="67.094392" lon="20.583042"><ele>0.0</ele></trkpt>
    <trkpt lat="67.0940601" lon="20.5817049"><ele>0.0</ele></trkpt>
    <trkpt lat="67.0939353" lon="20.5802517"><ele>0.0</ele></trkpt>
    <trkpt lat="67.0937362" lon="20.5797377"><ele>0.0</ele></trkpt>
    <trkpt lat="67.0934393" lon="20.5792454"><ele>0.0</ele></trkpt>
    <trkpt lat="67.0933094" lon="20.5791097"><ele>0.0</ele></trkpt>
    <trkpt lat="67.0931791" lon="20.5789459"><ele>0.0</ele></trkpt>
    <trkpt lat="67.0930981" lon="20.5785275"><ele>0.0</ele></trkpt>
    <trkpt lat="67.0930603" lon="20.5780858"><ele>0.0</ele></trkpt>
    <trkpt lat="67.0930292" lon="20.5773504"><ele>0.0</ele></trkpt>
    <trkpt lat="67.0928664" lon="20.5766177"><ele>0.0</ele></trkpt>
    <trkpt lat="67.0927809" lon="20.5763204"><ele>0.0</ele></trkpt>
    <trkpt lat="67.0926013" lon="20.5760837"><ele>0.0</ele></trkpt>
    <trkpt lat="67.0924661" lon="20.5759118"><ele>0.0</ele></trkpt>
    <trkpt lat="67.0922934" lon="20.5755312"><ele>0.0</ele></trkpt>
    <trkpt lat="67.0921502" lon="20.57481"><ele>0.0</ele></trkpt>
    <trkpt lat="67.0920858" lon="20.5740213"><ele>0.0</ele></trkpt>
    <trkpt lat="67.0919919" lon="20.5733256"><ele>0.0</ele></trkpt>
    <trkpt lat="67.0919683" lon="20.5726836"><ele>0.0</ele></trkpt>
    <trkpt lat="67.0918943" lon="20.5720738"><ele>0.0</ele></trkpt>
    <trkpt lat="67.0918486" lon="20.5713787"><ele>0.0</ele></trkpt>
    <trkpt lat="67.0916651" lon="20.5705536"><ele>0.0</ele></trkpt>
    <trkpt lat="67.091554" lon="20.5696794"><ele>0.0</ele></trkpt>
    <trkpt lat="67.0913363" lon="20.5687779"><ele>0.0</ele></trkpt>
    <trkpt lat="67.0912079" lon="20.5681421"><ele>0.0</ele></trkpt>
    <trkpt lat="67.1050896" lon="20.5727684"><ele>0.0</ele></trkpt>
    <trkpt lat="67.1050158" lon="20.5727202"><ele>0.0</ele></trkpt>
    <trkpt lat="67.1031917" lon="20.572114"><ele>0.0</ele></trkpt>
    <trkpt lat="67.0915907" lon="20.5679834"><ele>0.0</ele></trkpt>
    <trkpt lat="67.0913226" lon="20.5681988"><ele>0.0</ele></trkpt>
    <trkpt lat="67.0915907" lon="20.5679834"><ele>0.0</ele></trkpt>
    <trkpt lat="67.1031917" lon="20.572114"><ele>0.0</ele></trkpt>
    <trkpt lat="67.1050158" lon="20.5727202"><ele>0.0</ele></trkpt>
    <trkpt lat="67.1050896" lon="20.5727684"><ele>0.0</ele></trkpt>
  </trkseg></trk>
</gpx>