<?xml version="1.0" encoding="UTF-8"?>
<gpx version="1.1" xmlns="http://www.topografix.com/GPX/1/1" creator="GlideCast">
  <trk><name>Lahti</name><trkseg>
    <trkpt lat="60.9956372" lon="25.5757325"><ele>0.0</ele></trkpt>
    <trkpt lat="60.9956445" lon="25.5759765"><ele>0.0</ele></trkpt>
    <trkpt lat="60.9958056" lon="25.5758661"><ele>0.0</ele></trkpt>
    <trkpt lat="60.9959318" lon="25.5756821"><ele>0.0</ele></trkpt>
    <trkpt lat="60.995937" lon="25.5756735"><ele>0.0</ele></trkpt>
    <trkpt lat="60.9962325" lon="25.5751675"><ele>0.0</ele></trkpt>
    <trkpt lat="60.9963677" lon="25.5749881"><ele>0.0</ele></trkpt>
    <trkpt lat="60.9968239" lon="25.5747288"><ele>0.0</ele></trkpt>
    <trkpt lat="60.9970021" lon="25.5746698"><ele>0.0</ele></trkpt>
    <trkpt lat="60.9971541" lon="25.5745523"><ele>0.0</ele></trkpt>
    <trkpt lat="60.9972957" lon="25.5743081"><ele>0.0</ele></trkpt>
    <trkpt lat="60.9973818" lon="25.5741173"><ele>0.0</ele></trkpt>
    <trkpt lat="60.9975105" lon="25.5740039"><ele>0.0</ele></trkpt>
    <trkpt lat="60.9977108" lon="25.5739707"><ele>0.0</ele></trkpt>
    <trkpt lat="60.9980419" lon="25.5738478"><ele>0.0</ele></trkpt>
    <trkpt lat="60.9981959" lon="25.5739081"><ele>0.0</ele></trkpt>
    <trkpt lat="60.9983205" lon="25.5739808"><ele>0.0</ele></trkpt>
    <trkpt lat="60.9983949" lon="25.5739993"><ele>0.0</ele></trkpt>
    <trkpt lat="60.9984893" lon="25.5739943"><ele>0.0</ele></trkpt>
    <trkpt lat="60.9986446" lon="25.5738939"><ele>0.0</ele></trkpt>
    <trkpt lat="60.9988445" lon="25.5738101"><ele>0.0</ele></trkpt>
    <trkpt lat="60.9989527" lon="25.5738008"><ele>0.0</ele></trkpt>
    <trkpt lat="60.9990594" lon="25.5738519"><ele>0.0</ele></trkpt>
    <trkpt lat="60.9993546" lon="25.5738357"><ele>0.0</ele></trkpt>
    <trkpt lat="60.9996434" lon="25.5737512"><ele>0.0</ele></trkpt>
    <trkpt lat="61.0000935" lon="25.5737982"><ele>0.0</ele></trkpt>
    <trkpt lat="61.0001855" lon="25.5738035"><ele>0.0</ele></trkpt>
    <trkpt lat="61.0006484" lon="25.5735728"><ele>0.0</ele></trkpt>
    <trkpt lat="61.0016223" lon="25.5731807"><ele>0.0</ele></trkpt>
    <trkpt lat="61.0017127" lon="25.5731606"><ele>0.0</ele></trkpt>
    <trkpt lat="61.0017732" lon="25.5731611"><ele>0.0</ele></trkpt>
    <trkpt lat="61.0018324" lon="25.5731295"><ele>0.0</ele></trkpt>
    <trkpt lat="61.0018627" lon="25.5731057"><ele>0.0</ele></trkpt>
    <trkpt lat="61.0023038" lon="25.5722931"><ele>0.0</ele></trkpt>
    <trkpt lat="61.0023594" lon="25.5725728"><ele>0.0</ele></trkpt>
    <trkpt lat="61.0024101" lon="25.5727161"><ele>0.0</ele></trkpt>
    <trkpt lat="61.0024303" lon="25.5728104"><ele>0.0</ele></trkpt>
    <trkpt lat="61.0024318" lon="25.5729344"><ele>0.0</ele></trkpt>
    <trkpt lat="61.0024181" lon="25.5730431"><ele>0.0</ele></trkpt>
    <trkpt lat="61.0023953" lon="25.5731507"><ele>0.0</ele></trkpt>
    <trkpt lat="61.0023635" lon="25.5733247"><ele>0.0</ele></trkpt>
    <trkpt lat="61.002372" lon="25.5734672"><ele>0.0</ele></trkpt>
    <trkpt lat="61.0023954" lon="25.5735446"><ele>0.0</ele></trkpt>
    <trkpt lat="61.0024217" lon="25.5735998"><ele>0.0</ele></trkpt>
    <trkpt lat="61.0026193" lon="25.5738391"><ele>0.0</ele></trkpt>
    <trkpt lat="61.0028493" lon="25.5740267"><ele>0.0</ele></trkpt>
    <trkpt lat="61.0029252" lon="25.5741249"><ele>0.0</ele></trkpt>
    <trkpt lat="61.0029694" lon="25.57423"><ele>0.0</ele></trkpt>
    <trkpt lat="61.0030017" lon="25.5743391"><ele>0.0</ele></trkpt>
    <trkpt lat="61.0032834" lon="25.5754334"><ele>0.0</ele></trkpt>
    <trkpt lat="61.0036305" lon="25.5765222"><ele>0.0</ele></trkpt>
    <trkpt lat="61.0036796" lon="25.5767227"><ele>0.0</ele></trkpt>
    <trkpt lat="61.0036964" lon="25.5768859"><ele>0.0</ele></trkpt>
    <trkpt lat="61.0036964" lon="25.5770696"><ele>0.0</ele></trkpt>
    <trkpt lat="61.0036098" lon="25.5773333"><ele>0.0</ele></trkpt>
    <trkpt lat="61.0035549" lon="25.577415"><ele>0.0</ele></trkpt>
    <trkpt lat="61.0035058" lon="25.577466"><ele>0.0</ele></trkpt>
    <trkpt lat="61.0033659" lon="25.5775451"><ele>0.0</ele></trkpt>
    <trkpt lat="61.0033292" lon="25.5775072"><ele>0.0</ele></trkpt>
    <trkpt lat="61.0031641" lon="25.5774145"><ele>0.0</ele></trkpt>
    <trkpt lat="61.0030169" lon="25.57723"><ele>0.0</ele></trkpt>
    <trkpt lat="61.0028701" lon="25.5771185"><ele>0.0</ele></trkpt>
    <trkpt lat="61.0027236" lon="25.5770938"><ele>0.0</ele></trkpt>
    <trkpt lat="61.0025275" lon="25.5770616"><ele>0.0</ele></trkpt>
    <trkpt lat="61.0024032" lon="25.5770704"><ele>0.0</ele></trkpt>
    <trkpt lat="61.0022871" lon="25.5770564"><ele>0.0</ele></trkpt>
    <trkpt lat="61.0021893" lon="25.5770007"><ele>0.0</ele></trkpt>
    <trkpt lat="61.0020287" lon="25.5768733"><ele>0.0</ele></trkpt>
    <trkpt lat="61.0019074" lon="25.5768928"><ele>0.0</ele></trkpt>
    <trkpt lat="61.0017368" lon="25.577057"><ele>0.0</ele></trkpt>
    <trkpt lat="61.0015644" lon="25.5772592"><ele>0.0</ele></trkpt>
    <trkpt lat="61.0014735" lon="25.5774446"><ele>0.0</ele></trkpt>
    <trkpt lat="61.0014157" lon="25.5776427"><ele>0.0</ele></trkpt>
    <trkpt lat="61.0013562" lon="25.5780487"><ele>0.0</ele></trkpt>
    <trkpt lat="61.0013337" lon="25.5781446"><ele>0.0</ele></trkpt>
    <trkpt lat="61.0012753" lon="25.578217"><ele>0.0</ele></trkpt>
    <trkpt lat="61.000935" lon="25.5782795"><ele>0.0</ele></trkpt>
    <trkpt lat="61.0008311" lon="25.5783176"><ele>0.0</ele></trkpt>
    <trkpt lat="61.0005167" lon="25.5785979"><ele>0.0</ele></trkpt>
    <trkpt lat="61.000376" lon="25.5787575"><ele>0.0</ele></trkpt>
    <trkpt lat="61.0002889" lon="25.578889"><ele>0.0</ele></trkpt>
    <trkpt lat="61.0002275" lon="25.5789549"><ele>0.0</ele></trkpt>
    <trkpt lat="61.0000769" lon="25.5790217"><ele>0.0</ele></trkpt>
    <trkpt lat="60.999898" lon="25.5791356"><ele>0.0</ele></trkpt>
    <trkpt lat="60.999404" lon="25.579417"><ele>0.0</ele></trkpt>
    <trkpt lat="60.9993146" lon="25.5794778"><ele>0.0</ele></trkpt>
    <trkpt lat="60.999127" lon="25.5795836"><ele>0.0</ele></trkpt>
    <trkpt lat="60.9989896" lon="25.5796062"><ele>0.0</ele></trkpt>
    <trkpt lat="60.9986784" lon="25.5795499"><ele>0.0</ele></trkpt>
    <trkpt lat="60.9985548" lon="25.5795649"><ele>0.0</ele></trkpt>
    <trkpt lat="60.9984373" lon="25.5796838"><ele>0.0</ele></trkpt>
    <trkpt lat="60.9983945" lon="25.5798021"><ele>0.0</ele></trkpt>
    <trkpt lat="60.9983746" lon="25.5798571"><ele>0.0</ele></trkpt>
    <trkpt lat="60.9983348" lon="25.5800582"><ele>0.0</ele></trkpt>
    <trkpt lat="60.9983283" lon="25.5805652"><ele>0.0</ele></trkpt>
    <trkpt lat="60.9982931" lon="25.5809207"><ele>0.0</ele></trkpt>
    <trkpt lat="60.9982779" lon="25.5811491"><ele>0.0</ele></trkpt>
    <trkpt lat="60.9982523" lon="25.5813947"><ele>0.0</ele></trkpt>
    <trkpt lat="60.9981829" lon="25.5817294"><ele>0.0</ele></trkpt>
    <trkpt lat="60.9981023" lon="25.5820164"><ele>0.0</ele></trkpt>
    <trkpt lat="60.9979522" lon="25.5824228"><ele>0.0</ele></trkpt>
    <trkpt lat="60.9978367" lon="25.5827399"><ele>0.0</ele></trkpt>
    <trkpt lat="60.9976576" lon="25.5829694"><ele>0.0</ele></trkpt>
    <trkpt lat="60.9975093" lon="25.583442"><ele>0.0</ele></trkpt>
    <trkpt lat="60.9974182" lon="25.5836487"><ele>0.0</ele></trkpt>
    <trkpt lat="60.9973083" lon="25.5837719"><ele>0.0</ele></trkpt>
    <trkpt lat="60.9972364" lon="25.5838344"><ele>0.0</ele></trkpt>
    <trkpt lat="60.9971403" lon="25.5838686"><ele>0.0</ele></trkpt>
    <trkpt lat="60.9970201" lon="25.5839018"><ele>0.0</ele></trkpt>
    <trkpt lat="60.9970017" lon="25.583904"><ele>0.0</ele></trkpt>
    <trkpt lat="60.996805" lon="25.5839275"><ele>0.0</ele></trkpt>
    <trkpt lat="60.9965839" lon="25.5840292"><ele>0.0</ele></trkpt>
    <trkpt lat="60.9962786" lon="25.5840864"><ele>0.0</ele></trkpt>
    <trkpt lat="60.9961691" lon="25.584075"><ele>0.0</ele></trkpt>
    <trkpt lat="60.9961038" lon="25.5840302"><ele>0.0</ele></trkpt>
    <trkpt lat="60.9960534" lon="25.5840388"><ele>0.0</ele></trkpt>
    <trkpt lat="60.9960096" lon="25.5840792"><ele>0.0</ele></trkpt>
    <trkpt lat="60.9959675" lon="25.5841555"><ele>0.0</ele></trkpt>
    <trkpt lat="60.995952" lon="25.5842687"><ele>0.0</ele></trkpt>
    <trkpt lat="60.9959526" lon="25.5844344"><ele>0.0</ele></trkpt>
    <trkpt lat="60.9959422" lon="25.584677"><ele>0.0</ele></trkpt>
    <trkpt lat="60.9959083" lon="25.5849427"><ele>0.0</ele></trkpt>
    <trkpt lat="60.9958539" lon="25.585141"><ele>0.0</ele></trkpt>
    <trkpt lat="60.9957692" lon="25.5852855"><ele>0.0</ele></trkpt>
    <trkpt lat="60.9956087" lon="25.5853405"><ele>0.0</ele></trkpt>
    <trkpt lat="60.9955487" lon="25.5853421"><ele>0.0</ele></trkpt>
    <trkpt lat="60.9954902" lon="25.5853437"><ele>0.0</ele></trkpt>
    <trkpt lat="60.9953822" lon="25.5854102"><ele>0.0</ele></trkpt>
    <trkpt lat="60.9953254" lon="25.5854413"><ele>0.0</ele></trkpt>
    <trkpt lat="60.9952475" lon="25.5854977"><ele>0.0</ele></trkpt>
    <trkpt lat="60.995236" lon="25.585506"><ele>0.0</ele></trkpt>
    <trkpt lat="60.9951423" lon="25.5856708"><ele>0.0</ele></trkpt>
    <trkpt lat="60.9949549" lon="25.5860909"><ele>0.0</ele></trkpt>
    <trkpt lat="60.9949303" lon="25.5861537"><ele>0.0</ele></trkpt>
    <trkpt lat="60.9948693" lon="25.5862355"><ele>0.0</ele></trkpt>
    <trkpt lat="60.9948258" lon="25.5862791"><ele>0.0</ele></trkpt>
    <trkpt lat="60.9944431" lon="25.5865"><ele>0.0</ele></trkpt>
    <trkpt lat="60.9943087" lon="25.5866379"><ele>0.0</ele></trkpt>
    <trkpt lat="60.9941272" lon="25.5868324"><ele>0.0</ele></trkpt>
    <trkpt lat="60.9940483" lon="25.586988"><ele>0.0</ele></trkpt>
    <trkpt lat="60.9938683" lon="25.5868703"><ele>0.0</ele></trkpt>
    <trkpt lat="60.993449" lon="25.5866512"><ele>0.0</ele></trkpt>
    <trkpt lat="60.9932169" lon="25.5863861"><ele>0.0</ele></trkpt>
    <trkpt lat="60.9932024" lon="25.5866912"><ele>0.0</ele></trkpt>
    <trkpt lat="60.9928364" lon="25.5861202"><ele>0.0</ele></trkpt>
    <trkpt lat="60.9928126" lon="25.5859488"><ele>0.0</ele></trkpt>
    <trkpt lat="60.992908" lon="25.5860917"><ele>0.0</ele></trkpt>
    <trkpt lat="60.9930993" lon="25.5862784"><ele>0.0</ele></trkpt>
    <trkpt lat="60.9932169" lon="25.5863861"><ele>0.0</ele></trkpt>
    <trkpt lat="60.9932948" lon="25.5862422"><ele>0.0</ele></trkpt>
    <trkpt lat="60.9933829" lon="25.5860607"><ele>0.0</ele></trkpt>
    <trkpt lat="60.9934258" lon="25.5858668"><ele>0.0</ele></trkpt>
    <trkpt lat="60.9934138" lon="25.5856588"><ele>0.0</ele></trkpt>
    <trkpt lat="60.9933807" lon="25.5855395"><ele>0.0</ele></trkpt>
    <trkpt lat="60.9933637" lon="25.5853881"><ele>0.0</ele></trkpt>
    <trkpt lat="60.9933759" lon="25.5852502"><ele>0.0</ele></trkpt>
    <trkpt lat="60.9934428" lon="25.5850355"><ele>0.0</ele></trkpt>
    <trkpt lat="60.993531" lon="25.5845644"><ele>0.0</ele></trkpt>
    <trkpt lat="60.9933869" lon="25.5844777"><ele>0.0</ele></trkpt>
    <trkpt lat="60.993082" lon="25.5841952"><ele>0.0</ele></trkpt>
    <trkpt lat="60.992966" lon="25.5839768"><ele>0.0</ele></trkpt>
    <trkpt lat="60.9927342" lon="25.5836352"><ele>0.0</ele></trkpt>
    <trkpt lat="60.9925244" lon="25.5833858"><ele>0.0</ele></trkpt>
    <trkpt lat="60.9923785" lon="25.5832073"><ele>0.0</ele></trkpt>
    <trkpt lat="60.9922426" lon="25.5830845"><ele>0.0</ele></trkpt>
    <trkpt lat="60.9921398" lon="25.583037"><ele>0.0</ele></trkpt>
    <trkpt lat="60.9919245" lon="25.5828945"><ele>0.0</ele></trkpt>
    <trkpt lat="60.9918734" lon="25.5825946"><ele>0.0</ele></trkpt>
    <trkpt lat="60.9918173" lon="25.5822457"><ele>0.0</ele></trkpt>
    <trkpt lat="60.9917737" lon="25.5818769"><ele>0.0</ele></trkpt>
    <trkpt lat="60.9917558" lon="25.5812987"><ele>0.0</ele></trkpt>
    <trkpt lat="60.9917364" lon="25.5806442"><ele>0.0</ele></trkpt>
    <trkpt lat="60.9917454" lon="25.5805023"><ele>0.0</ele></trkpt>
    <trkpt lat="60.9917552" lon="25.5803479"><ele>0.0</ele></trkpt>
    <trkpt lat="60.9918806" lon="25.5795529"><ele>0.0</ele></trkpt>
    <trkpt lat="60.9919417" lon="25.5792578"><ele>0.0</ele></trkpt>
    <trkpt lat="60.9920033" lon="25.5789775"><ele>0.0</ele></trkpt>
    <trkpt lat="60.9922621" lon="25.5780749"><ele>0.0</ele></trkpt>
    <trkpt lat="60.9923003" lon="25.5779419"><ele>0.0</ele></trkpt>
    <trkpt lat="60.9923524" lon="25.5777688"><ele>0.0</ele></trkpt>
    <trkpt lat="60.9924067" lon="25.5776461"><ele>0.0</ele></trkpt>
    <trkpt lat="60.9925839" lon="25.5773872"><ele>0.0</ele></trkpt>
    <trkpt lat="60.9926373" lon="25.577281"><ele>0.0</ele></trkpt>
    <trkpt lat="60.9927133" lon="25.5771525"><ele>0.0</ele></trkpt>
    <trkpt lat="60.9931511" lon="25.5768263"><ele>0.0</ele></trkpt>
    <trkpt lat="60.993243" lon="25.5767844"><ele>0.0</ele></trkpt>
    <trkpt lat="60.9934698" lon="25.576671"><ele>0.0</ele></trkpt>
    <trkpt lat="60.9937683" lon="25.5765336"><ele>0.0</ele></trkpt>
    <trkpt lat="60.9938054" lon="25.5765094"><ele>0.0</ele></trkpt>
    <trkpt lat="60.9938722" lon="25.5764733"><ele>0.0</ele></trkpt>
    <trkpt lat="60.9939536" lon="25.5764428"><ele>0.0</ele></trkpt>
    <trkpt lat="60.99407" lon="25.576487"><ele>0.0</ele></trkpt>
    <trkpt lat="60.9941256" lon="25.5764959"><ele>0.0</ele></trkpt>
    <trkpt lat="60.9942261" lon="25.5764535"><ele>0.0</ele></trkpt>
    <trkpt lat="60.9948152" lon="25.5761558"><ele>0.0</ele></trkpt>
    <trkpt lat="60.9949077" lon="25.5760966"><ele>0.0</ele></trkpt>
    <trkpt lat="60.9951006" lon="25.5759732"><ele>0.0</ele></trkpt>
    <trkpt lat="60.9952147" lon="25.5759282"><ele>0.0</ele></trkpt>
    <trkpt lat="60.9954813" lon="25.5758498"><ele>0.0</ele></trkpt>
    <trkpt lat="60.9956372" lon="25.5757325"><ele>0.0</ele></trkpt>
    <trkpt lat="60.9957107" lon="25.5755898"><ele>0.0</ele></trkpt>
    <trkpt lat="60.9957837" lon="25.5753122"><ele>0.0</ele></trkpt>
    <trkpt lat="60.9957969" lon="25.5751631"><ele>0.0</ele></trkpt>
    <trkpt lat="60.9957404" lon="25.5745953"><ele>0.0</ele></trkpt>
    <trkpt lat="60.9957311" lon="25.574478"><ele>0.0</ele></trkpt>
    <trkpt lat="60.9957602" lon="25.5739767"><ele>0.0</ele></trkpt>
    <trkpt lat="60.9957635" lon="25.5735376"><ele>0.0</ele></trkpt>
    <trkpt lat="60.9958293" lon="25.5727571"><ele>0.0</ele></trkpt>
    <trkpt lat="60.9958098" lon="25.5719343"><ele>0.0</ele></trkpt>
    <trkpt lat="60.9957625" lon="25.5710079"><ele>0.0</ele></trkpt>
    <trkpt lat="60.9957403" lon="25.5704828"><ele>0.0</ele></trkpt>
    <trkpt lat="60.9957589" lon="25.5696892"><ele>0.0</ele></trkpt>
    <trkpt lat="60.9958049" lon="25.5696293"><ele>0.0</ele></trkpt>
    <trkpt lat="60.9958399" lon="25.5695745"><ele>0.0</ele></trkpt>
    <trkpt lat="60.9958921" lon="25.5695359"><ele>0.0</ele></trkpt>
    <trkpt lat="60.9959309" lon="25.5695226"><ele>0.0</ele></trkpt>
    <trkpt lat="60.996025" lon="25.5695356"><ele>0.0</ele></trkpt>
    <trkpt lat="60.995964" lon="25.5694044"><ele>0.0</ele></trkpt>
    <trkpt lat="60.995857" lon="25.5692303"><ele>0.0</ele></trkpt>
    <trkpt lat="60.9957666" lon="25.5691861"><ele>0.0</ele></trkpt>
    <trkpt lat="60.995644" lon="25.5691908"><ele>0.0</ele></trkpt>
    <trkpt lat="60.9953718" lon="25.5688472"><ele>0.0</ele></trkpt>
    <trkpt lat="60.9949494" lon="25.56843"><ele>0.0</ele></trkpt>
    <trkpt lat="60.9947497" lon="25.5683152"><ele>0.0</ele></trkpt>
    <trkpt lat="60.9945662" lon="25.56814"><ele>0.0</ele></trkpt>
    <trkpt lat="60.9944944" lon="25.5679585"><ele>0.0</ele></trkpt>
    <trkpt lat="60.9944638" lon="25.5677544"><ele>0.0</ele></trkpt>
    <trkpt lat="60.9944524" lon="25.5674319"><ele>0.0</ele></trkpt>
    <trkpt lat="60.9943474" lon="25.5654753"><ele>0.0</ele></trkpt>
    <trkpt lat="60.9942842" lon="25.5644995"><ele>0.0</ele></trkpt>
    <trkpt lat="60.9942521" lon="25.5639759"><ele>0.0</ele></trkpt>
    <trkpt lat="60.9942482" lon="25.5634555"><ele>0.0</ele></trkpt>
    <trkpt lat="60.9941146" lon="25.561471"><ele>0.0</ele></trkpt>
    <trkpt lat="60.9941058" lon="25.5608536"><ele>0.0</ele></trkpt>
    <trkpt lat="60.9939848" lon="25.5589306"><ele>0.0</ele></trkpt>
    <trkpt lat="60.993954" lon="25.558496"><ele>0.0</ele></trkpt>
    <trkpt lat="60.9939269" lon="25.5580348"><ele>0.0</ele></trkpt>
    <trkpt lat="60.9939048" lon="25.557843"><ele>0.0</ele></trkpt>
    <trkpt lat="60.9938641" lon="25.5576353"><ele>0.0</ele></trkpt>
    <trkpt lat="60.9933808" lon="25.5564415"><ele>0.0</ele></trkpt>
    <trkpt lat="60.9932994" lon="25.5561465"><ele>0.0</ele></trkpt>
    <trkpt lat="60.9932406" lon="25.5558319"><ele>0.0</ele></trkpt>
    <trkpt lat="60.9930839" lon="25.5552448"><ele>0.0</ele></trkpt>
    <trkpt lat="60.992981" lon="25.5550884"><ele>0.0</ele></trkpt>
    <trkpt lat="60.9928179" lon="25.5548834"><ele>0.0</ele></trkpt>
    <trkpt lat="60.992745" lon="25.5547423"><ele>0.0</ele></trkpt>
    <trkpt lat="60.9926946" lon="25.5545975"><ele>0.0</ele></trkpt>
    <trkpt lat="60.992626" lon="25.5542758"><ele>0.0</ele></trkpt>
    <trkpt lat="60.992511" lon="25.5539636"><ele>0.0</ele></trkpt>
    <trkpt lat="60.9924484" lon="25.5538362"><ele>0.0</ele></trkpt>
    <trkpt lat="60.9923628" lon="25.5537044"><ele>0.0</ele></trkpt>
    <trkpt lat="60.9922894" lon="25.5536373"><ele>0.0</ele></trkpt>
    <trkpt lat="60.9920844" lon="25.5535767"><ele>0.0</ele></trkpt>
    <trkpt lat="60.9919857" lon="25.5534951"><ele>0.0</ele></trkpt>
    <trkpt lat="60.9919005" lon="25.5533535"><ele>0.0</ele></trkpt>
    <trkpt lat="60.991509" lon="25.5525986"><ele>0.0</ele></trkpt>
    <trkpt lat="60.9914011" lon="25.5524199"><ele>0.0</ele></trkpt>
    <trkpt lat="60.9912496" lon="25.5519988"><ele>0.0</ele></trkpt>
    <trkpt lat="60.9910794" lon="25.551773"><ele>0.0</ele></trkpt>
    <trkpt lat="60.9909313" lon="25.5516411"><ele>0.0</ele></trkpt>
    <trkpt lat="60.9908086" lon="25.5514542"><ele>0.0</ele></trkpt>
    <trkpt lat="60.9904377" lon="25.550698"><ele>0.0</ele></trkpt>
    <trkpt lat="60.9903164" lon="25.5499132"><ele>0.0</ele></trkpt>
    <trkpt lat="60.9902466" lon="25.5493062"><ele>0.0</ele></trkpt>
    <trkpt lat="60.9902284" lon="25.5491134"><ele>0.0</ele></trkpt>
    <trkpt lat="60.9902084" lon="25.5485401"><ele>0.0</ele></trkpt>
    <trkpt lat="60.9902134" lon="25.5483262"><ele>0.0</ele></trkpt>
    <trkpt lat="60.9902395" lon="25.5480878"><ele>0.0</ele></trkpt>
    <trkpt lat="60.9904552" lon="25.5474488"><ele>0.0</ele></trkpt>
    <trkpt lat="60.9906046" lon="25.5471025"><ele>0.0</ele></trkpt>
    <trkpt lat="60.9906737" lon="25.5468896"><ele>0.0</ele></trkpt>
    <trkpt lat="60.9907822" lon="25.5464107"><ele>0.0</ele></trkpt>
    <trkpt lat="60.9908886" lon="25.5461097"><ele>0.0</ele></trkpt>
    <trkpt lat="60.991184" lon="25.5455896"><ele>0.0</ele></trkpt>
    <trkpt lat="60.991655" lon="25.5447005"><ele>0.0</ele></trkpt>
    <trkpt lat="60.9918943" lon="25.5442715"><ele>0.0</ele></trkpt>
    <trkpt lat="60.992045" lon="25.5440491"><ele>0.0</ele></trkpt>
    <trkpt lat="60.9921751" lon="25.5439203"><ele>0.0</ele></trkpt>
    <trkpt lat="60.9922803" lon="25.5438218"><ele>0.0</ele></trkpt>
    <trkpt lat="60.9923902" lon="25.5437587"><ele>0.0</ele></trkpt>
    <trkpt lat="60.9930478" lon="25.5433166"><ele>0.0</ele></trkpt>
    <trkpt lat="60.9931732" lon="25.5432773"><ele>0.0</ele></trkpt>
    <trkpt lat="60.9933595" lon="25.5433096"><ele>0.0</ele></trkpt>
    <trkpt lat="60.9937056" lon="25.5435156"><ele>0.0</ele></trkpt>
    <trkpt lat="60.9938225" lon="25.5435628"><ele>0.0</ele></trkpt>
    <trkpt lat="60.9938909" lon="25.5435704"><ele>0.0</ele></trkpt>
    <trkpt lat="60.9939407" lon="25.5435651"><ele>0.0</ele></trkpt>
    <trkpt lat="60.9939799" lon="25.5435303"><ele>0.0</ele></trkpt>
    <trkpt lat="60.9940105" lon="25.5434788"><ele>0.0</ele></trkpt>
    <trkpt lat="60.9939799" lon="25.5435303"><ele>0.0</ele></trkpt>
    <trkpt lat="60.9939407" lon="25.5435651"><ele>0.0</ele></trkpt>
    <trkpt lat="60.9938909" lon="25.5435704"><ele>0.0</ele></trkpt>
    <trkpt lat="60.9938225" lon="25.5435628"><ele>0.0</ele></trkpt>
    <trkpt lat="60.9937056" lon="25.5435156"><ele>0.0</ele></trkpt>
    <trkpt lat="60.9933595" lon="25.5433096"><ele>0.0</ele></trkpt>
    <trkpt lat="60.9931732" lon="25.5432773"><ele>0.0</ele></trkpt>
    <trkpt lat="60.9930478" lon="25.5433166"><ele>0.0</ele></trkpt>
    <trkpt lat="60.9923902" lon="25.5437587"><ele>0.0</ele></trkpt>
    <trkpt lat="60.9922803" lon="25.5438218"><ele>0.0</ele></trkpt>
    <trkpt lat="60.9921751" lon="25.5439203"><ele>0.0</ele></trkpt>
    <trkpt lat="60.992045" lon="25.5440491"><ele>0.0</ele></trkpt>
    <trkpt lat="60.9918943" lon="25.5442715"><ele>0.0</ele></trkpt>
    <trkpt lat="60.991655" lon="25.5447005"><ele>0.0</ele></trkpt>
    <trkpt lat="60.991184" lon="25.5455896"><ele>0.0</ele></trkpt>
    <trkpt lat="60.9908886" lon="25.5461097"><ele>0.0</ele></trkpt>
    <trkpt lat="60.9907822" lon="25.5464107"><ele>0.0</ele></trkpt>
    <trkpt lat="60.9906737" lon="25.5468896"><ele>0.0</ele></trkpt>
    <trkpt lat="60.9906046" lon="25.5471025"><ele>0.0</ele></trkpt>
    <trkpt lat="60.9904552" lon="25.5474488"><ele>0.0</ele></trkpt>
    <trkpt lat="60.9902395" lon="25.5480878"><ele>0.0</ele></trkpt>
    <trkpt lat="60.9902134" lon="25.5483262"><ele>0.0</ele></trkpt>
    <trkpt lat="60.9902084" lon="25.5485401"><ele>0.0</ele></trkpt>
    <trkpt lat="60.9902284" lon="25.5491134"><ele>0.0</ele></trkpt>
    <trkpt lat="60.9902466" lon="25.5493062"><ele>0.0</ele></trkpt>
    <trkpt lat="60.9903164" lon="25.5499132"><ele>0.0</ele></trkpt>
    <trkpt lat="60.9904377" lon="25.550698"><ele>0.0</ele></trkpt>
    <trkpt lat="60.9904537" lon="25.5510385"><ele>0.0</ele></trkpt>
    <trkpt lat="60.9904695" lon="25.5512471"><ele>0.0</ele></trkpt>
    <trkpt lat="60.990512" lon="25.5514237"><ele>0.0</ele></trkpt>
    <trkpt lat="60.990586" lon="25.5516181"><ele>0.0</ele></trkpt>
    <trkpt lat="60.9907125" lon="25.551837"><ele>0.0</ele></trkpt>
    <trkpt lat="60.9908693" lon="25.5519998"><ele>0.0</ele></trkpt>
    <trkpt lat="60.9912014" lon="25.5522868"><ele>0.0</ele></trkpt>
    <trkpt lat="60.9914011" lon="25.5524199"><ele>0.0</ele></trkpt>
    <trkpt lat="60.9912014" lon="25.5522868"><ele>0.0</ele></trkpt>
    <trkpt lat="60.9908693" lon="25.5519998"><ele>0.0</ele></trkpt>
    <trkpt lat="60.9907125" lon="25.551837"><ele>0.0</ele></trkpt>
    <trkpt lat="60.990586" lon="25.5516181"><ele>0.0</ele></trkpt>
    <trkpt lat="60.990512" lon="25.5514237"><ele>0.0</ele></trkpt>
    <trkpt lat="60.9904695" lon="25.5512471"><ele>0.0</ele></trkpt>
    <trkpt lat="60.9904537" lon="25.5510385"><ele>0.0</ele></trkpt>
    <trkpt lat="60.9904377" lon="25.550698"><ele>0.0</ele></trkpt>
  </trkseg></trk>
</gpx>