<?xml version="1.0" encoding="UTF-8"?>
<gpx version="1.1" xmlns="http://www.topografix.com/GPX/1/1" creator="GlideCast">
  <trk><name>Lake Placid</name><trkseg>
    <trkpt lat="44.323308" lon="-74.0746353"><ele>514.0</ele></trkpt>
    <trkpt lat="44.3232681" lon="-74.0741989"><ele>514.0</ele></trkpt>
    <trkpt lat="44.3231079" lon="-74.0735955"><ele>514.0</ele></trkpt>
    <trkpt lat="44.323146" lon="-74.0724887"><ele>537.0</ele></trkpt>
    <trkpt lat="44.3231558" lon="-74.0718281"><ele>537.0</ele></trkpt>
    <trkpt lat="44.3232918" lon="-74.0716213"><ele>537.0</ele></trkpt>
    <trkpt lat="44.3238434" lon="-74.0710858"><ele>537.0</ele></trkpt>
    <trkpt lat="44.3241475" lon="-74.0704053"><ele>574.0</ele></trkpt>
    <trkpt lat="44.3242862" lon="-74.0697053"><ele>574.0</ele></trkpt>
    <trkpt lat="44.324367" lon="-74.068815"><ele>574.0</ele></trkpt>
    <trkpt lat="44.3243737" lon="-74.0680001"><ele>595.0</ele></trkpt>
    <trkpt lat="44.324231" lon="-74.067126"><ele>595.0</ele></trkpt>
    <trkpt lat="44.323954" lon="-74.065886"><ele>610.0</ele></trkpt>
    <trkpt lat="44.323857" lon="-74.0647006"><ele>610.0</ele></trkpt>
    <trkpt lat="44.323886" lon="-74.063914"><ele>626.0</ele></trkpt>
    <trkpt lat="44.323956" lon="-74.063232"><ele>626.0</ele></trkpt>
    <trkpt lat="44.324208" lon="-74.061847"><ele>652.0</ele></trkpt>
    <trkpt lat="44.324359" lon="-74.061311"><ele>652.0</ele></trkpt>
    <trkpt lat="44.324612" lon="-74.060526"><ele>652.0</ele></trkpt>
    <trkpt lat="44.32528" lon="-74.057561"><ele>688.0</ele></trkpt>
    <trkpt lat="44.325348" lon="-74.057225"><ele>688.0</ele></trkpt>
    <trkpt lat="44.325355" lon="-74.056887"><ele>688.0</ele></trkpt>
    <trkpt lat="44.3252788" lon="-74.0563779"><ele>688.0</ele></trkpt>
    <trkpt lat="44.325243" lon="-74.05571"><ele>706.0</ele></trkpt>
    <trkpt lat="44.3251371" lon="-74.054644"><ele>706.0</ele></trkpt>
    <trkpt lat="44.325104" lon="-74.05386"><ele>738.0</ele></trkpt>
    <trkpt lat="44.324995" lon="-74.053321"><ele>751.0</ele></trkpt>
    <trkpt lat="44.324993" lon="-74.052996"><ele>751.0</ele></trkpt>
    <trkpt lat="44.3251006" lon="-74.0524291"><ele>738.0</ele></trkpt>
    <trkpt lat="44.325074" lon="-74.0519804"><ele>772.0</ele></trkpt>
    <trkpt lat="44.3247077" lon="-74.0513492"><ele>773.0</ele></trkpt>
    <trkpt lat="44.3242566" lon="-74.0503376"><ele>773.0</ele></trkpt>
    <trkpt lat="44.32415" lon="-74.0498953"><ele>795.0</ele></trkpt>
    <trkpt lat="44.3235188" lon="-74.0487751"><ele>795.0</ele></trkpt>
    <trkpt lat="44.3232035" lon="-74.0478234"><ele>807.0</ele></trkpt>
    <trkpt lat="44.322906" lon="-74.046772"><ele>814.0</ele></trkpt>
    <trkpt lat="44.3226976" lon="-74.0461287"><ele>814.0</ele></trkpt>
    <trkpt lat="44.3226219" lon="-74.0456165"><ele>772.0</ele></trkpt>
    <trkpt lat="44.3222911" lon="-74.0448219"><ele>772.0</ele></trkpt>
    <trkpt lat="44.322222" lon="-74.044197"><ele>772.0</ele></trkpt>
    <trkpt lat="44.322175" lon="-74.0436764"><ele>751.0</ele></trkpt>
    <trkpt lat="44.3222495" lon="-74.0432483"><ele>751.0</ele></trkpt>
    <trkpt lat="44.3221177" lon="-74.0424643"><ele>751.0</ele></trkpt>
    <trkpt lat="44.3221384" lon="-74.0416396"><ele>745.0</ele></trkpt>
    <trkpt lat="44.3219682" lon="-74.0408486"><ele>745.0</ele></trkpt>
    <trkpt lat="44.3218787" lon="-74.0405752"><ele>745.0</ele></trkpt>
    <trkpt lat="44.32183" lon="-74.040382"><ele>745.0</ele></trkpt>
    <trkpt lat="44.321734" lon="-74.040118"><ele>745.0</ele></trkpt>
    <trkpt lat="44.321682" lon="-74.039818"><ele>745.0</ele></trkpt>
    <trkpt lat="44.32166" lon="-74.039284"><ele>750.0</ele></trkpt>
    <trkpt lat="44.321656" lon="-74.038661"><ele>750.0</ele></trkpt>
    <trkpt lat="44.321587" lon="-74.038233"><ele>750.0</ele></trkpt>
    <trkpt lat="44.321508" lon="-74.037593"><ele>750.0</ele></trkpt>
    <trkpt lat="44.321544" lon="-74.036943"><ele>753.0</ele></trkpt>
    <trkpt lat="44.321603" lon="-74.036376"><ele>753.0</ele></trkpt>
    <trkpt lat="44.321601" lon="-74.036128"><ele>753.0</ele></trkpt>
    <trkpt lat="44.321573" lon="-74.035805"><ele>753.0</ele></trkpt>
    <trkpt lat="44.32157" lon="-74.035205"><ele>759.0</ele></trkpt>
    <trkpt lat="44.3217089" lon="-74.0341356"><ele>759.0</ele></trkpt>
    <trkpt lat="44.321747" lon="-74.0333088"><ele>761.0</ele></trkpt>
    <trkpt lat="44.3217336" lon="-74.0329283"><ele>761.0</ele></trkpt>
    <trkpt lat="44.3216389" lon="-74.0326618"><ele>761.0</ele></trkpt>
    <trkpt lat="44.3213905" lon="-74.0322614"><ele>761.0</ele></trkpt>
    <trkpt lat="44.3213436" lon="-74.0321356"><ele>761.0</ele></trkpt>
    <trkpt lat="44.3212418" lon="-74.0318621"><ele>761.0</ele></trkpt>
    <trkpt lat="44.3211353" lon="-74.0314373"><ele>761.0</ele></trkpt>
    <trkpt lat="44.3210012" lon="-74.0311695"><ele>769.0</ele></trkpt>
    <trkpt lat="44.3207602" lon="-74.0309438"><ele>755.0</ele></trkpt>
    <trkpt lat="44.3206218" lon="-74.0306007"><ele>755.0</ele></trkpt>
    <trkpt lat="44.3205723" lon="-74.0301562"><ele>755.0</ele></trkpt>
    <trkpt lat="44.3204296" lon="-74.0298392"><ele>755.0</ele></trkpt>
    <trkpt lat="44.3199992" lon="-74.0291906"><ele>755.0</ele></trkpt>
    <trkpt lat="44.3198337" lon="-74.0287883"><ele>757.0</ele></trkpt>
    <trkpt lat="44.3191413" lon="-74.0279079"><ele>757.0</ele></trkpt>
    <trkpt lat="44.3187264" lon="-74.0276266"><ele>741.0</ele></trkpt>
    <trkpt lat="44.3184262" lon="-74.0272314"><ele>741.0</ele></trkpt>
    <trkpt lat="44.317593" lon="-74.025673"><ele>746.0</ele></trkpt>
    <trkpt lat="44.3172519" lon="-74.0252333"><ele>746.0</ele></trkpt>
    <trkpt lat="44.316899" lon="-74.0247478"><ele>755.0</ele></trkpt>
    <trkpt lat="44.3167771" lon="-74.0243705"><ele>755.0</ele></trkpt>
    <trkpt lat="44.3166651" lon="-74.0238664"><ele>732.0</ele></trkpt>
    <trkpt lat="44.3165048" lon="-74.0231367"><ele>732.0</ele></trkpt>
    <trkpt lat="44.3163909" lon="-74.0225005"><ele>728.0</ele></trkpt>
    <trkpt lat="44.3163639" lon="-74.0218382"><ele>728.0</ele></trkpt>
    <trkpt lat="44.3161725" lon="-74.0209827"><ele>728.0</ele></trkpt>
    <trkpt lat="44.3161653" lon="-74.0204578"><ele>715.0</ele></trkpt>
    <trkpt lat="44.3162075" lon="-74.0201293"><ele>715.0</ele></trkpt>
    <trkpt lat="44.316248" lon="-74.0187363"><ele>702.0</ele></trkpt>
    <trkpt lat="44.3160802" lon="-74.0178594"><ele>702.0</ele></trkpt>
    <trkpt lat="44.316002" lon="-74.0171468"><ele>702.0</ele></trkpt>
    <trkpt lat="44.3159484" lon="-74.0166364"><ele>678.0</ele></trkpt>
    <trkpt lat="44.3156437" lon="-74.0156627"><ele>678.0</ele></trkpt>
    <trkpt lat="44.3156107" lon="-74.0148563"><ele>678.0</ele></trkpt>
    <trkpt lat="44.315574" lon="-74.014418"><ele>668.0</ele></trkpt>
    <trkpt lat="44.315538" lon="-74.01424"><ele>668.0</ele></trkpt>
    <trkpt lat="44.3152667" lon="-74.0134777"><ele>668.0</ele></trkpt>
    <trkpt lat="44.3151857" lon="-74.0130186"><ele>668.0</ele></trkpt>
    <trkpt lat="44.314965" lon="-74.012588"><ele>668.0</ele></trkpt>
    <trkpt lat="44.314423" lon="-74.011815"><ele>635.0</ele></trkpt>
    <trkpt lat="44.3139852" lon="-74.0110317"><ele>635.0</ele></trkpt>
    <trkpt lat="44.3137661" lon="-74.0107514"><ele>635.0</ele></trkpt>
    <trkpt lat="44.3137355" lon="-74.010455"><ele>635.0</ele></trkpt>
    <trkpt lat="44.3136054" lon="-74.0099779"><ele>625.0</ele></trkpt>
    <trkpt lat="44.3134608" lon="-74.0097588"><ele>625.0</ele></trkpt>
    <trkpt lat="44.3132104" lon="-74.0095931"><ele>625.0</ele></trkpt>
    <trkpt lat="44.3129852" lon="-74.0092176"><ele>625.0</ele></trkpt>
    <trkpt lat="44.3126981" lon="-74.0084118"><ele>625.0</ele></trkpt>
    <trkpt lat="44.3126452" lon="-74.0080847"><ele>606.0</ele></trkpt>
    <trkpt lat="44.3125698" lon="-74.0074557"><ele>606.0</ele></trkpt>
    <trkpt lat="44.312553" lon="-74.007211"><ele>606.0</ele></trkpt>
    <trkpt lat="44.3125422" lon="-74.0071328"><ele>606.0</ele></trkpt>
    <trkpt lat="44.3125303" lon="-74.0070474"><ele>606.0</ele></trkpt>
  </trkseg></trk>
</gpx>