<?xml version="1.0" encoding="UTF-8"?>
<gpx version="1.1" xmlns="http://www.topografix.com/GPX/1/1" creator="GlideCast">
  <trk><name>Lenzerheide</name><trkseg>
    <trkpt lat="46.753282" lon="9.5588438"><ele>1563.0</ele></trkpt>
    <trkpt lat="46.7534483" lon="9.5593514"><ele>1563.0</ele></trkpt>
    <trkpt lat="46.7534734" lon="9.5595362"><ele>1563.0</ele></trkpt>
    <trkpt lat="46.7534023" lon="9.5596816"><ele>1563.0</ele></trkpt>
    <trkpt lat="46.7533392" lon="9.5598671"><ele>1563.0</ele></trkpt>
    <trkpt lat="46.7532783" lon="9.5602361"><ele>1563.0</ele></trkpt>
    <trkpt lat="46.7526614" lon="9.5618239"><ele>1559.0</ele></trkpt>
    <trkpt lat="46.7526217" lon="9.5619456"><ele>1559.0</ele></trkpt>
    <trkpt lat="46.7525412" lon="9.5621694"><ele>1559.0</ele></trkpt>
    <trkpt lat="46.7525201" lon="9.5622889"><ele>1559.0</ele></trkpt>
    <trkpt lat="46.7525288" lon="9.5625853"><ele>1560.0</ele></trkpt>
    <trkpt lat="46.7525" lon="9.5627437"><ele>1560.0</ele></trkpt>
    <trkpt lat="46.7524507" lon="9.5628942"><ele>1560.0</ele></trkpt>
    <trkpt lat="46.7524243" lon="9.5630127"><ele>1560.0</ele></trkpt>
    <trkpt lat="46.7524474" lon="9.5631502"><ele>1560.0</ele></trkpt>
    <trkpt lat="46.752582" lon="9.5633234"><ele>1560.0</ele></trkpt>
    <trkpt lat="46.7526748" lon="9.56341"><ele>1560.0</ele></trkpt>
    <trkpt lat="46.7527163" lon="9.5634761"><ele>1560.0</ele></trkpt>
    <trkpt lat="46.7529129" lon="9.5635788"><ele>1560.0</ele></trkpt>
    <trkpt lat="46.7533449" lon="9.5636419"><ele>1560.0</ele></trkpt>
    <trkpt lat="46.753586" lon="9.5637315"><ele>1560.0</ele></trkpt>
    <trkpt lat="46.7537201" lon="9.5639439"><ele>1560.0</ele></trkpt>
    <trkpt lat="46.753907" lon="9.5640773"><ele>1560.0</ele></trkpt>
    <trkpt lat="46.7540317" lon="9.5641663"><ele>1560.0</ele></trkpt>
    <trkpt lat="46.7541789" lon="9.564196"><ele>1554.0</ele></trkpt>
    <trkpt lat="46.7542295" lon="9.564153"><ele>1554.0</ele></trkpt>
    <trkpt lat="46.7543114" lon="9.5639804"><ele>1554.0</ele></trkpt>
    <trkpt lat="46.7543887" lon="9.5639174"><ele>1554.0</ele></trkpt>
    <trkpt lat="46.7544978" lon="9.5639174"><ele>1554.0</ele></trkpt>
    <trkpt lat="46.7546547" lon="9.563841"><ele>1554.0</ele></trkpt>
    <trkpt lat="46.7547161" lon="9.5636983"><ele>1554.0</ele></trkpt>
    <trkpt lat="46.7548435" lon="9.5634461"><ele>1554.0</ele></trkpt>
    <trkpt lat="46.7550004" lon="9.5631772"><ele>1554.0</ele></trkpt>
    <trkpt lat="46.7550731" lon="9.5631153"><ele>1554.0</ele></trkpt>
    <trkpt lat="46.7551609" lon="9.5630973"><ele>1554.0</ele></trkpt>
    <trkpt lat="46.7552137" lon="9.5631086"><ele>1554.0</ele></trkpt>
    <trkpt lat="46.7552664" lon="9.5631374"><ele>1554.0</ele></trkpt>
    <trkpt lat="46.7553687" lon="9.5633166"><ele>1554.0</ele></trkpt>
    <trkpt lat="46.7554193" lon="9.5635443"><ele>1554.0</ele></trkpt>
    <trkpt lat="46.7554733" lon="9.563685"><ele>1554.0</ele></trkpt>
    <trkpt lat="46.7555197" lon="9.563713"><ele>1554.0</ele></trkpt>
    <trkpt lat="46.7555594" lon="9.5637138"><ele>1554.0</ele></trkpt>
    <trkpt lat="46.75571" lon="9.56365"><ele>1554.0</ele></trkpt>
    <trkpt lat="46.7558399" lon="9.5635688"><ele>1554.0</ele></trkpt>
    <trkpt lat="46.7559631" lon="9.5634896"><ele>1554.0</ele></trkpt>
    <trkpt lat="46.7560478" lon="9.5634083"><ele>1554.0</ele></trkpt>
    <trkpt lat="46.7563879" lon="9.5638067"><ele>1529.0</ele></trkpt>
    <trkpt lat="46.7565367" lon="9.5642088"><ele>1529.0</ele></trkpt>
    <trkpt lat="46.7566238" lon="9.5645777"><ele>1529.0</ele></trkpt>
    <trkpt lat="46.7565973" lon="9.5648819"><ele>1526.0</ele></trkpt>
    <trkpt lat="46.75648" lon="9.5651387"><ele>1526.0</ele></trkpt>
    <trkpt lat="46.7564517" lon="9.5653203"><ele>1526.0</ele></trkpt>
    <trkpt lat="46.7564883" lon="9.5654071"><ele>1526.0</ele></trkpt>
    <trkpt lat="46.7565516" lon="9.5654345"><ele>1526.0</ele></trkpt>
    <trkpt lat="46.7566214" lon="9.565424"><ele>1526.0</ele></trkpt>
    <trkpt lat="46.756813" lon="9.5653367"><ele>1526.0</ele></trkpt>
    <trkpt lat="46.7579069" lon="9.5646974"><ele>1526.0</ele></trkpt>
    <trkpt lat="46.7581107" lon="9.5641981"><ele>1529.0</ele></trkpt>
    <trkpt lat="46.7583023" lon="9.5639564"><ele>1529.0</ele></trkpt>
    <trkpt lat="46.7584762" lon="9.5637244"><ele>1501.0</ele></trkpt>
    <trkpt lat="46.7589947" lon="9.563234"><ele>1501.0</ele></trkpt>
    <trkpt lat="46.7590402" lon="9.5629714"><ele>1501.0</ele></trkpt>
    <trkpt lat="46.75911" lon="9.5629"><ele>1501.0</ele></trkpt>
    <trkpt lat="46.7591961" lon="9.5628249"><ele>1501.0</ele></trkpt>
    <trkpt lat="46.7594579" lon="9.5626469"><ele>1501.0</ele></trkpt>
    <trkpt lat="46.7595294" lon="9.5626136"><ele>1501.0</ele></trkpt>
    <trkpt lat="46.7600878" lon="9.5622097"><ele>1499.0</ele></trkpt>
    <trkpt lat="46.7603205" lon="9.5619834"><ele>1499.0</ele></trkpt>
    <trkpt lat="46.7604795" lon="9.5618139"><ele>1498.0</ele></trkpt>
    <trkpt lat="46.7605829" lon="9.5616463"><ele>1498.0</ele></trkpt>
    <trkpt lat="46.760632" lon="9.561338"><ele>1498.0</ele></trkpt>
    <trkpt lat="46.7605944" lon="9.5609785"><ele>1498.0</ele></trkpt>
    <trkpt lat="46.7605286" lon="9.5606701"><ele>1498.0</ele></trkpt>
    <trkpt lat="46.7605027" lon="9.5605247"><ele>1498.0</ele></trkpt>
    <trkpt lat="46.7605069" lon="9.5604261"><ele>1498.0</ele></trkpt>
    <trkpt lat="46.7605244" lon="9.5602938"><ele>1491.0</ele></trkpt>
    <trkpt lat="46.7605646" lon="9.5602087"><ele>1491.0</ele></trkpt>
    <trkpt lat="46.7606097" lon="9.5601225"><ele>1491.0</ele></trkpt>
    <trkpt lat="46.7606581" lon="9.5600724"><ele>1491.0</ele></trkpt>
    <trkpt lat="46.7607071" lon="9.5600494"><ele>1491.0</ele></trkpt>
    <trkpt lat="46.7606581" lon="9.5600724"><ele>1491.0</ele></trkpt>
    <trkpt lat="46.7606097" lon="9.5601225"><ele>1491.0</ele></trkpt>
    <trkpt lat="46.7605646" lon="9.5602087"><ele>1491.0</ele></trkpt>
    <trkpt lat="46.7605244" lon="9.5602938"><ele>1491.0</ele></trkpt>
    <trkpt lat="46.7605069" lon="9.5604261"><ele>1498.0</ele></trkpt>
    <trkpt lat="46.7605027" lon="9.5605247"><ele>1498.0</ele></trkpt>
    <trkpt lat="46.7605286" lon="9.5606701"><ele>1498.0</ele></trkpt>
    <trkpt lat="46.7605944" lon="9.5609785"><ele>1498.0</ele></trkpt>
    <trkpt lat="46.760632" lon="9.561338"><ele>1498.0</ele></trkpt>
    <trkpt lat="46.7605829" lon="9.5616463"><ele>1498.0</ele></trkpt>
    <trkpt lat="46.7604795" lon="9.5618139"><ele>1498.0</ele></trkpt>
    <trkpt lat="46.7603205" lon="9.5619834"><ele>1499.0</ele></trkpt>
    <trkpt lat="46.7600878" lon="9.5622097"><ele>1499.0</ele></trkpt>
    <trkpt lat="46.7595294" lon="9.5626136"><ele>1501.0</ele></trkpt>
    <trkpt lat="46.7594579" lon="9.5626469"><ele>1501.0</ele></trkpt>
    <trkpt lat="46.7591961" lon="9.5628249"><ele>1501.0</ele></trkpt>
    <trkpt lat="46.75911" lon="9.5629"><ele>1501.0</ele></trkpt>
    <trkpt lat="46.7590402" lon="9.5629714"><ele>1501.0</ele></trkpt>
    <trkpt lat="46.7589947" lon="9.563234"><ele>1501.0</ele></trkpt>
    <trkpt lat="46.7584762" lon="9.5637244"><ele>1501.0</ele></trkpt>
    <trkpt lat="46.7583023" lon="9.5639564"><ele>1529.0</ele></trkpt>
    <trkpt lat="46.7581107" lon="9.5641981"><ele>1529.0</ele></trkpt>
    <trkpt lat="46.7579069" lon="9.5646974"><ele>1526.0</ele></trkpt>
    <trkpt lat="46.756813" lon="9.5653367"><ele>1526.0</ele></trkpt>
    <trkpt lat="46.7566214" lon="9.565424"><ele>1526.0</ele></trkpt>
    <trkpt lat="46.7565516" lon="9.5654345"><ele>1526.0</ele></trkpt>
    <trkpt lat="46.7564883" lon="9.5654071"><ele>1526.0</ele></trkpt>
    <trkpt lat="46.7564517" lon="9.5653203"><ele>1526.0</ele></trkpt>
    <trkpt lat="46.75648" lon="9.5651387"><ele>1526.0</ele></trkpt>
    <trkpt lat="46.7565973" lon="9.5648819"><ele>1526.0</ele></trkpt>
    <trkpt lat="46.7566238" lon="9.5645777"><ele>1529.0</ele></trkpt>
    <trkpt lat="46.7565367" lon="9.5642088"><ele>1529.0</ele></trkpt>
    <trkpt lat="46.7563879" lon="9.5638067"><ele>1529.0</ele></trkpt>
    <trkpt lat="46.7560478" lon="9.5634083"><ele>1554.0</ele></trkpt>
    <trkpt lat="46.7559631" lon="9.5634896"><ele>1554.0</ele></trkpt>
    <trkpt lat="46.7558399" lon="9.5635688"><ele>1554.0</ele></trkpt>
    <trkpt lat="46.75571" lon="9.56365"><ele>1554.0</ele></trkpt>
    <trkpt lat="46.7555594" lon="9.5637138"><ele>1554.0</ele></trkpt>
    <trkpt lat="46.7555197" lon="9.563713"><ele>1554.0</ele></trkpt>
    <trkpt lat="46.7554733" lon="9.563685"><ele>1554.0</ele></trkpt>
    <trkpt lat="46.7554193" lon="9.5635443"><ele>1554.0</ele></trkpt>
    <trkpt lat="46.7553687" lon="9.5633166"><ele>1554.0</ele></trkpt>
    <trkpt lat="46.7552664" lon="9.5631374"><ele>1554.0</ele></trkpt>
    <trkpt lat="46.7552137" lon="9.5631086"><ele>1554.0</ele></trkpt>
    <trkpt lat="46.7551609" lon="9.5630973"><ele>1554.0</ele></trkpt>
    <trkpt lat="46.7550731" lon="9.5631153"><ele>1554.0</ele></trkpt>
    <trkpt lat="46.7550004" lon="9.5631772"><ele>1554.0</ele></trkpt>
    <trkpt lat="46.7548435" lon="9.5634461"><ele>1554.0</ele></trkpt>
    <trkpt lat="46.7547161" lon="9.5636983"><ele>1554.0</ele></trkpt>
    <trkpt lat="46.7546547" lon="9.563841"><ele>1554.0</ele></trkpt>
    <trkpt lat="46.7544978" lon="9.5639174"><ele>1554.0</ele></trkpt>
    <trkpt lat="46.7543887" lon="9.5639174"><ele>1554.0</ele></trkpt>
    <trkpt lat="46.7543114" lon="9.5639804"><ele>1554.0</ele></trkpt>
    <trkpt lat="46.7542295" lon="9.564153"><ele>1554.0</ele></trkpt>
    <trkpt lat="46.7541789" lon="9.564196"><ele>1554.0</ele></trkpt>
    <trkpt lat="46.7540317" lon="9.5641663"><ele>1560.0</ele></trkpt>
    <trkpt lat="46.753907" lon="9.5640773"><ele>1560.0</ele></trkpt>
    <trkpt lat="46.7537201" lon="9.5639439"><ele>1560.0</ele></trkpt>
    <trkpt lat="46.753586" lon="9.5637315"><ele>1560.0</ele></trkpt>
    <trkpt lat="46.7533449" lon="9.5636419"><ele>1560.0</ele></trkpt>
    <trkpt lat="46.7529129" lon="9.5635788"><ele>1560.0</ele></trkpt>
    <trkpt lat="46.7527163" lon="9.5634761"><ele>1560.0</ele></trkpt>
    <trkpt lat="46.7526748" lon="9.56341"><ele>1560.0</ele></trkpt>
    <trkpt lat="46.752582" lon="9.5633234"><ele>1560.0</ele></trkpt>
    <trkpt lat="46.7524474" lon="9.5631502"><ele>1560.0</ele></trkpt>
    <trkpt lat="46.7524243" lon="9.5630127"><ele>1560.0</ele></trkpt>
    <trkpt lat="46.7524507" lon="9.5628942"><ele>1560.0</ele></trkpt>
    <trkpt lat="46.7525" lon="9.5627437"><ele>1560.0</ele></trkpt>
    <trkpt lat="46.7525288" lon="9.5625853"><ele>1560.0</ele></trkpt>
    <trkpt lat="46.7525201" lon="9.5622889"><ele>1559.0</ele></trkpt>
    <trkpt lat="46.7525412" lon="9.5621694"><ele>1559.0</ele></trkpt>
    <trkpt lat="46.7526217" lon="9.5619456"><ele>1559.0</ele></trkpt>
    <trkpt lat="46.7526614" lon="9.5618239"><ele>1559.0</ele></trkpt>
    <trkpt lat="46.7532783" lon="9.5602361"><ele>1563.0</ele></trkpt>
    <trkpt lat="46.7533392" lon="9.5598671"><ele>1563.0</ele></trkpt>
    <trkpt lat="46.7534023" lon="9.5596816"><ele>1563.0</ele></trkpt>
    <trkpt lat="46.7534734" lon="9.5595362"><ele>1563.0</ele></trkpt>
    <trkpt lat="46.7534483" lon="9.5593514"><ele>1563.0</ele></trkpt>
    <trkpt lat="46.753282" lon="9.5588438"><ele>1563.0</ele></trkpt>
    <trkpt lat="46.7532959" lon="9.5587199"><ele>1563.0</ele></trkpt>
    <trkpt lat="46.75328" lon="9.5586111"><ele>1563.0</ele></trkpt>
    <trkpt lat="46.7532475" lon="9.5589008"><ele>1563.0</ele></trkpt>
    <trkpt lat="46.7532087" lon="9.5589814"><ele>1563.0</ele></trkpt>
    <trkpt lat="46.7531063" lon="9.5590405"><ele>1563.0</ele></trkpt>
    <trkpt lat="46.7529168" lon="9.5590127"><ele>1563.0</ele></trkpt>
    <trkpt lat="46.7528234" lon="9.5589666"><ele>1563.0</ele></trkpt>
    <trkpt lat="46.7527498" lon="9.5589515"><ele>1563.0</ele></trkpt>
    <trkpt lat="46.7526853" lon="9.5589666"><ele>1563.0</ele></trkpt>
    <trkpt lat="46.7526183" lon="9.5590319"><ele>1563.0</ele></trkpt>
    <trkpt lat="46.7524853" lon="9.5591301"><ele>1563.0</ele></trkpt>
    <trkpt lat="46.752343" lon="9.5592597"><ele>1563.0</ele></trkpt>
    <trkpt lat="46.7522447" lon="9.5594056"><ele>1563.0</ele></trkpt>
    <trkpt lat="46.7521155" lon="9.5596555"><ele>1563.0</ele></trkpt>
    <trkpt lat="46.7520419" lon="9.5597899"><ele>1550.0</ele></trkpt>
    <trkpt lat="46.7519541" lon="9.5598546"><ele>1550.0</ele></trkpt>
    <trkpt lat="46.7515669" lon="9.5599527"><ele>1550.0</ele></trkpt>
    <trkpt lat="46.7511759" lon="9.5600601"><ele>1550.0</ele></trkpt>
    <trkpt lat="46.7509794" lon="9.5601258"><ele>1550.0</ele></trkpt>
    <trkpt lat="46.7507968" lon="9.5603359"><ele>1550.0</ele></trkpt>
    <trkpt lat="46.75061" lon="9.5605778"><ele>1564.0</ele></trkpt>
    <trkpt lat="46.7505811" lon="9.5606478"><ele>1564.0</ele></trkpt>
    <trkpt lat="46.7505638" lon="9.5609684"><ele>1564.0</ele></trkpt>
    <trkpt lat="46.7505435" lon="9.5613308"><ele>1564.0</ele></trkpt>
    <trkpt lat="46.7504973" lon="9.5616168"><ele>1564.0</ele></trkpt>
    <trkpt lat="46.7504233" lon="9.5617718"><ele>1564.0</ele></trkpt>
    <trkpt lat="46.7502742" lon="9.5619792"><ele>1564.0</ele></trkpt>
    <trkpt lat="46.7501415" lon="9.5621376"><ele>1564.0</ele></trkpt>
    <trkpt lat="46.7500662" lon="9.5622789"><ele>1564.0</ele></trkpt>
    <trkpt lat="46.750053" lon="9.5624268"><ele>1564.0</ele></trkpt>
    <trkpt lat="46.750076" lon="9.5625257"><ele>1569.0</ele></trkpt>
    <trkpt lat="46.7501674" lon="9.5626563"><ele>1569.0</ele></trkpt>
    <trkpt lat="46.750606" lon="9.5630488"><ele>1569.0</ele></trkpt>
    <trkpt lat="46.7510446" lon="9.5634338"><ele>1569.0</ele></trkpt>
    <trkpt lat="46.7511025" lon="9.5634752"><ele>1569.0</ele></trkpt>
    <trkpt lat="46.7511843" lon="9.5634771"><ele>1569.0</ele></trkpt>
    <trkpt lat="46.7512623" lon="9.5634037"><ele>1569.0</ele></trkpt>
    <trkpt lat="46.7513764" lon="9.5632183"><ele>1569.0</ele></trkpt>
    <trkpt lat="46.7513846" lon="9.562953"><ele>1569.0</ele></trkpt>
    <trkpt lat="46.7513934" lon="9.5621844"><ele>1564.0</ele></trkpt>
    <trkpt lat="46.7513759" lon="9.5615954"><ele>1564.0</ele></trkpt>
    <trkpt lat="46.7513713" lon="9.5607485"><ele>1564.0</ele></trkpt>
    <trkpt lat="46.7513787" lon="9.5605394"><ele>1564.0</ele></trkpt>
    <trkpt lat="46.7514041" lon="9.5603604"><ele>1550.0</ele></trkpt>
    <trkpt lat="46.7514663" lon="9.560237"><ele>1550.0</ele></trkpt>
    <trkpt lat="46.7515658" lon="9.5601546"><ele>1550.0</ele></trkpt>
    <trkpt lat="46.7519337" lon="9.5601551"><ele>1550.0</ele></trkpt>
    <trkpt lat="46.7520647" lon="9.5602175"><ele>1550.0</ele></trkpt>
    <trkpt lat="46.7521519" lon="9.5603346"><ele>1563.0</ele></trkpt>
    <trkpt lat="46.75218" lon="9.5604757"><ele>1559.0</ele></trkpt>
    <trkpt lat="46.7521514" lon="9.5605787"><ele>1559.0</ele></trkpt>
    <trkpt lat="46.7521124" lon="9.5606703"><ele>1559.0</ele></trkpt>
    <trkpt lat="46.7520606" lon="9.5607577"><ele>1564.0</ele></trkpt>
    <trkpt lat="46.7519443" lon="9.5609479"><ele>1564.0</ele></trkpt>
    <trkpt lat="46.7516938" lon="9.5612549"><ele>1564.0</ele></trkpt>
    <trkpt lat="46.751545" lon="9.5615911"><ele>1564.0</ele></trkpt>
    <trkpt lat="46.7515293" lon="9.5617186"><ele>1564.0</ele></trkpt>
    <trkpt lat="46.7515389" lon="9.561836"><ele>1564.0</ele></trkpt>
    <trkpt lat="46.7515769" lon="9.561961"><ele>1564.0</ele></trkpt>
    <trkpt lat="46.7516855" lon="9.562051"><ele>1564.0</ele></trkpt>
    <trkpt lat="46.7518224" lon="9.5620733"><ele>1564.0</ele></trkpt>
    <trkpt lat="46.7519421" lon="9.56202"><ele>1564.0</ele></trkpt>
    <trkpt lat="46.7521199" lon="9.5618575"><ele>1559.0</ele></trkpt>
    <trkpt lat="46.7522696" lon="9.5616573"><ele>1559.0</ele></trkpt>
    <trkpt lat="46.7523319" lon="9.5615631"><ele>1559.0</ele></trkpt>
    <trkpt lat="46.7524368" lon="9.5615122"><ele>1559.0</ele></trkpt>
    <trkpt lat="46.7525373" lon="9.5615029"><ele>1559.0</ele></trkpt>
    <trkpt lat="46.7526148" lon="9.5615155"><ele>1559.0</ele></trkpt>
    <trkpt lat="46.7526568" lon="9.5615953"><ele>1559.0</ele></trkpt>
    <trkpt lat="46.7526682" lon="9.5616823"><ele>1559.0</ele></trkpt>
    <trkpt lat="46.7526622" lon="9.5617823"><ele>1559.0</ele></trkpt>
    <trkpt lat="46.7526614" lon="9.5618239"><ele>1559.0</ele></trkpt>
    <trkpt lat="46.7526622" lon="9.5617823"><ele>1559.0</ele></trkpt>
    <trkpt lat="46.7526682" lon="9.5616823"><ele>1559.0</ele></trkpt>
    <trkpt lat="46.7526568" lon="9.5615953"><ele>1559.0</ele></trkpt>
    <trkpt lat="46.7526148" lon="9.5615155"><ele>1559.0</ele></trkpt>
    <trkpt lat="46.7525373" lon="9.5615029"><ele>1559.0</ele></trkpt>
    <trkpt lat="46.7524368" lon="9.5615122"><ele>1559.0</ele></trkpt>
    <trkpt lat="46.7523319" lon="9.5615631"><ele>1559.0</ele></trkpt>
    <trkpt lat="46.7522696" lon="9.5616573"><ele>1559.0</ele></trkpt>
    <trkpt lat="46.7521199" lon="9.5618575"><ele>1559.0</ele></trkpt>
    <trkpt lat="46.7519421" lon="9.56202"><ele>1564.0</ele></trkpt>
    <trkpt lat="46.7518224" lon="9.5620733"><ele>1564.0</ele></trkpt>
    <trkpt lat="46.7516855" lon="9.562051"><ele>1564.0</ele></trkpt>
    <trkpt lat="46.7515769" lon="9.561961"><ele>1564.0</ele></trkpt>
    <trkpt lat="46.7515389" lon="9.561836"><ele>1564.0</ele></trkpt>
    <trkpt lat="46.7515293" lon="9.5617186"><ele>1564.0</ele></trkpt>
    <trkpt lat="46.751545" lon="9.5615911"><ele>1564.0</ele></trkpt>
    <trkpt lat="46.7516938" lon="9.5612549"><ele>1564.0</ele></trkpt>
    <trkpt lat="46.7519443" lon="9.5609479"><ele>1564.0</ele></trkpt>
    <trkpt lat="46.7520606" lon="9.5607577"><ele>1564.0</ele></trkpt>
    <trkpt lat="46.7521124" lon="9.5606703"><ele>1559.0</ele></trkpt>
    <trkpt lat="46.7521514" lon="9.5605787"><ele>1559.0</ele></trkpt>
    <trkpt lat="46.75218" lon="9.5604757"><ele>1559.0</ele></trkpt>
    <trkpt lat="46.7521519" lon="9.5603346"><ele>1563.0</ele></trkpt>
    <trkpt lat="46.7520647" lon="9.5602175"><ele>1550.0</ele></trkpt>
    <trkpt lat="46.7519337" lon="9.5601551"><ele>1550.0</ele></trkpt>
    <trkpt lat="46.7515658" lon="9.5601546"><ele>1550.0</ele></trkpt>
    <trkpt lat="46.7514663" lon="9.560237"><ele>1550.0</ele></trkpt>
    <trkpt lat="46.7514041" lon="9.5603604"><ele>1550.0</ele></trkpt>
    <trkpt lat="46.7513787" lon="9.5605394"><ele>1564.0</ele></trkpt>
    <trkpt lat="46.7513713" lon="9.5607485"><ele>1564.0</ele></trkpt>
    <trkpt lat="46.7513759" lon="9.5615954"><ele>1564.0</ele></trkpt>
    <trkpt lat="46.7513934" lon="9.5621844"><ele>1564.0</ele></trkpt>
    <trkpt lat="46.7513846" lon="9.562953"><ele>1569.0</ele></trkpt>
    <trkpt lat="46.7513764" lon="9.5632183"><ele>1569.0</ele></trkpt>
    <trkpt lat="46.7512623" lon="9.5634037"><ele>1569.0</ele></trkpt>
    <trkpt lat="46.7511843" lon="9.5634771"><ele>1569.0</ele></trkpt>
    <trkpt lat="46.7511025" lon="9.5634752"><ele>1569.0</ele></trkpt>
    <trkpt lat="46.7510446" lon="9.5634338"><ele>1569.0</ele></trkpt>
    <trkpt lat="46.750606" lon="9.5630488"><ele>1569.0</ele></trkpt>
    <trkpt lat="46.7501674" lon="9.5626563"><ele>1569.0</ele></trkpt>
    <trkpt lat="46.750076" lon="9.5625257"><ele>1569.0</ele></trkpt>
    <trkpt lat="46.750053" lon="9.5624268"><ele>1564.0</ele></trkpt>
    <trkpt lat="46.7500662" lon="9.5622789"><ele>1564.0</ele></trkpt>
    <trkpt lat="46.7501415" lon="9.5621376"><ele>1564.0</ele></trkpt>
    <trkpt lat="46.7502742" lon="9.5619792"><ele>1564.0</ele></trkpt>
    <trkpt lat="46.7504233" lon="9.5617718"><ele>1564.0</ele></trkpt>
    <trkpt lat="46.7504973" lon="9.5616168"><ele>1564.0</ele></trkpt>
    <trkpt lat="46.7505435" lon="9.5613308"><ele>1564.0</ele></trkpt>
    <trkpt lat="46.7505638" lon="9.5609684"><ele>1564.0</ele></trkpt>
    <trkpt lat="46.7505811" lon="9.5606478"><ele>1564.0</ele></trkpt>
    <trkpt lat="46.75061" lon="9.5605778"><ele>1564.0</ele></trkpt>
    <trkpt lat="46.7507968" lon="9.5603359"><ele>1550.0</ele></trkpt>
    <trkpt lat="46.7509794" lon="9.5601258"><ele>1550.0</ele></trkpt>
    <trkpt lat="46.7511759" lon="9.5600601"><ele>1550.0</ele></trkpt>
    <trkpt lat="46.7515669" lon="9.5599527"><ele>1550.0</ele></trkpt>
    <trkpt lat="46.7519541" lon="9.5598546"><ele>1550.0</ele></trkpt>
    <trkpt lat="46.7520419" lon="9.5597899"><ele>1550.0</ele></trkpt>
    <trkpt lat="46.7521155" lon="9.5596555"><ele>1563.0</ele></trkpt>
    <trkpt lat="46.7522447" lon="9.5594056"><ele>1563.0</ele></trkpt>
    <trkpt lat="46.752343" lon="9.5592597"><ele>1563.0</ele></trkpt>
    <trkpt lat="46.7524853" lon="9.5591301"><ele>1563.0</ele></trkpt>
    <trkpt lat="46.7526183" lon="9.5590319"><ele>1563.0</ele></trkpt>
    <trkpt lat="46.7526853" lon="9.5589666"><ele>1563.0</ele></trkpt>
    <trkpt lat="46.7527498" lon="9.5589515"><ele>1563.0</ele></trkpt>
    <trkpt lat="46.7528234" lon="9.5589666"><ele>1563.0</ele></trkpt>
    <trkpt lat="46.7529168" lon="9.5590127"><ele>1563.0</ele></trkpt>
    <trkpt lat="46.7531063" lon="9.5590405"><ele>1563.0</ele></trkpt>
    <trkpt lat="46.7532087" lon="9.5589814"><ele>1563.0</ele></trkpt>
    <trkpt lat="46.7532475" lon="9.5589008"><ele>1563.0</ele></trkpt>
    <trkpt lat="46.75328" lon="9.5586111"><ele>1563.0</ele></trkpt>
    <trkpt lat="46.753211" lon="9.5584559"><ele>1563.0</ele></trkpt>
    <trkpt lat="46.7531117" lon="9.5583051"><ele>1548.0</ele></trkpt>
    <trkpt lat="46.7529866" lon="9.5581751"><ele>1548.0</ele></trkpt>
    <trkpt lat="46.7529035" lon="9.5580238"><ele>1548.0</ele></trkpt>
    <trkpt lat="46.7527801" lon="9.5578277"><ele>1548.0</ele></trkpt>
    <trkpt lat="46.7526375" lon="9.5576516"><ele>1548.0</ele></trkpt>
    <trkpt lat="46.7524127" lon="9.5574875"><ele>1548.0</ele></trkpt>
    <trkpt lat="46.7516888" lon="9.5574275"><ele>1542.0</ele></trkpt>
    <trkpt lat="46.7514886" lon="9.5574075"><ele>1542.0</ele></trkpt>
    <trkpt lat="46.751368" lon="9.5574435"><ele>1542.0</ele></trkpt>
    <trkpt lat="46.7512234" lon="9.5576033"><ele>1542.0</ele></trkpt>
    <trkpt lat="46.7511497" lon="9.5577592"><ele>1542.0</ele></trkpt>
    <trkpt lat="46.7511588" lon="9.5579639"><ele>1542.0</ele></trkpt>
    <trkpt lat="46.7511749" lon="9.5583066"><ele>1542.0</ele></trkpt>
    <trkpt lat="46.7511376" lon="9.55846"><ele>1550.0</ele></trkpt>
    <trkpt lat="46.751091" lon="9.5585345"><ele>1550.0</ele></trkpt>
    <trkpt lat="46.7509856" lon="9.5585909"><ele>1550.0</ele></trkpt>
    <trkpt lat="46.7504459" lon="9.5588629"><ele>1550.0</ele></trkpt>
    <trkpt lat="46.7502191" lon="9.5589834"><ele>1550.0</ele></trkpt>
    <trkpt lat="46.7499888" lon="9.5591682"><ele>1530.0</ele></trkpt>
    <trkpt lat="46.7499168" lon="9.5592682"><ele>1530.0</ele></trkpt>
    <trkpt lat="46.7496619" lon="9.5598711"><ele>1530.0</ele></trkpt>
    <trkpt lat="46.7494175" lon="9.5602996"><ele>1530.0</ele></trkpt>
    <trkpt lat="46.7488761" lon="9.5611899"><ele>1536.0</ele></trkpt>
    <trkpt lat="46.7487425" lon="9.5614541"><ele>1536.0</ele></trkpt>
    <trkpt lat="46.7486458" lon="9.561567"><ele>1536.0</ele></trkpt>
    <trkpt lat="46.7485667" lon="9.5615644"><ele>1536.0</ele></trkpt>
    <trkpt lat="46.7484981" lon="9.561508"><ele>1536.0</ele></trkpt>
    <trkpt lat="46.7484436" lon="9.5613797"><ele>1536.0</ele></trkpt>
    <trkpt lat="46.7484014" lon="9.5611437"><ele>1536.0</ele></trkpt>
    <trkpt lat="46.7483645" lon="9.5609153"><ele>1536.0</ele></trkpt>
    <trkpt lat="46.7482186" lon="9.5606614"><ele>1536.0</ele></trkpt>
    <trkpt lat="46.7480935" lon="9.5604978"><ele>1536.0</ele></trkpt>
    <trkpt lat="46.7482186" lon="9.5606614"><ele>1536.0</ele></trkpt>
    <trkpt lat="46.7483645" lon="9.5609153"><ele>1536.0</ele></trkpt>
    <trkpt lat="46.7484014" lon="9.5611437"><ele>1536.0</ele></trkpt>
    <trkpt lat="46.7484436" lon="9.5613797"><ele>1536.0</ele></trkpt>
    <trkpt lat="46.7484981" lon="9.561508"><ele>1536.0</ele></trkpt>
    <trkpt lat="46.7485667" lon="9.5615644"><ele>1536.0</ele></trkpt>
    <trkpt lat="46.7486458" lon="9.561567"><ele>1536.0</ele></trkpt>
    <trkpt lat="46.7487425" lon="9.5614541"><ele>1536.0</ele></trkpt>
    <trkpt lat="46.7488761" lon="9.5611899"><ele>1536.0</ele></trkpt>
    <trkpt lat="46.7494175" lon="9.5602996"><ele>1530.0</ele></trkpt>
    <trkpt lat="46.7496619" lon="9.5598711"><ele>1530.0</ele></trkpt>
    <trkpt lat="46.7499168" lon="9.5592682"><ele>1530.0</ele></trkpt>
    <trkpt lat="46.7499888" lon="9.5591682"><ele>1530.0</ele></trkpt>
    <trkpt lat="46.7502191" lon="9.5589834"><ele>1550.0</ele></trkpt>
    <trkpt lat="46.7504459" lon="9.5588629"><ele>1550.0</ele></trkpt>
    <trkpt lat="46.7509856" lon="9.5585909"><ele>1550.0</ele></trkpt>
    <trkpt lat="46.751091" lon="9.5585345"><ele>1550.0</ele></trkpt>
    <trkpt lat="46.7511376" lon="9.55846"><ele>1550.0</ele></trkpt>
    <trkpt lat="46.7511749" lon="9.5583066"><ele>1542.0</ele></trkpt>
    <trkpt lat="46.7511478" lon="9.5585289"><ele>1550.0</ele></trkpt>
    <trkpt lat="46.7511037" lon="9.5586489"><ele>1550.0</ele></trkpt>
    <trkpt lat="46.7509568" lon="9.5588316"><ele>1550.0</ele></trkpt>
    <trkpt lat="46.7502907" lon="9.559207"><ele>1550.0</ele></trkpt>
    <trkpt lat="46.7501536" lon="9.5593178"><ele>1550.0</ele></trkpt>
    <trkpt lat="46.7500362" lon="9.5595395"><ele>1550.0</ele></trkpt>
    <trkpt lat="46.749969" lon="9.5599392"><ele>1530.0</ele></trkpt>
    <trkpt lat="46.7499777" lon="9.5602101"><ele>1530.0</ele></trkpt>
    <trkpt lat="46.749951" lon="9.5603303"><ele>1530.0</ele></trkpt>
    <trkpt lat="46.7499124" lon="9.5604206"><ele>1536.0</ele></trkpt>
    <trkpt lat="46.7497616" lon="9.5604438"><ele>1536.0</ele></trkpt>
    <trkpt lat="46.7496218" lon="9.5605044"><ele>1536.0</ele></trkpt>
    <trkpt lat="46.7494408" lon="9.5606675"><ele>1536.0</ele></trkpt>
    <trkpt lat="46.748994" lon="9.561427"><ele>1536.0</ele></trkpt>
    <trkpt lat="46.7488131" lon="9.5619326"><ele>1536.0</ele></trkpt>
    <trkpt lat="46.7487511" lon="9.5621521"><ele>1536.0</ele></trkpt>
    <trkpt lat="46.7486891" lon="9.5622201"><ele>1536.0</ele></trkpt>
    <trkpt lat="46.7485764" lon="9.5622307"><ele>1536.0</ele></trkpt>
    <trkpt lat="46.7484687" lon="9.5620981"><ele>1536.0</ele></trkpt>
    <trkpt lat="46.748386" lon="9.5615185"><ele>1536.0</ele></trkpt>
    <trkpt lat="46.7483561" lon="9.5611067"><ele>1536.0</ele></trkpt>
    <trkpt lat="46.7483124" lon="9.560905"><ele>1536.0</ele></trkpt>
    <trkpt lat="46.7481184" lon="9.5605485"><ele>1536.0</ele></trkpt>
    <trkpt lat="46.7480935" lon="9.5604978"><ele>1536.0</ele></trkpt>
    <trkpt lat="46.7479129" lon="9.5601289"><ele>1517.0</ele></trkpt>
    <trkpt lat="46.7476723" lon="9.5593905"><ele>1517.0</ele></trkpt>
    <trkpt lat="46.7475722" lon="9.5593211"><ele>1517.0</ele></trkpt>
    <trkpt lat="46.7474376" lon="9.5593021"><ele>1517.0</ele></trkpt>
    <trkpt lat="46.7470258" lon="9.5593827"><ele>1517.0</ele></trkpt>
    <trkpt lat="46.7465437" lon="9.5594968"><ele>1517.0</ele></trkpt>
    <trkpt lat="46.7460857" lon="9.5596045"><ele>1517.0</ele></trkpt>
    <trkpt lat="46.7457052" lon="9.5597411"><ele>1522.0</ele></trkpt>
    <trkpt lat="46.7450677" lon="9.5599228"><ele>1522.0</ele></trkpt>
    <trkpt lat="46.7447893" lon="9.5599493"><ele>1522.0</ele></trkpt>
    <trkpt lat="46.7444291" lon="9.5596565"><ele>1522.0</ele></trkpt>
    <trkpt lat="46.744182" lon="9.5594987"><ele>1522.0</ele></trkpt>
    <trkpt lat="46.7439971" lon="9.5594037"><ele>1522.0</ele></trkpt>
    <trkpt lat="46.7438906" lon="9.5594713"><ele>1522.0</ele></trkpt>
    <trkpt lat="46.7436518" lon="9.559631"><ele>1533.0</ele></trkpt>
    <trkpt lat="46.7435856" lon="9.5596405"><ele>1533.0</ele></trkpt>
    <trkpt lat="46.7434663" lon="9.55958"><ele>1533.0</ele></trkpt>
    <trkpt lat="46.7433878" lon="9.5594784"><ele>1533.0</ele></trkpt>
    <trkpt lat="46.7433186" lon="9.5594311"><ele>1533.0</ele></trkpt>
    <trkpt lat="46.7430978" lon="9.5593905"><ele>1533.0</ele></trkpt>
    <trkpt lat="46.7429973" lon="9.5593836"><ele>1533.0</ele></trkpt>
    <trkpt lat="46.7427973" lon="9.5593226"><ele>1533.0</ele></trkpt>
    <trkpt lat="46.7427002" lon="9.5592544"><ele>1533.0</ele></trkpt>
    <trkpt lat="46.7426466" lon="9.5591792"><ele>1533.0</ele></trkpt>
    <trkpt lat="46.7425294" lon="9.5588994"><ele>1533.0</ele></trkpt>
    <trkpt lat="46.7424319" lon="9.5585242"><ele>1533.0</ele></trkpt>
    <trkpt lat="46.7423837" lon="9.5584403"><ele>1533.0</ele></trkpt>
    <trkpt lat="46.7422996" lon="9.5583909"><ele>1533.0</ele></trkpt>
    <trkpt lat="46.742192" lon="9.5584093"><ele>1533.0</ele></trkpt>
    <trkpt lat="46.7421344" lon="9.5584461"><ele>1533.0</ele></trkpt>
    <trkpt lat="46.7420066" lon="9.5584668"><ele>1533.0</ele></trkpt>
    <trkpt lat="46.741901" lon="9.5585522"><ele>1533.0</ele></trkpt>
    <trkpt lat="46.7418324" lon="9.5585765"><ele>1533.0</ele></trkpt>
    <trkpt lat="46.7417716" lon="9.5585416"><ele>1533.0</ele></trkpt>
    <trkpt lat="46.7417502" lon="9.5584814"><ele>1533.0</ele></trkpt>
    <trkpt lat="46.741737" lon="9.5584115"><ele>1533.0</ele></trkpt>
    <trkpt lat="46.7417731" lon="9.5582537"><ele>1519.0</ele></trkpt>
    <trkpt lat="46.7418788" lon="9.5580884"><ele>1519.0</ele></trkpt>
    <trkpt lat="46.7420361" lon="9.5579324"><ele>1519.0</ele></trkpt>
    <trkpt lat="46.7420749" lon="9.5578596"><ele>1519.0</ele></trkpt>
    <trkpt lat="46.7422652" lon="9.5574484"><ele>1519.0</ele></trkpt>
    <trkpt lat="46.7423866" lon="9.557345"><ele>1519.0</ele></trkpt>
    <trkpt lat="46.7424674" lon="9.5572761"><ele>1519.0</ele></trkpt>
    <trkpt lat="46.7426313" lon="9.5570737"><ele>1519.0</ele></trkpt>
    <trkpt lat="46.7427167" lon="9.55701"><ele>1519.0</ele></trkpt>
    <trkpt lat="46.7428057" lon="9.5569677"><ele>1519.0</ele></trkpt>
    <trkpt lat="46.742895" lon="9.5569369"><ele>1519.0</ele></trkpt>
    <trkpt lat="46.7429887" lon="9.5568816"><ele>1519.0</ele></trkpt>
    <trkpt lat="46.743038" lon="9.5568326"><ele>1519.0</ele></trkpt>
    <trkpt lat="46.7431195" lon="9.5567866"><ele>1519.0</ele></trkpt>
    <trkpt lat="46.7433236" lon="9.5567341"><ele>1519.0</ele></trkpt>
    <trkpt lat="46.743429" lon="9.5567256"><ele>1519.0</ele></trkpt>
    <trkpt lat="46.7435453" lon="9.5567315"><ele>1519.0</ele></trkpt>
    <trkpt lat="46.7438471" lon="9.5568878"><ele>1509.0</ele></trkpt>
    <trkpt lat="46.7439723" lon="9.556988"><ele>1509.0</ele></trkpt>
    <trkpt lat="46.7440273" lon="9.5569673"><ele>1509.0</ele></trkpt>
    <trkpt lat="46.7440662" lon="9.5569307"><ele>1509.0</ele></trkpt>
    <trkpt lat="46.7440943" lon="9.5568909"><ele>1509.0</ele></trkpt>
    <trkpt lat="46.7443731" lon="9.5572089"><ele>1509.0</ele></trkpt>
    <trkpt lat="46.7440864" lon="9.5568406"><ele>1509.0</ele></trkpt>
    <trkpt lat="46.7440943" lon="9.5568909"><ele>1509.0</ele></trkpt>
    <trkpt lat="46.7442694" lon="9.5572367"><ele>1509.0</ele></trkpt>
    <trkpt lat="46.7445095" lon="9.5576328"><ele>1509.0</ele></trkpt>
    <trkpt lat="46.7445861" lon="9.5577642"><ele>1509.0</ele></trkpt>
    <trkpt lat="46.7447002" lon="9.5579233"><ele>1509.0</ele></trkpt>
    <trkpt lat="46.7448995" lon="9.5581634"><ele>1509.0</ele></trkpt>
    <trkpt lat="46.7452433" lon="9.5585627"><ele>1522.0</ele></trkpt>
    <trkpt lat="46.7458646" lon="9.5591971"><ele>1517.0</ele></trkpt>
    <trkpt lat="46.7461806" lon="9.5592777"><ele>1517.0</ele></trkpt>
    <trkpt lat="46.7465831" lon="9.5592825"><ele>1517.0</ele></trkpt>
    <trkpt lat="46.7471453" lon="9.559224"><ele>1517.0</ele></trkpt>
    <trkpt lat="46.7475316" lon="9.5591992"><ele>1517.0</ele></trkpt>
    <trkpt lat="46.7476066" lon="9.5592505"><ele>1517.0</ele></trkpt>
    <trkpt lat="46.7476723" lon="9.5593905"><ele>1517.0</ele></trkpt>
    <trkpt lat="46.7475722" lon="9.5593211"><ele>1517.0</ele></trkpt>
    <trkpt lat="46.7474376" lon="9.5593021"><ele>1517.0</ele></trkpt>
    <trkpt lat="46.7470258" lon="9.5593827"><ele>1517.0</ele></trkpt>
    <trkpt lat="46.7465437" lon="9.5594968"><ele>1517.0</ele></trkpt>
    <trkpt lat="46.7460857" lon="9.5596045"><ele>1517.0</ele></trkpt>
    <trkpt lat="46.7457052" lon="9.5597411"><ele>1522.0</ele></trkpt>
    <trkpt lat="46.7450677" lon="9.5599228"><ele>1522.0</ele></trkpt>
    <trkpt lat="46.7447893" lon="9.5599493"><ele>1522.0</ele></trkpt>
    <trkpt lat="46.7444291" lon="9.5596565"><ele>1522.0</ele></trkpt>
    <trkpt lat="46.744182" lon="9.5594987"><ele>1522.0</ele></trkpt>
    <trkpt lat="46.7439971" lon="9.5594037"><ele>1522.0</ele></trkpt>
    <trkpt lat="46.7438906" lon="9.5594713"><ele>1522.0</ele></trkpt>
    <trkpt lat="46.7436518" lon="9.559631"><ele>1533.0</ele></trkpt>
    <trkpt lat="46.7435856" lon="9.5596405"><ele>1533.0</ele></trkpt>
    <trkpt lat="46.7434663" lon="9.55958"><ele>1533.0</ele></trkpt>
    <trkpt lat="46.7433878" lon="9.5594784"><ele>1533.0</ele></trkpt>
    <trkpt lat="46.7433186" lon="9.5594311"><ele>1533.0</ele></trkpt>
    <trkpt lat="46.7430978" lon="9.5593905"><ele>1533.0</ele></trkpt>
    <trkpt lat="46.7429973" lon="9.5593836"><ele>1533.0</ele></trkpt>
    <trkpt lat="46.7427973" lon="9.5593226"><ele>1533.0</ele></trkpt>
    <trkpt lat="46.7427002" lon="9.5592544"><ele>1533.0</ele></trkpt>
    <trkpt lat="46.7426466" lon="9.5591792"><ele>1533.0</ele></trkpt>
    <trkpt lat="46.7425294" lon="9.5588994"><ele>1533.0</ele></trkpt>
    <trkpt lat="46.7424319" lon="9.5585242"><ele>1533.0</ele></trkpt>
    <trkpt lat="46.7423837" lon="9.5584403"><ele>1533.0</ele></trkpt>
    <trkpt lat="46.7422996" lon="9.5583909"><ele>1533.0</ele></trkpt>
    <trkpt lat="46.742192" lon="9.5584093"><ele>1533.0</ele></trkpt>
    <trkpt lat="46.7421344" lon="9.5584461"><ele>1533.0</ele></trkpt>
    <trkpt lat="46.7420066" lon="9.5584668"><ele>1533.0</ele></trkpt>
    <trkpt lat="46.741901" lon="9.5585522"><ele>1533.0</ele></trkpt>
    <trkpt lat="46.7418324" lon="9.5585765"><ele>1533.0</ele></trkpt>
    <trkpt lat="46.7417716" lon="9.5585416"><ele>1533.0</ele></trkpt>
    <trkpt lat="46.7417502" lon="9.5584814"><ele>1533.0</ele></trkpt>
    <trkpt lat="46.741737" lon="9.5584115"><ele>1533.0</ele></trkpt>
    <trkpt lat="46.7417731" lon="9.5582537"><ele>1519.0</ele></trkpt>
    <trkpt lat="46.7418788" lon="9.5580884"><ele>1519.0</ele></trkpt>
    <trkpt lat="46.7420361" lon="9.5579324"><ele>1519.0</ele></trkpt>
    <trkpt lat="46.7420749" lon="9.5578596"><ele>1519.0</ele></trkpt>
    <trkpt lat="46.7422652" lon="9.5574484"><ele>1519.0</ele></trkpt>
    <trkpt lat="46.7423866" lon="9.557345"><ele>1519.0</ele></trkpt>
    <trkpt lat="46.7424674" lon="9.5572761"><ele>1519.0</ele></trkpt>
    <trkpt lat="46.7426313" lon="9.5570737"><ele>1519.0</ele></trkpt>
    <trkpt lat="46.7427167" lon="9.55701"><ele>1519.0</ele></trkpt>
    <trkpt lat="46.7428057" lon="9.5569677"><ele>1519.0</ele></trkpt>
    <trkpt lat="46.742895" lon="9.5569369"><ele>1519.0</ele></trkpt>
    <trkpt lat="46.7429887" lon="9.5568816"><ele>1519.0</ele></trkpt>
    <trkpt lat="46.743038" lon="9.5568326"><ele>1519.0</ele></trkpt>
    <trkpt lat="46.7431195" lon="9.5567866"><ele>1519.0</ele></trkpt>
    <trkpt lat="46.7433236" lon="9.5567341"><ele>1519.0</ele></trkpt>
    <trkpt lat="46.743429" lon="9.5567256"><ele>1519.0</ele></trkpt>
    <trkpt lat="46.7435453" lon="9.5567315"><ele>1519.0</ele></trkpt>
    <trkpt lat="46.7438471" lon="9.5568878"><ele>1509.0</ele></trkpt>
    <trkpt lat="46.7439723" lon="9.556988"><ele>1509.0</ele></trkpt>
    <trkpt lat="46.7440273" lon="9.5569673"><ele>1509.0</ele></trkpt>
    <trkpt lat="46.7440662" lon="9.5569307"><ele>1509.0</ele></trkpt>
    <trkpt lat="46.7440943" lon="9.5568909"><ele>1509.0</ele></trkpt>
    <trkpt lat="46.7440864" lon="9.5568406"><ele>1509.0</ele></trkpt>
    <trkpt lat="46.7440467" lon="9.5565936"><ele>1509.0</ele></trkpt>
    <trkpt lat="46.7439434" lon="9.5561893"><ele>1500.0</ele></trkpt>
    <trkpt lat="46.7435332" lon="9.5560738"><ele>1488.0</ele></trkpt>
    <trkpt lat="46.7434283" lon="9.5559686"><ele>1488.0</ele></trkpt>
    <trkpt lat="46.7430576" lon="9.5557506"><ele>1488.0</ele></trkpt>
    <trkpt lat="46.7429535" lon="9.5556732"><ele>1488.0</ele></trkpt>
    <trkpt lat="46.7428759" lon="9.5555847"><ele>1488.0</ele></trkpt>
    <trkpt lat="46.7428382" lon="9.5555018"><ele>1488.0</ele></trkpt>
    <trkpt lat="46.742816" lon="9.5553525"><ele>1488.0</ele></trkpt>
    <trkpt lat="46.7428307" lon="9.5551162"><ele>1488.0</ele></trkpt>
    <trkpt lat="46.7429361" lon="9.5543852"><ele>1488.0</ele></trkpt>
    <trkpt lat="46.7431173" lon="9.5543735"><ele>1488.0</ele></trkpt>
    <trkpt lat="46.7434234" lon="9.5542683"><ele>1488.0</ele></trkpt>
    <trkpt lat="46.7436686" lon="9.5541438"><ele>1488.0</ele></trkpt>
    <trkpt lat="46.7438723" lon="9.5539714"><ele>1492.0</ele></trkpt>
    <trkpt lat="46.7439989" lon="9.5539967"><ele>1492.0</ele></trkpt>
    <trkpt lat="46.7441951" lon="9.5541398"><ele>1492.0</ele></trkpt>
    <trkpt lat="46.7443367" lon="9.5541191"><ele>1492.0</ele></trkpt>
    <trkpt lat="46.7444681" lon="9.5540629"><ele>1492.0</ele></trkpt>
    <trkpt lat="46.7448539" lon="9.5538296"><ele>1492.0</ele></trkpt>
    <trkpt lat="46.7450234" lon="9.5536588"><ele>1492.0</ele></trkpt>
    <trkpt lat="46.7451211" lon="9.5535242"><ele>1492.0</ele></trkpt>
    <trkpt lat="46.7452101" lon="9.5533438"><ele>1492.0</ele></trkpt>
    <trkpt lat="46.7452663" lon="9.5531543"><ele>1492.0</ele></trkpt>
    <trkpt lat="46.7452847" lon="9.5529824"><ele>1492.0</ele></trkpt>
    <trkpt lat="46.7452726" lon="9.552892"><ele>1492.0</ele></trkpt>
    <trkpt lat="46.7452074" lon="9.5527522"><ele>1492.0</ele></trkpt>
    <trkpt lat="46.7451328" lon="9.5526875"><ele>1492.0</ele></trkpt>
    <trkpt lat="46.7448945" lon="9.5526079"><ele>1492.0</ele></trkpt>
    <trkpt lat="46.744472" lon="9.5521199"><ele>1492.0</ele></trkpt>
    <trkpt lat="46.7438272" lon="9.5512442"><ele>1494.0</ele></trkpt>
    <trkpt lat="46.7436574" lon="9.5510853"><ele>1490.0</ele></trkpt>
    <trkpt lat="46.7433203" lon="9.5506229"><ele>1490.0</ele></trkpt>
    <trkpt lat="46.7428014" lon="9.5496261"><ele>1487.0</ele></trkpt>
    <trkpt lat="46.7427456" lon="9.5494559"><ele>1487.0</ele></trkpt>
    <trkpt lat="46.742686" lon="9.5492884"><ele>1487.0</ele></trkpt>
    <trkpt lat="46.7426635" lon="9.5490883"><ele>1487.0</ele></trkpt>
    <trkpt lat="46.742586" lon="9.5487997"><ele>1487.0</ele></trkpt>
    <trkpt lat="46.7424452" lon="9.5484941"><ele>1487.0</ele></trkpt>
    <trkpt lat="46.7423499" lon="9.5483323"><ele>1487.0</ele></trkpt>
    <trkpt lat="46.7420115" lon="9.5477423"><ele>1509.0</ele></trkpt>
    <trkpt lat="46.7419383" lon="9.5476492"><ele>1509.0</ele></trkpt>
    <trkpt lat="46.7418539" lon="9.5475831"><ele>1509.0</ele></trkpt>
    <trkpt lat="46.7417421" lon="9.5475221"><ele>1509.0</ele></trkpt>
    <trkpt lat="46.7416213" lon="9.547487"><ele>1483.0</ele></trkpt>
    <trkpt lat="46.7414718" lon="9.5474347"><ele>1483.0</ele></trkpt>
    <trkpt lat="46.7413814" lon="9.5473974"><ele>1483.0</ele></trkpt>
    <trkpt lat="46.7412333" lon="9.5473316"><ele>1483.0</ele></trkpt>
    <trkpt lat="46.7410505" lon="9.5471999"><ele>1483.0</ele></trkpt>
    <trkpt lat="46.7408691" lon="9.5470218"><ele>1483.0</ele></trkpt>
    <trkpt lat="46.7406966" lon="9.5468179"><ele>1483.0</ele></trkpt>
    <trkpt lat="46.7403427" lon="9.5464143"><ele>1483.0</ele></trkpt>
    <trkpt lat="46.7398473" lon="9.5460852"><ele>1483.0</ele></trkpt>
    <trkpt lat="46.7394" lon="9.5458908"><ele>1484.0</ele></trkpt>
    <trkpt lat="46.7393244" lon="9.5458627"><ele>1484.0</ele></trkpt>
    <trkpt lat="46.7392207" lon="9.5458723"><ele>1484.0</ele></trkpt>
    <trkpt lat="46.7389975" lon="9.5459511"><ele>1484.0</ele></trkpt>
    <trkpt lat="46.7388228" lon="9.5459878"><ele>1484.0</ele></trkpt>
    <trkpt lat="46.7384846" lon="9.5460045"><ele>1484.0</ele></trkpt>
    <trkpt lat="46.7380893" lon="9.5459618"><ele>1484.0</ele></trkpt>
    <trkpt lat="46.7379708" lon="9.5459577"><ele>1484.0</ele></trkpt>
    <trkpt lat="46.7378523" lon="9.546"><ele>1484.0</ele></trkpt>
    <trkpt lat="46.737714" lon="9.5460537"><ele>1484.0</ele></trkpt>
    <trkpt lat="46.7372381" lon="9.5462074"><ele>1487.0</ele></trkpt>
    <trkpt lat="46.7369949" lon="9.546307"><ele>1487.0</ele></trkpt>
    <trkpt lat="46.736794" lon="9.5465096"><ele>1487.0</ele></trkpt>
    <trkpt lat="46.7366109" lon="9.5468843"><ele>1487.0</ele></trkpt>
    <trkpt lat="46.7364112" lon="9.5473205"><ele>1487.0</ele></trkpt>
    <trkpt lat="46.7362856" lon="9.5476077"><ele>1487.0</ele></trkpt>
    <trkpt lat="46.7362458" lon="9.5477815"><ele>1487.0</ele></trkpt>
    <trkpt lat="46.7361098" lon="9.5481559"><ele>1492.0</ele></trkpt>
    <trkpt lat="46.7360418" lon="9.5483123"><ele>1492.0</ele></trkpt>
    <trkpt lat="46.7359526" lon="9.5484068"><ele>1492.0</ele></trkpt>
    <trkpt lat="46.7356098" lon="9.5488175"><ele>1492.0</ele></trkpt>
    <trkpt lat="46.7354005" lon="9.5490514"><ele>1486.0</ele></trkpt>
    <trkpt lat="46.7352449" lon="9.5490992"><ele>1486.0</ele></trkpt>
    <trkpt lat="46.7350677" lon="9.549133"><ele>1486.0</ele></trkpt>
    <trkpt lat="46.7349868" lon="9.5492336"><ele>1486.0</ele></trkpt>
    <trkpt lat="46.7349289" lon="9.549479"><ele>1486.0</ele></trkpt>
    <trkpt lat="46.7349147" lon="9.549654"><ele>1486.0</ele></trkpt>
    <trkpt lat="46.7348439" lon="9.5499732"><ele>1486.0</ele></trkpt>
    <trkpt lat="46.7347398" lon="9.5501622"><ele>1481.0</ele></trkpt>
    <trkpt lat="46.7345081" lon="9.5503821"><ele>1481.0</ele></trkpt>
    <trkpt lat="46.734223" lon="9.5506172"><ele>1481.0</ele></trkpt>
    <trkpt lat="46.7340136" lon="9.5506955"><ele>1481.0</ele></trkpt>
    <trkpt lat="46.7338563" lon="9.5506521"><ele>1481.0</ele></trkpt>
    <trkpt lat="46.7334297" lon="9.5503263"><ele>1481.0</ele></trkpt>
  </trkseg></trk>
</gpx>