<?xml version="1.0" encoding="UTF-8"?>
<gpx version="1.1" xmlns="http://www.topografix.com/GPX/1/1" creator="GlideCast">
  <trk><name>Lillehammer</name><trkseg>
    <trkpt lat="61.1114284" lon="10.5136499"><ele>0.0</ele></trkpt>
    <trkpt lat="61.1114022" lon="10.5136499"><ele>0.0</ele></trkpt>
    <trkpt lat="61.1113015" lon="10.5136207"><ele>0.0</ele></trkpt>
    <trkpt lat="61.1112311" lon="10.5135665"><ele>0.0</ele></trkpt>
    <trkpt lat="61.111084" lon="10.5134247"><ele>0.0</ele></trkpt>
    <trkpt lat="61.1109692" lon="10.5133247"><ele>0.0</ele></trkpt>
    <trkpt lat="61.1109108" lon="10.5132913"><ele>0.0</ele></trkpt>
    <trkpt lat="61.1108021" lon="10.5132038"><ele>0.0</ele></trkpt>
    <trkpt lat="61.110702" lon="10.513097"><ele>0.0</ele></trkpt>
    <trkpt lat="61.1105705" lon="10.5129662"><ele>0.0</ele></trkpt>
    <trkpt lat="61.1104355" lon="10.5128119"><ele>0.0</ele></trkpt>
    <trkpt lat="61.1103985" lon="10.5127734"><ele>0.0</ele></trkpt>
    <trkpt lat="61.1102966" lon="10.5126869"><ele>0.0</ele></trkpt>
    <trkpt lat="61.1101596" lon="10.5125702"><ele>0.0</ele></trkpt>
    <trkpt lat="61.1100694" lon="10.5124126"><ele>0.0</ele></trkpt>
    <trkpt lat="61.1099059" lon="10.5121408"><ele>0.0</ele></trkpt>
    <trkpt lat="61.109803" lon="10.5119931"><ele>0.0</ele></trkpt>
    <trkpt lat="61.1097369" lon="10.5118831"><ele>0.0</ele></trkpt>
    <trkpt lat="61.1096673" lon="10.5117671"><ele>0.0</ele></trkpt>
    <trkpt lat="61.1095827" lon="10.5115741"><ele>0.0</ele></trkpt>
    <trkpt lat="61.1094945" lon="10.5113617"><ele>0.0</ele></trkpt>
    <trkpt lat="61.1094424" lon="10.5112427"><ele>0.0</ele></trkpt>
    <trkpt lat="61.1093792" lon="10.5110985"><ele>0.0</ele></trkpt>
    <trkpt lat="61.1092513" lon="10.5108277"><ele>0.0</ele></trkpt>
    <trkpt lat="61.1091671" lon="10.5106125"><ele>0.0</ele></trkpt>
    <trkpt lat="61.1091239" lon="10.5104819"><ele>0.0</ele></trkpt>
    <trkpt lat="61.1090825" lon="10.5103733"><ele>0.0</ele></trkpt>
    <trkpt lat="61.1090037" lon="10.5102696"><ele>0.0</ele></trkpt>
    <trkpt lat="61.1088988" lon="10.5101815"><ele>0.0</ele></trkpt>
    <trkpt lat="61.1088353" lon="10.5101315"><ele>0.0</ele></trkpt>
    <trkpt lat="61.1087731" lon="10.5100679"><ele>0.0</ele></trkpt>
    <trkpt lat="61.1087296" lon="10.5100083"><ele>0.0</ele></trkpt>
    <trkpt lat="61.1086883" lon="10.5099388"><ele>0.0</ele></trkpt>
    <trkpt lat="61.1086209" lon="10.5098313"><ele>0.0</ele></trkpt>
    <trkpt lat="61.1085701" lon="10.509744"><ele>0.0</ele></trkpt>
    <trkpt lat="61.1085266" lon="10.509688"><ele>0.0</ele></trkpt>
    <trkpt lat="61.1083942" lon="10.5094872"><ele>0.0</ele></trkpt>
    <trkpt lat="61.1083235" lon="10.5093101"><ele>0.0</ele></trkpt>
    <trkpt lat="61.1082115" lon="10.5090958"><ele>0.0</ele></trkpt>
    <trkpt lat="61.1080923" lon="10.5088633"><ele>0.0</ele></trkpt>
    <trkpt lat="61.1079864" lon="10.5086558"><ele>0.0</ele></trkpt>
    <trkpt lat="61.1078297" lon="10.5082694"><ele>0.0</ele></trkpt>
    <trkpt lat="61.1077347" lon="10.508068"><ele>0.0</ele></trkpt>
    <trkpt lat="61.1077005" lon="10.5080307"><ele>0.0</ele></trkpt>
    <trkpt lat="61.1076622" lon="10.5079888"><ele>0.0</ele></trkpt>
    <trkpt lat="61.1076064" lon="10.5079177"><ele>0.0</ele></trkpt>
    <trkpt lat="61.107489" lon="10.5077679"><ele>0.0</ele></trkpt>
    <trkpt lat="61.1073754" lon="10.5076661"><ele>0.0</ele></trkpt>
    <trkpt lat="61.1072901" lon="10.5076182"><ele>0.0</ele></trkpt>
    <trkpt lat="61.1071932" lon="10.5076787"><ele>0.0</ele></trkpt>
    <trkpt lat="61.1071007" lon="10.5077226"><ele>0.0</ele></trkpt>
    <trkpt lat="61.1070176" lon="10.507719"><ele>0.0</ele></trkpt>
    <trkpt lat="61.1069368" lon="10.5076662"><ele>0.0</ele></trkpt>
    <trkpt lat="61.1068363" lon="10.5075344"><ele>0.0</ele></trkpt>
    <trkpt lat="61.1067745" lon="10.5073443"><ele>0.0</ele></trkpt>
    <trkpt lat="61.1066932" lon="10.5071627"><ele>0.0</ele></trkpt>
    <trkpt lat="61.1065648" lon="10.5069679"><ele>0.0</ele></trkpt>
    <trkpt lat="61.1064667" lon="10.5068653"><ele>0.0</ele></trkpt>
    <trkpt lat="61.1063921" lon="10.5068112"><ele>0.0</ele></trkpt>
    <trkpt lat="61.1062823" lon="10.5067734"><ele>0.0</ele></trkpt>
    <trkpt lat="61.1061696" lon="10.5067312"><ele>0.0</ele></trkpt>
    <trkpt lat="61.1061058" lon="10.5066841"><ele>0.0</ele></trkpt>
    <trkpt lat="61.1061054" lon="10.5066838"><ele>0.0</ele></trkpt>
    <trkpt lat="61.1060321" lon="10.5066202"><ele>0.0</ele></trkpt>
    <trkpt lat="61.1059299" lon="10.5065269"><ele>0.0</ele></trkpt>
    <trkpt lat="61.1057841" lon="10.5063993"><ele>0.0</ele></trkpt>
    <trkpt lat="61.1055777" lon="10.5062464"><ele>0.0</ele></trkpt>
    <trkpt lat="61.1055029" lon="10.5061919"><ele>0.0</ele></trkpt>
    <trkpt lat="61.1054278" lon="10.5061691"><ele>0.0</ele></trkpt>
    <trkpt lat="61.1052958" lon="10.5061465"><ele>0.0</ele></trkpt>
    <trkpt lat="61.1051183" lon="10.5061079"><ele>0.0</ele></trkpt>
    <trkpt lat="61.1049597" lon="10.5061042"><ele>0.0</ele></trkpt>
    <trkpt lat="61.1048061" lon="10.5060334"><ele>0.0</ele></trkpt>
    <trkpt lat="61.1047491" lon="10.5060072"><ele>0.0</ele></trkpt>
    <trkpt lat="61.1046761" lon="10.5059624"><ele>0.0</ele></trkpt>
    <trkpt lat="61.1045936" lon="10.505937"><ele>0.0</ele></trkpt>
    <trkpt lat="61.1044609" lon="10.5059275"><ele>0.0</ele></trkpt>
    <trkpt lat="61.1043152" lon="10.5059053"><ele>0.0</ele></trkpt>
  </trkseg></trk>
</gpx>