<?xml version="1.0" encoding="UTF-8"?>
<gpx version="1.1" xmlns="http://www.topografix.com/GPX/1/1" creator="GlideCast">
  <trk><name>Oberstdorf</name><trkseg>
    <trkpt lat="47.3533717" lon="10.2667183"><ele>941.0</ele></trkpt>
    <trkpt lat="47.3534678" lon="10.266694"><ele>941.0</ele></trkpt>
    <trkpt lat="47.3537004" lon="10.2666853"><ele>941.0</ele></trkpt>
    <trkpt lat="47.3540342" lon="10.267026"><ele>941.0</ele></trkpt>
    <trkpt lat="47.3542357" lon="10.2672339"><ele>920.0</ele></trkpt>
    <trkpt lat="47.3543936" lon="10.2673043"><ele>920.0</ele></trkpt>
    <trkpt lat="47.3548976" lon="10.2673731"><ele>920.0</ele></trkpt>
    <trkpt lat="47.3560893" lon="10.2668211"><ele>920.0</ele></trkpt>
    <trkpt lat="47.3563583" lon="10.266681"><ele>929.0</ele></trkpt>
    <trkpt lat="47.3566609" lon="10.2665386"><ele>900.0</ele></trkpt>
    <trkpt lat="47.3570418" lon="10.2664616"><ele>900.0</ele></trkpt>
    <trkpt lat="47.3574358" lon="10.2664495"><ele>900.0</ele></trkpt>
    <trkpt lat="47.3601344" lon="10.2664451"><ele>888.0</ele></trkpt>
    <trkpt lat="47.3603887" lon="10.2664622"><ele>888.0</ele></trkpt>
    <trkpt lat="47.3607078" lon="10.266493"><ele>904.0</ele></trkpt>
    <trkpt lat="47.3610274" lon="10.266639"><ele>904.0</ele></trkpt>
    <trkpt lat="47.3612005" lon="10.2667299"><ele>917.0</ele></trkpt>
    <trkpt lat="47.3614164" lon="10.2668599"><ele>917.0</ele></trkpt>
    <trkpt lat="47.3616557" lon="10.2669116"><ele>917.0</ele></trkpt>
    <trkpt lat="47.3618174" lon="10.2668804"><ele>917.0</ele></trkpt>
    <trkpt lat="47.3619811" lon="10.2667873"><ele>917.0</ele></trkpt>
    <trkpt lat="47.3622649" lon="10.2664018"><ele>904.0</ele></trkpt>
    <trkpt lat="47.3623432" lon="10.266395"><ele>904.0</ele></trkpt>
    <trkpt lat="47.3626614" lon="10.2662954"><ele>939.0</ele></trkpt>
    <trkpt lat="47.3629483" lon="10.2662849"><ele>939.0</ele></trkpt>
    <trkpt lat="47.363221" lon="10.2663143"><ele>939.0</ele></trkpt>
    <trkpt lat="47.363403" lon="10.2664274"><ele>939.0</ele></trkpt>
    <trkpt lat="47.3636814" lon="10.2667659"><ele>943.0</ele></trkpt>
    <trkpt lat="47.3641499" lon="10.2671905"><ele>943.0</ele></trkpt>
    <trkpt lat="47.3644338" lon="10.2673634"><ele>943.0</ele></trkpt>
    <trkpt lat="47.3649238" lon="10.2676986"><ele>908.0</ele></trkpt>
    <trkpt lat="47.3654233" lon="10.2676821"><ele>908.0</ele></trkpt>
    <trkpt lat="47.365889" lon="10.2676665"><ele>908.0</ele></trkpt>
    <trkpt lat="47.3661352" lon="10.2675575"><ele>908.0</ele></trkpt>
    <trkpt lat="47.3664587" lon="10.267421"><ele>908.0</ele></trkpt>
    <trkpt lat="47.3669851" lon="10.2660046"><ele>899.0</ele></trkpt>
    <trkpt lat="47.3671097" lon="10.2656427"><ele>899.0</ele></trkpt>
    <trkpt lat="47.3672937" lon="10.2654587"><ele>899.0</ele></trkpt>
    <trkpt lat="47.3674954" lon="10.2653163"><ele>899.0</ele></trkpt>
    <trkpt lat="47.3676313" lon="10.2653079"><ele>899.0</ele></trkpt>
    <trkpt lat="47.3677584" lon="10.265355"><ele>899.0</ele></trkpt>
    <trkpt lat="47.3679685" lon="10.26559"><ele>899.0</ele></trkpt>
    <trkpt lat="47.3682771" lon="10.2658658"><ele>899.0</ele></trkpt>
    <trkpt lat="47.3685977" lon="10.2660277"><ele>899.0</ele></trkpt>
    <trkpt lat="47.3689305" lon="10.2662571"><ele>878.0</ele></trkpt>
    <trkpt lat="47.3691983" lon="10.2665683"><ele>878.0</ele></trkpt>
    <trkpt lat="47.3693526" lon="10.2667404"><ele>881.0</ele></trkpt>
    <trkpt lat="47.3694981" lon="10.2668283"><ele>881.0</ele></trkpt>
    <trkpt lat="47.3696536" lon="10.2668835"><ele>881.0</ele></trkpt>
    <trkpt lat="47.36994" lon="10.266859"><ele>881.0</ele></trkpt>
    <trkpt lat="47.3702366" lon="10.2669057"><ele>881.0</ele></trkpt>
    <trkpt lat="47.3705007" lon="10.2668683"><ele>881.0</ele></trkpt>
    <trkpt lat="47.370747" lon="10.2669302"><ele>881.0</ele></trkpt>
    <trkpt lat="47.3708906" lon="10.2670417"><ele>861.0</ele></trkpt>
    <trkpt lat="47.3709724" lon="10.267215"><ele>861.0</ele></trkpt>
    <trkpt lat="47.37141" lon="10.2682129"><ele>861.0</ele></trkpt>
    <trkpt lat="47.3715803" lon="10.2685147"><ele>861.0</ele></trkpt>
    <trkpt lat="47.3716527" lon="10.2687017"><ele>861.0</ele></trkpt>
    <trkpt lat="47.3717648" lon="10.2692725"><ele>871.0</ele></trkpt>
    <trkpt lat="47.3720705" lon="10.2700102"><ele>871.0</ele></trkpt>
    <trkpt lat="47.3722215" lon="10.2702812"><ele>871.0</ele></trkpt>
    <trkpt lat="47.372312" lon="10.2704291"><ele>871.0</ele></trkpt>
    <trkpt lat="47.3724894" lon="10.2707042"><ele>871.0</ele></trkpt>
    <trkpt lat="47.372772" lon="10.2709364"><ele>870.0</ele></trkpt>
  </trkseg></trk>
</gpx>