<?xml version="1.0" encoding="UTF-8"?>
<gpx version="1.1" xmlns="http://www.topografix.com/GPX/1/1" creator="GlideCast">
  <trk><name>Oslo/Holmenkollen</name><trkseg>
    <trkpt lat="59.9685114" lon="10.6725919"><ele>367.0</ele></trkpt>
    <trkpt lat="59.9685588" lon="10.6726461"><ele>367.0</ele></trkpt>
    <trkpt lat="59.9685833" lon="10.6726675"><ele>367.0</ele></trkpt>
    <trkpt lat="59.9685993" lon="10.6727048"><ele>367.0</ele></trkpt>
    <trkpt lat="59.9686189" lon="10.672736"><ele>367.0</ele></trkpt>
    <trkpt lat="59.9686534" lon="10.6727822"><ele>367.0</ele></trkpt>
    <trkpt lat="59.9687276" lon="10.6728695"><ele>367.0</ele></trkpt>
    <trkpt lat="59.9687717" lon="10.6729227"><ele>374.0</ele></trkpt>
    <trkpt lat="59.9688244" lon="10.6729992"><ele>374.0</ele></trkpt>
    <trkpt lat="59.9689442" lon="10.6731883"><ele>374.0</ele></trkpt>
    <trkpt lat="59.9690634" lon="10.673364"><ele>374.0</ele></trkpt>
    <trkpt lat="59.9691365" lon="10.6734639"><ele>374.0</ele></trkpt>
    <trkpt lat="59.9692082" lon="10.6735452"><ele>374.0</ele></trkpt>
    <trkpt lat="59.9692953" lon="10.6736322"><ele>374.0</ele></trkpt>
    <trkpt lat="59.9693604" lon="10.6736833"><ele>374.0</ele></trkpt>
    <trkpt lat="59.9694886" lon="10.6737522"><ele>374.0</ele></trkpt>
    <trkpt lat="59.9695815" lon="10.6738199"><ele>374.0</ele></trkpt>
    <trkpt lat="59.9696505" lon="10.6738741"><ele>374.0</ele></trkpt>
    <trkpt lat="59.9697255" lon="10.6739535"><ele>374.0</ele></trkpt>
    <trkpt lat="59.9698057" lon="10.6740519"><ele>374.0</ele></trkpt>
    <trkpt lat="59.9699137" lon="10.6741646"><ele>374.0</ele></trkpt>
    <trkpt lat="59.9700548" lon="10.674288"><ele>374.0</ele></trkpt>
    <trkpt lat="59.9701425" lon="10.6743683"><ele>374.0</ele></trkpt>
    <trkpt lat="59.9702034" lon="10.674402"><ele>374.0</ele></trkpt>
    <trkpt lat="59.9702777" lon="10.6744294"><ele>374.0</ele></trkpt>
    <trkpt lat="59.970435" lon="10.6744339"><ele>374.0</ele></trkpt>
    <trkpt lat="59.9705252" lon="10.6744234"><ele>374.0</ele></trkpt>
    <trkpt lat="59.9705771" lon="10.6744227"><ele>374.0</ele></trkpt>
    <trkpt lat="59.9706322" lon="10.6744368"><ele>374.0</ele></trkpt>
    <trkpt lat="59.970694" lon="10.6744717"><ele>374.0</ele></trkpt>
    <trkpt lat="59.970741" lon="10.6745209"><ele>374.0</ele></trkpt>
    <trkpt lat="59.9708101" lon="10.6745693"><ele>374.0</ele></trkpt>
    <trkpt lat="59.9708648" lon="10.6746139"><ele>395.0</ele></trkpt>
    <trkpt lat="59.970906" lon="10.6746487"><ele>395.0</ele></trkpt>
    <trkpt lat="59.970955" lon="10.6746686"><ele>395.0</ele></trkpt>
    <trkpt lat="59.9710309" lon="10.6746937"><ele>395.0</ele></trkpt>
    <trkpt lat="59.9710785" lon="10.6746975"><ele>395.0</ele></trkpt>
    <trkpt lat="59.9711339" lon="10.6747054"><ele>395.0</ele></trkpt>
    <trkpt lat="59.9711775" lon="10.6747094"><ele>395.0</ele></trkpt>
    <trkpt lat="59.971213" lon="10.6747148"><ele>395.0</ele></trkpt>
    <trkpt lat="59.9712351" lon="10.6747222"><ele>395.0</ele></trkpt>
    <trkpt lat="59.9712586" lon="10.6747376"><ele>395.0</ele></trkpt>
    <trkpt lat="59.9712772" lon="10.6747567"><ele>395.0</ele></trkpt>
    <trkpt lat="59.971302" lon="10.6747855"><ele>395.0</ele></trkpt>
    <trkpt lat="59.971322" lon="10.6748268"><ele>395.0</ele></trkpt>
    <trkpt lat="59.9713284" lon="10.6748472"><ele>395.0</ele></trkpt>
    <trkpt lat="59.9713344" lon="10.674874"><ele>395.0</ele></trkpt>
    <trkpt lat="59.9713392" lon="10.6749111"><ele>395.0</ele></trkpt>
    <trkpt lat="59.9713442" lon="10.6749959"><ele>395.0</ele></trkpt>
    <trkpt lat="59.9712956" lon="10.6750101"><ele>370.0</ele></trkpt>
    <trkpt lat="59.9712218" lon="10.6750417"><ele>370.0</ele></trkpt>
    <trkpt lat="59.9711827" lon="10.6750803"><ele>370.0</ele></trkpt>
    <trkpt lat="59.9711302" lon="10.6751553"><ele>370.0</ele></trkpt>
    <trkpt lat="59.9699004" lon="10.6747558"><ele>374.0</ele></trkpt>
    <trkpt lat="59.9702" lon="10.6749465"><ele>374.0</ele></trkpt>
    <trkpt lat="59.9703667" lon="10.6750822"><ele>352.0</ele></trkpt>
    <trkpt lat="59.9704725" lon="10.675153"><ele>352.0</ele></trkpt>
    <trkpt lat="59.970563" lon="10.6752495"><ele>352.0</ele></trkpt>
    <trkpt lat="59.9706362" lon="10.6753112"><ele>352.0</ele></trkpt>
    <trkpt lat="59.9706991" lon="10.6753501"><ele>352.0</ele></trkpt>
    <trkpt lat="59.9707585" lon="10.6753714"><ele>352.0</ele></trkpt>
    <trkpt lat="59.9707933" lon="10.6753656"><ele>352.0</ele></trkpt>
    <trkpt lat="59.9708321" lon="10.6753553"><ele>352.0</ele></trkpt>
    <trkpt lat="59.970895" lon="10.6753012"><ele>370.0</ele></trkpt>
    <trkpt lat="59.970979" lon="10.6752351"><ele>370.0</ele></trkpt>
    <trkpt lat="59.9710875" lon="10.6751622"><ele>370.0</ele></trkpt>
    <trkpt lat="59.9711302" lon="10.6751553"><ele>370.0</ele></trkpt>
    <trkpt lat="59.9711721" lon="10.6751881"><ele>370.0</ele></trkpt>
    <trkpt lat="59.9712242" lon="10.6752214"><ele>370.0</ele></trkpt>
    <trkpt lat="59.9712838" lon="10.6752966"><ele>370.0</ele></trkpt>
    <trkpt lat="59.9713222" lon="10.6753615"><ele>370.0</ele></trkpt>
    <trkpt lat="59.9713526" lon="10.675417"><ele>370.0</ele></trkpt>
    <trkpt lat="59.9715051" lon="10.6757102"><ele>370.0</ele></trkpt>
    <trkpt lat="59.9715497" lon="10.6757746"><ele>370.0</ele></trkpt>
    <trkpt lat="59.9716081" lon="10.675827"><ele>370.0</ele></trkpt>
    <trkpt lat="59.9716747" lon="10.6758631"><ele>370.0</ele></trkpt>
    <trkpt lat="59.9717111" lon="10.675862"><ele>370.0</ele></trkpt>
    <trkpt lat="59.9718289" lon="10.6758146"><ele>370.0</ele></trkpt>
    <trkpt lat="59.9719495" lon="10.6757689"><ele>370.0</ele></trkpt>
    <trkpt lat="59.9721562" lon="10.675666"><ele>370.0</ele></trkpt>
    <trkpt lat="59.9722597" lon="10.675613"><ele>370.0</ele></trkpt>
    <trkpt lat="59.9723386" lon="10.6755927"><ele>370.0</ele></trkpt>
    <trkpt lat="59.9724305" lon="10.6756016"><ele>370.0</ele></trkpt>
    <trkpt lat="59.972517" lon="10.6756211"><ele>370.0</ele></trkpt>
    <trkpt lat="59.9726108" lon="10.6756434"><ele>370.0</ele></trkpt>
    <trkpt lat="59.9727415" lon="10.6756745"><ele>370.0</ele></trkpt>
    <trkpt lat="59.9728389" lon="10.6757073"><ele>370.0</ele></trkpt>
    <trkpt lat="59.9728943" lon="10.6757433"><ele>370.0</ele></trkpt>
    <trkpt lat="59.9729402" lon="10.6757732"><ele>397.0</ele></trkpt>
    <trkpt lat="59.9729961" lon="10.6758066"><ele>397.0</ele></trkpt>
    <trkpt lat="59.9731089" lon="10.6758787"><ele>397.0</ele></trkpt>
    <trkpt lat="59.973137" lon="10.675896"><ele>397.0</ele></trkpt>
    <trkpt lat="59.9732254" lon="10.6759442"><ele>397.0</ele></trkpt>
    <trkpt lat="59.9733898" lon="10.6759925"><ele>397.0</ele></trkpt>
    <trkpt lat="59.9736225" lon="10.6760552"><ele>397.0</ele></trkpt>
    <trkpt lat="59.9737469" lon="10.6760888"><ele>397.0</ele></trkpt>
    <trkpt lat="59.9737752" lon="10.6761119"><ele>397.0</ele></trkpt>
    <trkpt lat="59.9737985" lon="10.6761423"><ele>397.0</ele></trkpt>
    <trkpt lat="59.9738328" lon="10.6762054"><ele>397.0</ele></trkpt>
    <trkpt lat="59.9738526" lon="10.6762577"><ele>397.0</ele></trkpt>
    <trkpt lat="59.9738799" lon="10.6763328"><ele>397.0</ele></trkpt>
    <trkpt lat="59.9739109" lon="10.6764569"><ele>397.0</ele></trkpt>
    <trkpt lat="59.9739616" lon="10.6766403"><ele>397.0</ele></trkpt>
    <trkpt lat="59.974008" lon="10.6768016"><ele>397.0</ele></trkpt>
    <trkpt lat="59.9740815" lon="10.6769916"><ele>397.0</ele></trkpt>
    <trkpt lat="59.9741585" lon="10.6771"><ele>393.0</ele></trkpt>
    <trkpt lat="59.9742161" lon="10.6771701"><ele>393.0</ele></trkpt>
    <trkpt lat="59.9743013" lon="10.6772538"><ele>393.0</ele></trkpt>
    <trkpt lat="59.9743797" lon="10.6773189"><ele>393.0</ele></trkpt>
    <trkpt lat="59.9744731" lon="10.6773695"><ele>393.0</ele></trkpt>
    <trkpt lat="59.9745361" lon="10.6773832"><ele>393.0</ele></trkpt>
    <trkpt lat="59.9746008" lon="10.677392"><ele>393.0</ele></trkpt>
    <trkpt lat="59.9746707" lon="10.677354"><ele>393.0</ele></trkpt>
    <trkpt lat="59.9746943" lon="10.6773413"><ele>393.0</ele></trkpt>
    <trkpt lat="59.9747493" lon="10.6772638"><ele>393.0</ele></trkpt>
    <trkpt lat="59.9748954" lon="10.6771137"><ele>393.0</ele></trkpt>
    <trkpt lat="59.9749979" lon="10.6770216"><ele>397.0</ele></trkpt>
    <trkpt lat="59.9750429" lon="10.676952"><ele>420.0</ele></trkpt>
    <trkpt lat="59.9750577" lon="10.6768591"><ele>420.0</ele></trkpt>
    <trkpt lat="59.9750529" lon="10.6766961"><ele>420.0</ele></trkpt>
    <trkpt lat="59.9750146" lon="10.676297"><ele>420.0</ele></trkpt>
    <trkpt lat="59.9749587" lon="10.6760475"><ele>397.0</ele></trkpt>
    <trkpt lat="59.9749179" lon="10.6759134"><ele>397.0</ele></trkpt>
    <trkpt lat="59.9748687" lon="10.6757768"><ele>397.0</ele></trkpt>
    <trkpt lat="59.9748319" lon="10.6756873"><ele>397.0</ele></trkpt>
    <trkpt lat="59.9747958" lon="10.6755352"><ele>397.0</ele></trkpt>
    <trkpt lat="59.9747787" lon="10.6753562"><ele>397.0</ele></trkpt>
    <trkpt lat="59.9747684" lon="10.6752061"><ele>397.0</ele></trkpt>
    <trkpt lat="59.974775" lon="10.6750665"><ele>397.0</ele></trkpt>
    <trkpt lat="59.9747934" lon="10.6749516"><ele>419.0</ele></trkpt>
    <trkpt lat="59.9748313" lon="10.6748168"><ele>419.0</ele></trkpt>
    <trkpt lat="59.9748545" lon="10.6747755"><ele>419.0</ele></trkpt>
    <trkpt lat="59.9748848" lon="10.6747293"><ele>419.0</ele></trkpt>
    <trkpt lat="59.9749041" lon="10.6747118"><ele>419.0</ele></trkpt>
    <trkpt lat="59.9749375" lon="10.6746927"><ele>419.0</ele></trkpt>
    <trkpt lat="59.9749632" lon="10.6746903"><ele>419.0</ele></trkpt>
    <trkpt lat="59.9749925" lon="10.6746906"><ele>419.0</ele></trkpt>
    <trkpt lat="59.975024" lon="10.674717"><ele>433.0</ele></trkpt>
    <trkpt lat="59.9750422" lon="10.674744"><ele>433.0</ele></trkpt>
    <trkpt lat="59.9750675" lon="10.674803"><ele>433.0</ele></trkpt>
    <trkpt lat="59.9753418" lon="10.6754376"><ele>420.0</ele></trkpt>
    <trkpt lat="59.9753866" lon="10.675521"><ele>420.0</ele></trkpt>
    <trkpt lat="59.9754141" lon="10.6755667"><ele>420.0</ele></trkpt>
    <trkpt lat="59.975452" lon="10.6756023"><ele>420.0</ele></trkpt>
    <trkpt lat="59.97549" lon="10.6756297"><ele>420.0</ele></trkpt>
    <trkpt lat="59.9755263" lon="10.6756541"><ele>420.0</ele></trkpt>
    <trkpt lat="59.9757533" lon="10.6757323"><ele>420.0</ele></trkpt>
    <trkpt lat="59.9758054" lon="10.6757696"><ele>420.0</ele></trkpt>
    <trkpt lat="59.975834" lon="10.6757867"><ele>420.0</ele></trkpt>
    <trkpt lat="59.9759057" lon="10.6758564"><ele>420.0</ele></trkpt>
    <trkpt lat="59.9759799" lon="10.6759276"><ele>420.0</ele></trkpt>
    <trkpt lat="59.9760335" lon="10.6760086"><ele>420.0</ele></trkpt>
    <trkpt lat="59.9760758" lon="10.6760901"><ele>420.0</ele></trkpt>
    <trkpt lat="59.976126" lon="10.6761987"><ele>420.0</ele></trkpt>
    <trkpt lat="59.9761898" lon="10.6763969"><ele>420.0</ele></trkpt>
    <trkpt lat="59.9762274" lon="10.6765169"><ele>420.0</ele></trkpt>
    <trkpt lat="59.9763174" lon="10.6767254"><ele>420.0</ele></trkpt>
    <trkpt lat="59.9764553" lon="10.6770551"><ele>420.0</ele></trkpt>
    <trkpt lat="59.9765195" lon="10.6771932"><ele>415.0</ele></trkpt>
    <trkpt lat="59.9765497" lon="10.6773242"><ele>415.0</ele></trkpt>
    <trkpt lat="59.9765856" lon="10.6774826"><ele>415.0</ele></trkpt>
    <trkpt lat="59.976621" lon="10.6776609"><ele>415.0</ele></trkpt>
    <trkpt lat="59.9766344" lon="10.6777541"><ele>415.0</ele></trkpt>
    <trkpt lat="59.9766436" lon="10.6778449"><ele>415.0</ele></trkpt>
    <trkpt lat="59.9766622" lon="10.6782891"><ele>415.0</ele></trkpt>
    <trkpt lat="59.9766767" lon="10.6784186"><ele>415.0</ele></trkpt>
    <trkpt lat="59.9766922" lon="10.6785244"><ele>415.0</ele></trkpt>
    <trkpt lat="59.9767136" lon="10.6786124"><ele>415.0</ele></trkpt>
    <trkpt lat="59.9767338" lon="10.6786933"><ele>415.0</ele></trkpt>
    <trkpt lat="59.9767935" lon="10.6788605"><ele>415.0</ele></trkpt>
    <trkpt lat="59.9768485" lon="10.6789703"><ele>415.0</ele></trkpt>
    <trkpt lat="59.9768862" lon="10.6790408"><ele>415.0</ele></trkpt>
    <trkpt lat="59.9769785" lon="10.679238"><ele>402.0</ele></trkpt>
    <trkpt lat="59.9770213" lon="10.6793547"><ele>402.0</ele></trkpt>
    <trkpt lat="59.977036" lon="10.67941"><ele>402.0</ele></trkpt>
    <trkpt lat="59.9770484" lon="10.6794697"><ele>402.0</ele></trkpt>
    <trkpt lat="59.9770641" lon="10.6795926"><ele>402.0</ele></trkpt>
    <trkpt lat="59.9770743" lon="10.6796734"><ele>402.0</ele></trkpt>
    <trkpt lat="59.9770857" lon="10.679753"><ele>428.0</ele></trkpt>
    <trkpt lat="59.9771226" lon="10.6799505"><ele>428.0</ele></trkpt>
    <trkpt lat="59.9771592" lon="10.6800973"><ele>428.0</ele></trkpt>
    <trkpt lat="59.9772026" lon="10.6802434"><ele>428.0</ele></trkpt>
    <trkpt lat="59.977239" lon="10.6803819"><ele>428.0</ele></trkpt>
    <trkpt lat="59.9772638" lon="10.6804725"><ele>428.0</ele></trkpt>
    <trkpt lat="59.9773474" lon="10.6807555"><ele>428.0</ele></trkpt>
    <trkpt lat="59.9773903" lon="10.6809191"><ele>428.0</ele></trkpt>
    <trkpt lat="59.9774183" lon="10.68105"><ele>428.0</ele></trkpt>
    <trkpt lat="59.9774376" lon="10.681137"><ele>428.0</ele></trkpt>
    <trkpt lat="59.9774631" lon="10.6812141"><ele>428.0</ele></trkpt>
    <trkpt lat="59.977494" lon="10.6812946"><ele>424.0</ele></trkpt>
    <trkpt lat="59.9775374" lon="10.6813849"><ele>424.0</ele></trkpt>
    <trkpt lat="59.9775863" lon="10.6814612"><ele>424.0</ele></trkpt>
    <trkpt lat="59.9776279" lon="10.6815285"><ele>424.0</ele></trkpt>
    <trkpt lat="59.9776854" lon="10.6816413"><ele>424.0</ele></trkpt>
    <trkpt lat="59.9777253" lon="10.6817187"><ele>424.0</ele></trkpt>
    <trkpt lat="59.9777656" lon="10.681804"><ele>424.0</ele></trkpt>
    <trkpt lat="59.9778211" lon="10.6819524"><ele>424.0</ele></trkpt>
    <trkpt lat="59.977882" lon="10.6820959"><ele>424.0</ele></trkpt>
    <trkpt lat="59.9779466" lon="10.6822266"><ele>424.0</ele></trkpt>
    <trkpt lat="59.978011" lon="10.6823507"><ele>424.0</ele></trkpt>
    <trkpt lat="59.9781082" lon="10.682523"><ele>424.0</ele></trkpt>
    <trkpt lat="59.9781982" lon="10.6826605"><ele>424.0</ele></trkpt>
    <trkpt lat="59.9782793" lon="10.6827725"><ele>424.0</ele></trkpt>
    <trkpt lat="59.9783383" lon="10.6827379"><ele>424.0</ele></trkpt>
    <trkpt lat="59.9783893" lon="10.6827011"><ele>424.0</ele></trkpt>
    <trkpt lat="59.9784133" lon="10.6826944"><ele>424.0</ele></trkpt>
    <trkpt lat="59.978426" lon="10.6826987"><ele>424.0</ele></trkpt>
    <trkpt lat="59.9784418" lon="10.6827194"><ele>424.0</ele></trkpt>
    <trkpt lat="59.9784583" lon="10.6827269"><ele>424.0</ele></trkpt>
    <trkpt lat="59.9785188" lon="10.682748"><ele>424.0</ele></trkpt>
    <trkpt lat="59.978568" lon="10.6827574"><ele>424.0</ele></trkpt>
    <trkpt lat="59.9786575" lon="10.6827879"><ele>424.0</ele></trkpt>
    <trkpt lat="59.978735" lon="10.6828106"><ele>424.0</ele></trkpt>
    <trkpt lat="59.9787806" lon="10.6828181"><ele>424.0</ele></trkpt>
    <trkpt lat="59.9789037" lon="10.6828154"><ele>424.0</ele></trkpt>
    <trkpt lat="59.978987" lon="10.6828115"><ele>424.0</ele></trkpt>
    <trkpt lat="59.9790514" lon="10.682808"><ele>424.0</ele></trkpt>
    <trkpt lat="59.979094" lon="10.6828194"><ele>424.0</ele></trkpt>
    <trkpt lat="59.9791436" lon="10.6828449"><ele>424.0</ele></trkpt>
    <trkpt lat="59.9791768" lon="10.6828534"><ele>454.0</ele></trkpt>
    <trkpt lat="59.9791419" lon="10.6827336"><ele>424.0</ele></trkpt>
    <trkpt lat="59.9790896" lon="10.6826062"><ele>424.0</ele></trkpt>
    <trkpt lat="59.9790208" lon="10.6824345"><ele>424.0</ele></trkpt>
    <trkpt lat="59.9789996" lon="10.6823696"><ele>424.0</ele></trkpt>
    <trkpt lat="59.9789725" lon="10.6822944"><ele>424.0</ele></trkpt>
    <trkpt lat="59.9789396" lon="10.6822112"><ele>424.0</ele></trkpt>
    <trkpt lat="59.9789131" lon="10.6821502"><ele>424.0</ele></trkpt>
    <trkpt lat="59.9788828" lon="10.6820933"><ele>424.0</ele></trkpt>
    <trkpt lat="59.9788174" lon="10.6819743"><ele>424.0</ele></trkpt>
    <trkpt lat="59.9786766" lon="10.6816982"><ele>424.0</ele></trkpt>
    <trkpt lat="59.9785126" lon="10.6814343"><ele>424.0</ele></trkpt>
    <trkpt lat="59.9784361" lon="10.6816602"><ele>424.0</ele></trkpt>
    <trkpt lat="59.9785035" lon="10.6814792"><ele>424.0</ele></trkpt>
    <trkpt lat="59.9785126" lon="10.6814343"><ele>424.0</ele></trkpt>
    <trkpt lat="59.9785267" lon="10.6813543"><ele>424.0</ele></trkpt>
    <trkpt lat="59.9785506" lon="10.6812466"><ele>428.0</ele></trkpt>
    <trkpt lat="59.9785697" lon="10.6811714"><ele>428.0</ele></trkpt>
    <trkpt lat="59.9786065" lon="10.6810753"><ele>428.0</ele></trkpt>
    <trkpt lat="59.978655" lon="10.6809665"><ele>428.0</ele></trkpt>
    <trkpt lat="59.9787373" lon="10.6807984"><ele>428.0</ele></trkpt>
    <trkpt lat="59.97878" lon="10.6807132"><ele>428.0</ele></trkpt>
    <trkpt lat="59.9788267" lon="10.6806309"><ele>428.0</ele></trkpt>
    <trkpt lat="59.9787874" lon="10.6809401"><ele>428.0</ele></trkpt>
    <trkpt lat="59.9787715" lon="10.6812314"><ele>428.0</ele></trkpt>
    <trkpt lat="59.978797" lon="10.6814879"><ele>424.0</ele></trkpt>
    <trkpt lat="59.978863" lon="10.6818359"><ele>424.0</ele></trkpt>
    <trkpt lat="59.9789396" lon="10.6822112"><ele>424.0</ele></trkpt>
    <trkpt lat="59.9791768" lon="10.6828534"><ele>454.0</ele></trkpt>
    <trkpt lat="59.9791419" lon="10.6827336"><ele>424.0</ele></trkpt>
    <trkpt lat="59.9790896" lon="10.6826062"><ele>424.0</ele></trkpt>
    <trkpt lat="59.9790208" lon="10.6824345"><ele>424.0</ele></trkpt>
    <trkpt lat="59.9789996" lon="10.6823696"><ele>424.0</ele></trkpt>
    <trkpt lat="59.9789725" lon="10.6822944"><ele>424.0</ele></trkpt>
    <trkpt lat="59.9789396" lon="10.6822112"><ele>424.0</ele></trkpt>
    <trkpt lat="59.9789131" lon="10.6821502"><ele>424.0</ele></trkpt>
    <trkpt lat="59.9788828" lon="10.6820933"><ele>424.0</ele></trkpt>
    <trkpt lat="59.9788049" lon="10.6820053"><ele>424.0</ele></trkpt>
    <trkpt lat="59.9787939" lon="10.6819975"><ele>424.0</ele></trkpt>
    <trkpt lat="59.9787316" lon="10.6819651"><ele>424.0</ele></trkpt>
    <trkpt lat="59.9786436" lon="10.6820752"><ele>424.0</ele></trkpt>
    <trkpt lat="59.9785432" lon="10.6823411"><ele>424.0</ele></trkpt>
    <trkpt lat="59.978529" lon="10.6823909"><ele>424.0</ele></trkpt>
    <trkpt lat="59.9785237" lon="10.6824095"><ele>424.0</ele></trkpt>
    <trkpt lat="59.9784772" lon="10.6825246"><ele>424.0</ele></trkpt>
    <trkpt lat="59.9784539" lon="10.6825948"><ele>424.0</ele></trkpt>
    <trkpt lat="59.9784428" lon="10.6826511"><ele>424.0</ele></trkpt>
    <trkpt lat="59.9784418" lon="10.6827194"><ele>424.0</ele></trkpt>
    <trkpt lat="59.978429" lon="10.6828295"><ele>424.0</ele></trkpt>
    <trkpt lat="59.9784267" lon="10.6829083"><ele>424.0</ele></trkpt>
    <trkpt lat="59.9784236" lon="10.6829793"><ele>424.0</ele></trkpt>
    <trkpt lat="59.9782793" lon="10.6827725"><ele>424.0</ele></trkpt>
    <trkpt lat="59.9784236" lon="10.6829793"><ele>424.0</ele></trkpt>
    <trkpt lat="59.9786646" lon="10.6833745"><ele>404.0</ele></trkpt>
    <trkpt lat="59.9787219" lon="10.683502"><ele>404.0</ele></trkpt>
    <trkpt lat="59.9787538" lon="10.6835952"><ele>404.0</ele></trkpt>
    <trkpt lat="59.9787837" lon="10.6836995"><ele>404.0</ele></trkpt>
    <trkpt lat="59.978793" lon="10.6837338"><ele>404.0</ele></trkpt>
    <trkpt lat="59.9788514" lon="10.6839808"><ele>404.0</ele></trkpt>
    <trkpt lat="59.9788793" lon="10.6841256"><ele>404.0</ele></trkpt>
    <trkpt lat="59.978902" lon="10.6842938"><ele>404.0</ele></trkpt>
    <trkpt lat="59.9789205" lon="10.6844549"><ele>404.0</ele></trkpt>
    <trkpt lat="59.9789279" lon="10.684532"><ele>404.0</ele></trkpt>
    <trkpt lat="59.9789283" lon="10.6846449"><ele>404.0</ele></trkpt>
    <trkpt lat="59.9789131" lon="10.6847577"><ele>404.0</ele></trkpt>
    <trkpt lat="59.978884" lon="10.6848827"><ele>404.0</ele></trkpt>
    <trkpt lat="59.9788453" lon="10.6850193"><ele>404.0</ele></trkpt>
    <trkpt lat="59.9787857" lon="10.6852045"><ele>404.0</ele></trkpt>
    <trkpt lat="59.9787492" lon="10.6853481"><ele>404.0</ele></trkpt>
    <trkpt lat="59.9787395" lon="10.6854489"><ele>397.0</ele></trkpt>
    <trkpt lat="59.9787379" lon="10.6855372"><ele>397.0</ele></trkpt>
    <trkpt lat="59.9787471" lon="10.6856981"><ele>397.0</ele></trkpt>
    <trkpt lat="59.9787752" lon="10.685993"><ele>397.0</ele></trkpt>
    <trkpt lat="59.9787904" lon="10.686144"><ele>397.0</ele></trkpt>
    <trkpt lat="59.9787984" lon="10.6862523"><ele>397.0</ele></trkpt>
    <trkpt lat="59.9788004" lon="10.6863507"><ele>397.0</ele></trkpt>
    <trkpt lat="59.9788006" lon="10.6865076"><ele>397.0</ele></trkpt>
    <trkpt lat="59.9787457" lon="10.6864133"><ele>397.0</ele></trkpt>
    <trkpt lat="59.9787773" lon="10.6864047"><ele>397.0</ele></trkpt>
    <trkpt lat="59.9788004" lon="10.6863507"><ele>397.0</ele></trkpt>
    <trkpt lat="59.9787984" lon="10.6862523"><ele>397.0</ele></trkpt>
    <trkpt lat="59.9787904" lon="10.686144"><ele>397.0</ele></trkpt>
    <trkpt lat="59.9787752" lon="10.685993"><ele>397.0</ele></trkpt>
    <trkpt lat="59.9787471" lon="10.6856981"><ele>397.0</ele></trkpt>
    <trkpt lat="59.9787379" lon="10.6855372"><ele>397.0</ele></trkpt>
    <trkpt lat="59.9787395" lon="10.6854489"><ele>397.0</ele></trkpt>
    <trkpt lat="59.9787492" lon="10.6853481"><ele>404.0</ele></trkpt>
    <trkpt lat="59.9787857" lon="10.6852045"><ele>404.0</ele></trkpt>
    <trkpt lat="59.9788453" lon="10.6850193"><ele>404.0</ele></trkpt>
    <trkpt lat="59.978884" lon="10.6848827"><ele>404.0</ele></trkpt>
    <trkpt lat="59.9789131" lon="10.6847577"><ele>404.0</ele></trkpt>
    <trkpt lat="59.9789283" lon="10.6846449"><ele>404.0</ele></trkpt>
    <trkpt lat="59.9790287" lon="10.6846956"><ele>404.0</ele></trkpt>
    <trkpt lat="59.9791728" lon="10.6847851"><ele>439.0</ele></trkpt>
    <trkpt lat="59.9792815" lon="10.6848941"><ele>439.0</ele></trkpt>
    <trkpt lat="59.9793765" lon="10.6850093"><ele>439.0</ele></trkpt>
    <trkpt lat="59.9795006" lon="10.6851979"><ele>439.0</ele></trkpt>
    <trkpt lat="59.9795451" lon="10.6853045"><ele>439.0</ele></trkpt>
    <trkpt lat="59.9795808" lon="10.685389"><ele>439.0</ele></trkpt>
    <trkpt lat="59.9796212" lon="10.6854611"><ele>420.0</ele></trkpt>
    <trkpt lat="59.9796734" lon="10.6856009"><ele>420.0</ele></trkpt>
    <trkpt lat="59.9797238" lon="10.6857273"><ele>420.0</ele></trkpt>
    <trkpt lat="59.9798295" lon="10.6858938"><ele>420.0</ele></trkpt>
    <trkpt lat="59.9800424" lon="10.686036"><ele>420.0</ele></trkpt>
    <trkpt lat="59.9800867" lon="10.6861044"><ele>420.0</ele></trkpt>
    <trkpt lat="59.9801598" lon="10.6862332"><ele>420.0</ele></trkpt>
    <trkpt lat="59.9802057" lon="10.6863523"><ele>420.0</ele></trkpt>
    <trkpt lat="59.9802652" lon="10.6865401"><ele>420.0</ele></trkpt>
    <trkpt lat="59.9803185" lon="10.6866449"><ele>420.0</ele></trkpt>
    <trkpt lat="59.9803403" lon="10.6867509"><ele>420.0</ele></trkpt>
    <trkpt lat="59.9803726" lon="10.686929"><ele>420.0</ele></trkpt>
    <trkpt lat="59.9804148" lon="10.6870754"><ele>420.0</ele></trkpt>
    <trkpt lat="59.9804674" lon="10.6872058"><ele>420.0</ele></trkpt>
    <trkpt lat="59.9805918" lon="10.6873852"><ele>420.0</ele></trkpt>
    <trkpt lat="59.9806845" lon="10.6874791"><ele>420.0</ele></trkpt>
    <trkpt lat="59.9807462" lon="10.6875595"><ele>403.0</ele></trkpt>
    <trkpt lat="59.9808529" lon="10.6877486"><ele>403.0</ele></trkpt>
    <trkpt lat="59.9809255" lon="10.6878305"><ele>403.0</ele></trkpt>
    <trkpt lat="59.98102" lon="10.6879371"><ele>403.0</ele></trkpt>
    <trkpt lat="59.9811043" lon="10.6880673"><ele>403.0</ele></trkpt>
    <trkpt lat="59.9812739" lon="10.6883136"><ele>421.0</ele></trkpt>
    <trkpt lat="59.9814203" lon="10.6886128"><ele>421.0</ele></trkpt>
    <trkpt lat="59.9815841" lon="10.6891033"><ele>421.0</ele></trkpt>
    <trkpt lat="59.9816845" lon="10.6891684"><ele>421.0</ele></trkpt>
    <trkpt lat="59.9819004" lon="10.6892463"><ele>421.0</ele></trkpt>
    <trkpt lat="59.9820572" lon="10.6892829"><ele>421.0</ele></trkpt>
    <trkpt lat="59.9821847" lon="10.6892997"><ele>421.0</ele></trkpt>
    <trkpt lat="59.9822789" lon="10.6891816"><ele>421.0</ele></trkpt>
    <trkpt lat="59.9823961" lon="10.6889694"><ele>421.0</ele></trkpt>
    <trkpt lat="59.982589" lon="10.6888271"><ele>421.0</ele></trkpt>
    <trkpt lat="59.982806" lon="10.688651"><ele>421.0</ele></trkpt>
    <trkpt lat="59.9829203" lon="10.6886153"><ele>421.0</ele></trkpt>
    <trkpt lat="59.9829992" lon="10.6886176"><ele>421.0</ele></trkpt>
    <trkpt lat="59.9831011" lon="10.6886657"><ele>421.0</ele></trkpt>
    <trkpt lat="59.9832204" lon="10.6887326"><ele>421.0</ele></trkpt>
    <trkpt lat="59.9834111" lon="10.6888221"><ele>445.0</ele></trkpt>
    <trkpt lat="59.9835377" lon="10.6889228"><ele>445.0</ele></trkpt>
    <trkpt lat="59.9836526" lon="10.6890483"><ele>445.0</ele></trkpt>
    <trkpt lat="59.9837556" lon="10.6891071"><ele>445.0</ele></trkpt>
    <trkpt lat="59.9839092" lon="10.6891931"><ele>445.0</ele></trkpt>
    <trkpt lat="59.9840043" lon="10.6891513"><ele>445.0</ele></trkpt>
    <trkpt lat="59.9841156" lon="10.6891434"><ele>445.0</ele></trkpt>
    <trkpt lat="59.9842795" lon="10.6890774"><ele>445.0</ele></trkpt>
    <trkpt lat="59.9843863" lon="10.6891023"><ele>445.0</ele></trkpt>
    <trkpt lat="59.9844984" lon="10.6891692"><ele>445.0</ele></trkpt>
    <trkpt lat="59.9846131" lon="10.6893964"><ele>445.0</ele></trkpt>
    <trkpt lat="59.9847823" lon="10.6895213"><ele>445.0</ele></trkpt>
    <trkpt lat="59.984984" lon="10.6895245"><ele>445.0</ele></trkpt>
    <trkpt lat="59.985184" lon="10.6894226"><ele>445.0</ele></trkpt>
    <trkpt lat="59.9853688" lon="10.6893731"><ele>445.0</ele></trkpt>
    <trkpt lat="59.9856265" lon="10.6892267"><ele>432.0</ele></trkpt>
    <trkpt lat="59.9857707" lon="10.6890083"><ele>432.0</ele></trkpt>
    <trkpt lat="59.9859687" lon="10.6888428"><ele>432.0</ele></trkpt>
    <trkpt lat="59.986159" lon="10.6886041"><ele>432.0</ele></trkpt>
    <trkpt lat="59.9862954" lon="10.688367"><ele>432.0</ele></trkpt>
    <trkpt lat="59.9864586" lon="10.6881058"><ele>432.0</ele></trkpt>
    <trkpt lat="59.9866356" lon="10.6880071"><ele>432.0</ele></trkpt>
    <trkpt lat="59.9867867" lon="10.6879339"><ele>432.0</ele></trkpt>
    <trkpt lat="59.9867613" lon="10.687919"><ele>432.0</ele></trkpt>
    <trkpt lat="59.9867" lon="10.6878948"><ele>432.0</ele></trkpt>
    <trkpt lat="59.9866387" lon="10.6878873"><ele>432.0</ele></trkpt>
    <trkpt lat="59.9865888" lon="10.6878942"><ele>432.0</ele></trkpt>
    <trkpt lat="59.986525" lon="10.6879081"><ele>432.0</ele></trkpt>
    <trkpt lat="59.9864299" lon="10.687929"><ele>432.0</ele></trkpt>
    <trkpt lat="59.9863664" lon="10.6879382"><ele>432.0</ele></trkpt>
    <trkpt lat="59.9862834" lon="10.6879237"><ele>432.0</ele></trkpt>
    <trkpt lat="59.9862076" lon="10.6878975"><ele>432.0</ele></trkpt>
    <trkpt lat="59.9861251" lon="10.6878593"><ele>432.0</ele></trkpt>
    <trkpt lat="59.9860838" lon="10.687848"><ele>432.0</ele></trkpt>
    <trkpt lat="59.9860439" lon="10.6878405"><ele>432.0</ele></trkpt>
    <trkpt lat="59.9860006" lon="10.6878392"><ele>432.0</ele></trkpt>
    <trkpt lat="59.9859432" lon="10.6878611"><ele>432.0</ele></trkpt>
    <trkpt lat="59.9859003" lon="10.6878895"><ele>432.0</ele></trkpt>
    <trkpt lat="59.9858641" lon="10.6879283"><ele>432.0</ele></trkpt>
    <trkpt lat="59.985822" lon="10.6879979"><ele>432.0</ele></trkpt>
    <trkpt lat="59.985747" lon="10.6881168"><ele>432.0</ele></trkpt>
    <trkpt lat="59.9856844" lon="10.6882161"><ele>432.0</ele></trkpt>
    <trkpt lat="59.9856256" lon="10.6882811"><ele>432.0</ele></trkpt>
    <trkpt lat="59.9855349" lon="10.6883316"><ele>432.0</ele></trkpt>
    <trkpt lat="59.9854532" lon="10.6883602"><ele>432.0</ele></trkpt>
    <trkpt lat="59.9853761" lon="10.6883823"><ele>445.0</ele></trkpt>
    <trkpt lat="59.9853085" lon="10.6883971"><ele>445.0</ele></trkpt>
    <trkpt lat="59.985234" lon="10.6884124"><ele>445.0</ele></trkpt>
    <trkpt lat="59.9850742" lon="10.6884541"><ele>445.0</ele></trkpt>
    <trkpt lat="59.9849212" lon="10.6885104"><ele>445.0</ele></trkpt>
    <trkpt lat="59.9847462" lon="10.6885725"><ele>445.0</ele></trkpt>
    <trkpt lat="59.9846489" lon="10.6885935"><ele>445.0</ele></trkpt>
    <trkpt lat="59.9845838" lon="10.6885976"><ele>445.0</ele></trkpt>
    <trkpt lat="59.9845243" lon="10.6885867"><ele>445.0</ele></trkpt>
    <trkpt lat="59.9844748" lon="10.6885667"><ele>445.0</ele></trkpt>
    <trkpt lat="59.9844352" lon="10.68855"><ele>445.0</ele></trkpt>
    <trkpt lat="59.9843767" lon="10.6885125"><ele>445.0</ele></trkpt>
    <trkpt lat="59.9842758" lon="10.6884373"><ele>445.0</ele></trkpt>
    <trkpt lat="59.9841246" lon="10.6882972"><ele>445.0</ele></trkpt>
    <trkpt lat="59.984003" lon="10.688194"><ele>445.0</ele></trkpt>
    <trkpt lat="59.9839422" lon="10.6881328"><ele>445.0</ele></trkpt>
    <trkpt lat="59.9838183" lon="10.6880008"><ele>445.0</ele></trkpt>
    <trkpt lat="59.9837636" lon="10.6879397"><ele>445.0</ele></trkpt>
    <trkpt lat="59.9836848" lon="10.6878573"><ele>445.0</ele></trkpt>
    <trkpt lat="59.9835929" lon="10.6877741"><ele>445.0</ele></trkpt>
    <trkpt lat="59.983535" lon="10.6877314"><ele>445.0</ele></trkpt>
    <trkpt lat="59.9833333" lon="10.6875857"><ele>445.0</ele></trkpt>
    <trkpt lat="59.983138" lon="10.6874214"><ele>448.0</ele></trkpt>
    <trkpt lat="59.9830428" lon="10.6873363"><ele>448.0</ele></trkpt>
    <trkpt lat="59.9828992" lon="10.6872263"><ele>448.0</ele></trkpt>
    <trkpt lat="59.982695" lon="10.687089"><ele>448.0</ele></trkpt>
    <trkpt lat="59.982656" lon="10.6870573"><ele>448.0</ele></trkpt>
    <trkpt lat="59.982606" lon="10.687005"><ele>448.0</ele></trkpt>
    <trkpt lat="59.9825149" lon="10.6868948"><ele>448.0</ele></trkpt>
    <trkpt lat="59.9824114" lon="10.6867515"><ele>448.0</ele></trkpt>
    <trkpt lat="59.9823742" lon="10.6866898"><ele>448.0</ele></trkpt>
    <trkpt lat="59.9823487" lon="10.6866429"><ele>448.0</ele></trkpt>
    <trkpt lat="59.9822715" lon="10.686464"><ele>448.0</ele></trkpt>
    <trkpt lat="59.9822404" lon="10.6864028"><ele>448.0</ele></trkpt>
    <trkpt lat="59.9822025" lon="10.6863412"><ele>448.0</ele></trkpt>
    <trkpt lat="59.9821186" lon="10.6862225"><ele>448.0</ele></trkpt>
    <trkpt lat="59.9820304" lon="10.6861098"><ele>448.0</ele></trkpt>
    <trkpt lat="59.9819031" lon="10.6859196"><ele>448.0</ele></trkpt>
    <trkpt lat="59.9818608" lon="10.6858493"><ele>448.0</ele></trkpt>
    <trkpt lat="59.981815" lon="10.6857826"><ele>448.0</ele></trkpt>
    <trkpt lat="59.9817754" lon="10.6857269"><ele>448.0</ele></trkpt>
    <trkpt lat="59.9817524" lon="10.6857037"><ele>448.0</ele></trkpt>
    <trkpt lat="59.9817207" lon="10.6856847"><ele>448.0</ele></trkpt>
    <trkpt lat="59.981657" lon="10.6856579"><ele>448.0</ele></trkpt>
    <trkpt lat="59.9815643" lon="10.6856273"><ele>448.0</ele></trkpt>
    <trkpt lat="59.9815248" lon="10.6856076"><ele>448.0</ele></trkpt>
    <trkpt lat="59.9814859" lon="10.6855841"><ele>448.0</ele></trkpt>
    <trkpt lat="59.9814421" lon="10.6855564"><ele>448.0</ele></trkpt>
    <trkpt lat="59.981371" lon="10.6854912"><ele>448.0</ele></trkpt>
    <trkpt lat="59.9812705" lon="10.6853937"><ele>455.0</ele></trkpt>
    <trkpt lat="59.9810815" lon="10.6852005"><ele>439.0</ele></trkpt>
    <trkpt lat="59.9810344" lon="10.6851422"><ele>439.0</ele></trkpt>
    <trkpt lat="59.9809458" lon="10.6850443"><ele>439.0</ele></trkpt>
    <trkpt lat="59.9807824" lon="10.6848586"><ele>439.0</ele></trkpt>
    <trkpt lat="59.9807133" lon="10.6847928"><ele>439.0</ele></trkpt>
    <trkpt lat="59.9806246" lon="10.6846956"><ele>439.0</ele></trkpt>
    <trkpt lat="59.9804386" lon="10.6845007"><ele>439.0</ele></trkpt>
    <trkpt lat="59.9803906" lon="10.6844515"><ele>439.0</ele></trkpt>
    <trkpt lat="59.9803222" lon="10.6843744"><ele>439.0</ele></trkpt>
    <trkpt lat="59.980239" lon="10.6842577"><ele>439.0</ele></trkpt>
    <trkpt lat="59.9801393" lon="10.6841149"><ele>439.0</ele></trkpt>
    <trkpt lat="59.9800431" lon="10.6840029"><ele>439.0</ele></trkpt>
    <trkpt lat="59.9799783" lon="10.6839225"><ele>439.0</ele></trkpt>
    <trkpt lat="59.9798976" lon="10.6838473"><ele>439.0</ele></trkpt>
    <trkpt lat="59.9801343" lon="10.6839355"><ele>439.0</ele></trkpt>
    <trkpt lat="59.9804062" lon="10.6839913"><ele>439.0</ele></trkpt>
    <trkpt lat="59.9806198" lon="10.6839983"><ele>439.0</ele></trkpt>
    <trkpt lat="59.9808264" lon="10.6839703"><ele>439.0</ele></trkpt>
    <trkpt lat="59.9813061" lon="10.6839283"><ele>455.0</ele></trkpt>
    <trkpt lat="59.9815678" lon="10.6839545"><ele>455.0</ele></trkpt>
    <trkpt lat="59.9817504" lon="10.6838786"><ele>455.0</ele></trkpt>
    <trkpt lat="59.98199" lon="10.683889"><ele>455.0</ele></trkpt>
    <trkpt lat="59.9822629" lon="10.6840107"><ele>455.0</ele></trkpt>
    <trkpt lat="59.9826923" lon="10.6841977"><ele>455.0</ele></trkpt>
    <trkpt lat="59.9830551" lon="10.6843361"><ele>455.0</ele></trkpt>
    <trkpt lat="59.983381" lon="10.6844729"><ele>468.0</ele></trkpt>
    <trkpt lat="59.9834876" lon="10.684483"><ele>468.0</ele></trkpt>
    <trkpt lat="59.9836026" lon="10.6844182"><ele>468.0</ele></trkpt>
    <trkpt lat="59.9837576" lon="10.6842961"><ele>468.0</ele></trkpt>
    <trkpt lat="59.9838451" lon="10.6842966"><ele>468.0</ele></trkpt>
    <trkpt lat="59.9839346" lon="10.6843194"><ele>468.0</ele></trkpt>
    <trkpt lat="59.9840598" lon="10.6844227"><ele>468.0</ele></trkpt>
    <trkpt lat="59.9841783" lon="10.6845593"><ele>468.0</ele></trkpt>
    <trkpt lat="59.9843404" lon="10.6848554"><ele>468.0</ele></trkpt>
    <trkpt lat="59.9844519" lon="10.6850182"><ele>468.0</ele></trkpt>
    <trkpt lat="59.9845858" lon="10.6850772"><ele>468.0</ele></trkpt>
    <trkpt lat="59.9852964" lon="10.685133"><ele>468.0</ele></trkpt>
    <trkpt lat="59.9855671" lon="10.6852024"><ele>462.0</ele></trkpt>
    <trkpt lat="59.9857266" lon="10.6853767"><ele>462.0</ele></trkpt>
    <trkpt lat="59.9858751" lon="10.6856068"><ele>457.0</ele></trkpt>
    <trkpt lat="59.9860756" lon="10.6856615"><ele>457.0</ele></trkpt>
    <trkpt lat="59.9861714" lon="10.6856068"><ele>457.0</ele></trkpt>
    <trkpt lat="59.9862739" lon="10.6853471"><ele>462.0</ele></trkpt>
    <trkpt lat="59.9864928" lon="10.6847182"><ele>462.0</ele></trkpt>
    <trkpt lat="59.9866979" lon="10.6834606"><ele>462.0</ele></trkpt>
    <trkpt lat="59.9868197" lon="10.6829662"><ele>473.0</ele></trkpt>
    <trkpt lat="59.9869331" lon="10.6827803"><ele>473.0</ele></trkpt>
    <trkpt lat="59.986993" lon="10.6826124"><ele>473.0</ele></trkpt>
    <trkpt lat="59.9870231" lon="10.6824693"><ele>473.0</ele></trkpt>
    <trkpt lat="59.9870354" lon="10.6821838"><ele>473.0</ele></trkpt>
    <trkpt lat="59.9870856" lon="10.6818093"><ele>473.0</ele></trkpt>
    <trkpt lat="59.9870021" lon="10.6817496"><ele>473.0</ele></trkpt>
    <trkpt lat="59.9868541" lon="10.6814501"><ele>473.0</ele></trkpt>
    <trkpt lat="59.9868157" lon="10.6814041"><ele>473.0</ele></trkpt>
    <trkpt lat="59.9867559" lon="10.6813642"><ele>473.0</ele></trkpt>
    <trkpt lat="59.9866581" lon="10.6813339"><ele>473.0</ele></trkpt>
    <trkpt lat="59.9863644" lon="10.681304"><ele>473.0</ele></trkpt>
    <trkpt lat="59.9861388" lon="10.6811518"><ele>480.0</ele></trkpt>
    <trkpt lat="59.9860534" lon="10.6810732"><ele>480.0</ele></trkpt>
    <trkpt lat="59.985966" lon="10.6809083"><ele>480.0</ele></trkpt>
    <trkpt lat="59.9859336" lon="10.6807257"><ele>480.0</ele></trkpt>
    <trkpt lat="59.9859117" lon="10.6805802"><ele>480.0</ele></trkpt>
    <trkpt lat="59.9859101" lon="10.6805"><ele>480.0</ele></trkpt>
    <trkpt lat="59.9859132" lon="10.680409"><ele>480.0</ele></trkpt>
    <trkpt lat="59.9859563" lon="10.6802299"><ele>480.0</ele></trkpt>
    <trkpt lat="59.9860325" lon="10.6801634"><ele>480.0</ele></trkpt>
    <trkpt lat="59.9861367" lon="10.6801083"><ele>480.0</ele></trkpt>
    <trkpt lat="59.9862272" lon="10.6800205"><ele>480.0</ele></trkpt>
    <trkpt lat="59.9862802" lon="10.6799764"><ele>480.0</ele></trkpt>
    <trkpt lat="59.9863236" lon="10.6798783"><ele>480.0</ele></trkpt>
    <trkpt lat="59.9863769" lon="10.6797465"><ele>480.0</ele></trkpt>
    <trkpt lat="59.9864122" lon="10.6795431"><ele>480.0</ele></trkpt>
    <trkpt lat="59.9864433" lon="10.6793185"><ele>480.0</ele></trkpt>
    <trkpt lat="59.98644" lon="10.6792071"><ele>480.0</ele></trkpt>
    <trkpt lat="59.9864075" lon="10.6790447"><ele>481.0</ele></trkpt>
    <trkpt lat="59.9863595" lon="10.678833"><ele>481.0</ele></trkpt>
    <trkpt lat="59.9862562" lon="10.6785051"><ele>481.0</ele></trkpt>
    <trkpt lat="59.986223" lon="10.6782074"><ele>481.0</ele></trkpt>
    <trkpt lat="59.986189" lon="10.677991"><ele>481.0</ele></trkpt>
    <trkpt lat="59.9861001" lon="10.6777384"><ele>481.0</ele></trkpt>
    <trkpt lat="59.9863209" lon="10.6776381"><ele>481.0</ele></trkpt>
    <trkpt lat="59.9864561" lon="10.6775402"><ele>481.0</ele></trkpt>
    <trkpt lat="59.986548" lon="10.6774882"><ele>481.0</ele></trkpt>
    <trkpt lat="59.98666" lon="10.6773886"><ele>481.0</ele></trkpt>
    <trkpt lat="59.9867779" lon="10.6773094"><ele>481.0</ele></trkpt>
    <trkpt lat="59.9869867" lon="10.6771861"><ele>481.0</ele></trkpt>
    <trkpt lat="59.9871273" lon="10.6771378"><ele>481.0</ele></trkpt>
    <trkpt lat="59.9874439" lon="10.6771341"><ele>481.0</ele></trkpt>
    <trkpt lat="59.9882644" lon="10.6772792"><ele>474.0</ele></trkpt>
    <trkpt lat="59.9884882" lon="10.677369"><ele>474.0</ele></trkpt>
    <trkpt lat="59.9886945" lon="10.6773313"><ele>474.0</ele></trkpt>
    <trkpt lat="59.9888384" lon="10.6772401"><ele>474.0</ele></trkpt>
    <trkpt lat="59.989098" lon="10.677184"><ele>474.0</ele></trkpt>
    <trkpt lat="59.9894441" lon="10.6769988"><ele>484.0</ele></trkpt>
    <trkpt lat="59.9896234" lon="10.6769709"><ele>488.0</ele></trkpt>
    <trkpt lat="59.9896712" lon="10.6769641"><ele>488.0</ele></trkpt>
    <trkpt lat="59.9898219" lon="10.6770593"><ele>488.0</ele></trkpt>
    <trkpt lat="59.9899789" lon="10.6771253"><ele>463.0</ele></trkpt>
    <trkpt lat="59.9902388" lon="10.6772181"><ele>463.0</ele></trkpt>
    <trkpt lat="59.990536" lon="10.6772423"><ele>463.0</ele></trkpt>
    <trkpt lat="59.9910033" lon="10.6774918"><ele>463.0</ele></trkpt>
    <trkpt lat="59.99115" lon="10.6775159"><ele>463.0</ele></trkpt>
    <trkpt lat="59.9917692" lon="10.6773038"><ele>442.0</ele></trkpt>
    <trkpt lat="59.9919744" lon="10.6772479"><ele>442.0</ele></trkpt>
    <trkpt lat="59.9923774" lon="10.677138"><ele>442.0</ele></trkpt>
    <trkpt lat="59.992792" lon="10.676939"><ele>465.0</ele></trkpt>
    <trkpt lat="59.9929835" lon="10.6768682"><ele>465.0</ele></trkpt>
    <trkpt lat="59.9932721" lon="10.676874"><ele>465.0</ele></trkpt>
    <trkpt lat="59.9934755" lon="10.6769076"><ele>465.0</ele></trkpt>
    <trkpt lat="59.9936131" lon="10.6769079"><ele>465.0</ele></trkpt>
    <trkpt lat="59.9937944" lon="10.6768424"><ele>433.0</ele></trkpt>
    <trkpt lat="59.9939115" lon="10.6767657"><ele>433.0</ele></trkpt>
    <trkpt lat="59.9940175" lon="10.6766671"><ele>433.0</ele></trkpt>
    <trkpt lat="59.9940634" lon="10.6766349"><ele>433.0</ele></trkpt>
    <trkpt lat="59.9940892" lon="10.676659"><ele>433.0</ele></trkpt>
    <trkpt lat="59.994102" lon="10.6767402"><ele>433.0</ele></trkpt>
    <trkpt lat="59.9941058" lon="10.6767759"><ele>433.0</ele></trkpt>
    <trkpt lat="59.9942348" lon="10.6767201"><ele>433.0</ele></trkpt>
    <trkpt lat="59.9943132" lon="10.6766818"><ele>433.0</ele></trkpt>
    <trkpt lat="59.9943651" lon="10.6766498"><ele>433.0</ele></trkpt>
    <trkpt lat="59.9943937" lon="10.6766289"><ele>433.0</ele></trkpt>
    <trkpt lat="59.9944242" lon="10.6766"><ele>433.0</ele></trkpt>
    <trkpt lat="59.9944863" lon="10.6765417"><ele>433.0</ele></trkpt>
    <trkpt lat="59.9945652" lon="10.6764559"><ele>433.0</ele></trkpt>
    <trkpt lat="59.9946654" lon="10.6763587"><ele>433.0</ele></trkpt>
    <trkpt lat="59.9947431" lon="10.676191"><ele>433.0</ele></trkpt>
    <trkpt lat="59.99489" lon="10.6759415"><ele>433.0</ele></trkpt>
    <trkpt lat="59.9953384" lon="10.6751603"><ele>433.0</ele></trkpt>
    <trkpt lat="59.9954615" lon="10.674874"><ele>448.0</ele></trkpt>
    <trkpt lat="59.9954624" lon="10.6747647"><ele>448.0</ele></trkpt>
    <trkpt lat="59.9954725" lon="10.6746709"><ele>448.0</ele></trkpt>
    <trkpt lat="59.9954902" lon="10.674583"><ele>448.0</ele></trkpt>
    <trkpt lat="59.9955225" lon="10.6744738"><ele>448.0</ele></trkpt>
    <trkpt lat="59.9955555" lon="10.6743815"><ele>448.0</ele></trkpt>
    <trkpt lat="59.9955885" lon="10.6742715"><ele>448.0</ele></trkpt>
    <trkpt lat="59.9956229" lon="10.6741626"><ele>448.0</ele></trkpt>
    <trkpt lat="59.9956376" lon="10.6740955"><ele>448.0</ele></trkpt>
    <trkpt lat="59.9956528" lon="10.6740265"><ele>448.0</ele></trkpt>
    <trkpt lat="59.9956663" lon="10.6739473"><ele>448.0</ele></trkpt>
    <trkpt lat="59.995675" lon="10.6738682"><ele>448.0</ele></trkpt>
    <trkpt lat="59.9956782" lon="10.6737854"><ele>448.0</ele></trkpt>
    <trkpt lat="59.9956772" lon="10.6737029"><ele>448.0</ele></trkpt>
    <trkpt lat="59.9956696" lon="10.6735251"><ele>448.0</ele></trkpt>
    <trkpt lat="59.9956548" lon="10.6733193"><ele>448.0</ele></trkpt>
    <trkpt lat="59.9956492" lon="10.6731105"><ele>448.0</ele></trkpt>
    <trkpt lat="59.9956462" lon="10.6728643"><ele>447.0</ele></trkpt>
    <trkpt lat="59.9956448" lon="10.6727269"><ele>447.0</ele></trkpt>
    <trkpt lat="59.9956425" lon="10.6726418"><ele>447.0</ele></trkpt>
    <trkpt lat="59.9956388" lon="10.6725754"><ele>447.0</ele></trkpt>
    <trkpt lat="59.9956309" lon="10.6725026"><ele>447.0</ele></trkpt>
    <trkpt lat="59.9956167" lon="10.6724259"><ele>447.0</ele></trkpt>
    <trkpt lat="59.9955882" lon="10.6723259"><ele>447.0</ele></trkpt>
    <trkpt lat="59.9955362" lon="10.672159"><ele>447.0</ele></trkpt>
    <trkpt lat="59.9954845" lon="10.6719726"><ele>447.0</ele></trkpt>
    <trkpt lat="59.9954514" lon="10.6718564"><ele>447.0</ele></trkpt>
    <trkpt lat="59.9954242" lon="10.6717892"><ele>447.0</ele></trkpt>
    <trkpt lat="59.9953997" lon="10.6717338"><ele>447.0</ele></trkpt>
    <trkpt lat="59.9953749" lon="10.6716929"><ele>447.0</ele></trkpt>
    <trkpt lat="59.9953501" lon="10.6716688"><ele>447.0</ele></trkpt>
    <trkpt lat="59.9953358" lon="10.6716571"><ele>447.0</ele></trkpt>
    <trkpt lat="59.9953184" lon="10.6716448"><ele>447.0</ele></trkpt>
    <trkpt lat="59.9952817" lon="10.6716302"><ele>447.0</ele></trkpt>
    <trkpt lat="59.9950463" lon="10.6715795"><ele>447.0</ele></trkpt>
    <trkpt lat="59.9950161" lon="10.6715732"><ele>447.0</ele></trkpt>
    <trkpt lat="59.9949812" lon="10.6715595"><ele>447.0</ele></trkpt>
    <trkpt lat="59.9949477" lon="10.6715387"><ele>447.0</ele></trkpt>
    <trkpt lat="59.994741" lon="10.6713203"><ele>447.0</ele></trkpt>
    <trkpt lat="59.994661" lon="10.6712443"><ele>447.0</ele></trkpt>
    <trkpt lat="59.9945429" lon="10.6711022"><ele>447.0</ele></trkpt>
    <trkpt lat="59.9944703" lon="10.6710056"><ele>447.0</ele></trkpt>
    <trkpt lat="59.9944457" lon="10.6709733"><ele>447.0</ele></trkpt>
    <trkpt lat="59.9944123" lon="10.6709158"><ele>447.0</ele></trkpt>
    <trkpt lat="59.9943905" lon="10.6708712"><ele>447.0</ele></trkpt>
    <trkpt lat="59.9943734" lon="10.6708262"><ele>446.0</ele></trkpt>
    <trkpt lat="59.9943609" lon="10.6707846"><ele>446.0</ele></trkpt>
    <trkpt lat="59.9943548" lon="10.6707538"><ele>446.0</ele></trkpt>
    <trkpt lat="59.9943481" lon="10.6707029"><ele>446.0</ele></trkpt>
    <trkpt lat="59.9943427" lon="10.6706516"><ele>446.0</ele></trkpt>
    <trkpt lat="59.9943399" lon="10.6706087"><ele>446.0</ele></trkpt>
    <trkpt lat="59.994267" lon="10.6705463"><ele>446.0</ele></trkpt>
    <trkpt lat="59.9942163" lon="10.6704357"><ele>446.0</ele></trkpt>
    <trkpt lat="59.9940569" lon="10.6699959"><ele>446.0</ele></trkpt>
    <trkpt lat="59.99403" lon="10.6699251"><ele>446.0</ele></trkpt>
    <trkpt lat="59.9939711" lon="10.6699281"><ele>446.0</ele></trkpt>
    <trkpt lat="59.9938984" lon="10.6699542"><ele>446.0</ele></trkpt>
    <trkpt lat="59.9938447" lon="10.67001"><ele>446.0</ele></trkpt>
    <trkpt lat="59.9936916" lon="10.6701338"><ele>468.0</ele></trkpt>
    <trkpt lat="59.9935664" lon="10.6702507"><ele>468.0</ele></trkpt>
    <trkpt lat="59.9934471" lon="10.6703673"><ele>468.0</ele></trkpt>
    <trkpt lat="59.9933069" lon="10.6705295"><ele>468.0</ele></trkpt>
    <trkpt lat="59.9931629" lon="10.6707181"><ele>468.0</ele></trkpt>
    <trkpt lat="59.9929805" lon="10.6710566"><ele>473.0</ele></trkpt>
    <trkpt lat="59.9929099" lon="10.6712488"><ele>473.0</ele></trkpt>
    <trkpt lat="59.992703" lon="10.6715676"><ele>473.0</ele></trkpt>
    <trkpt lat="59.992525" lon="10.6719421"><ele>473.0</ele></trkpt>
    <trkpt lat="59.9923437" lon="10.6723822"><ele>473.0</ele></trkpt>
    <trkpt lat="59.9922556" lon="10.6725848"><ele>473.0</ele></trkpt>
    <trkpt lat="59.9919382" lon="10.6730502"><ele>478.0</ele></trkpt>
    <trkpt lat="59.9917387" lon="10.6733455"><ele>478.0</ele></trkpt>
    <trkpt lat="59.99161" lon="10.6734514"><ele>500.0</ele></trkpt>
    <trkpt lat="59.991408" lon="10.6735842"><ele>500.0</ele></trkpt>
    <trkpt lat="59.9910368" lon="10.6739017"><ele>500.0</ele></trkpt>
    <trkpt lat="59.9907514" lon="10.6740364"><ele>500.0</ele></trkpt>
    <trkpt lat="59.9905579" lon="10.6739637"><ele>500.0</ele></trkpt>
    <trkpt lat="59.9903102" lon="10.6739368"><ele>500.0</ele></trkpt>
    <trkpt lat="59.9902225" lon="10.6739177"><ele>500.0</ele></trkpt>
    <trkpt lat="59.9900926" lon="10.673844"><ele>500.0</ele></trkpt>
    <trkpt lat="59.9900095" lon="10.673763"><ele>500.0</ele></trkpt>
    <trkpt lat="59.9898851" lon="10.6736786"><ele>500.0</ele></trkpt>
    <trkpt lat="59.9898048" lon="10.6736493"><ele>500.0</ele></trkpt>
    <trkpt lat="59.9896904" lon="10.6736362"><ele>500.0</ele></trkpt>
    <trkpt lat="59.989523" lon="10.6735479"><ele>501.0</ele></trkpt>
    <trkpt lat="59.9894236" lon="10.6734564"><ele>501.0</ele></trkpt>
    <trkpt lat="59.9891959" lon="10.6730239"><ele>501.0</ele></trkpt>
    <trkpt lat="59.9890832" lon="10.6726924"><ele>515.0</ele></trkpt>
    <trkpt lat="59.9889545" lon="10.6723037"><ele>515.0</ele></trkpt>
    <trkpt lat="59.9888191" lon="10.6721473"><ele>515.0</ele></trkpt>
    <trkpt lat="59.9887115" lon="10.671982"><ele>515.0</ele></trkpt>
    <trkpt lat="59.9885643" lon="10.6717476"><ele>515.0</ele></trkpt>
    <trkpt lat="59.9884823" lon="10.6715642"><ele>515.0</ele></trkpt>
    <trkpt lat="59.9883931" lon="10.6712747"><ele>515.0</ele></trkpt>
    <trkpt lat="59.9883129" lon="10.67103"><ele>515.0</ele></trkpt>
    <trkpt lat="59.9882653" lon="10.6709741"><ele>515.0</ele></trkpt>
    <trkpt lat="59.9882462" lon="10.6709661"><ele>515.0</ele></trkpt>
    <trkpt lat="59.9882237" lon="10.6709667"><ele>515.0</ele></trkpt>
    <trkpt lat="59.9881979" lon="10.6709714"><ele>515.0</ele></trkpt>
    <trkpt lat="59.9881669" lon="10.6708323"><ele>531.0</ele></trkpt>
    <trkpt lat="59.9881432" lon="10.6707863"><ele>531.0</ele></trkpt>
    <trkpt lat="59.9880955" lon="10.6707171"><ele>531.0</ele></trkpt>
    <trkpt lat="59.9880211" lon="10.6706221"><ele>531.0</ele></trkpt>
    <trkpt lat="59.9879453" lon="10.6705067"><ele>531.0</ele></trkpt>
    <trkpt lat="59.9878846" lon="10.6703894"><ele>531.0</ele></trkpt>
    <trkpt lat="59.9879627" lon="10.6703437"><ele>531.0</ele></trkpt>
    <trkpt lat="59.9880637" lon="10.670266"><ele>531.0</ele></trkpt>
    <trkpt lat="59.988169" lon="10.6701507"><ele>531.0</ele></trkpt>
    <trkpt lat="59.9881937" lon="10.6701185"><ele>531.0</ele></trkpt>
    <trkpt lat="59.9882101" lon="10.6700988"><ele>531.0</ele></trkpt>
    <trkpt lat="59.9882624" lon="10.6699503"><ele>531.0</ele></trkpt>
    <trkpt lat="59.9881669" lon="10.6708323"><ele>531.0</ele></trkpt>
    <trkpt lat="59.9881905" lon="10.6709044"><ele>515.0</ele></trkpt>
    <trkpt lat="59.9881979" lon="10.6709714"><ele>515.0</ele></trkpt>
    <trkpt lat="59.9881952" lon="10.6710398"><ele>515.0</ele></trkpt>
    <trkpt lat="59.9881616" lon="10.6712353"><ele>515.0</ele></trkpt>
    <trkpt lat="59.9881238" lon="10.6713887"><ele>515.0</ele></trkpt>
    <trkpt lat="59.9880805" lon="10.6715273"><ele>515.0</ele></trkpt>
    <trkpt lat="59.9880476" lon="10.6716115"><ele>515.0</ele></trkpt>
    <trkpt lat="59.9880093" lon="10.6716898"><ele>515.0</ele></trkpt>
    <trkpt lat="59.9879799" lon="10.6717332"><ele>515.0</ele></trkpt>
    <trkpt lat="59.987944" lon="10.6717768"><ele>515.0</ele></trkpt>
    <trkpt lat="59.9878748" lon="10.6718627"><ele>515.0</ele></trkpt>
    <trkpt lat="59.987779" lon="10.6719665"><ele>515.0</ele></trkpt>
    <trkpt lat="59.9877185" lon="10.6720453"><ele>515.0</ele></trkpt>
    <trkpt lat="59.9876756" lon="10.6720946"><ele>515.0</ele></trkpt>
    <trkpt lat="59.9876324" lon="10.6721335"><ele>515.0</ele></trkpt>
    <trkpt lat="59.9875656" lon="10.6721777"><ele>515.0</ele></trkpt>
    <trkpt lat="59.9874241" lon="10.6722596"><ele>519.0</ele></trkpt>
    <trkpt lat="59.9872926" lon="10.672344"><ele>519.0</ele></trkpt>
    <trkpt lat="59.9872182" lon="10.6724004"><ele>519.0</ele></trkpt>
    <trkpt lat="59.9871452" lon="10.6724748"><ele>519.0</ele></trkpt>
    <trkpt lat="59.9871135" lon="10.672515"><ele>519.0</ele></trkpt>
    <trkpt lat="59.9870069" lon="10.6726214"><ele>519.0</ele></trkpt>
    <trkpt lat="59.9869806" lon="10.672645"><ele>519.0</ele></trkpt>
    <trkpt lat="59.9869213" lon="10.6726793"><ele>519.0</ele></trkpt>
    <trkpt lat="59.986817" lon="10.6727222"><ele>519.0</ele></trkpt>
    <trkpt lat="59.9867596" lon="10.672749"><ele>519.0</ele></trkpt>
    <trkpt lat="59.9866873" lon="10.6727832"><ele>519.0</ele></trkpt>
    <trkpt lat="59.9866268" lon="10.6728329"><ele>519.0</ele></trkpt>
    <trkpt lat="59.9865527" lon="10.6729187"><ele>503.0</ele></trkpt>
    <trkpt lat="59.9864923" lon="10.6729891"><ele>503.0</ele></trkpt>
    <trkpt lat="59.9864625" lon="10.6730213"><ele>503.0</ele></trkpt>
    <trkpt lat="59.986433" lon="10.6730421"><ele>503.0</ele></trkpt>
    <trkpt lat="59.9864056" lon="10.6730585"><ele>503.0</ele></trkpt>
    <trkpt lat="59.9863699" lon="10.6730723"><ele>503.0</ele></trkpt>
    <trkpt lat="59.986332" lon="10.673083"><ele>503.0</ele></trkpt>
    <trkpt lat="59.986279" lon="10.6730904"><ele>503.0</ele></trkpt>
    <trkpt lat="59.986215" lon="10.673085"><ele>503.0</ele></trkpt>
    <trkpt lat="59.9861371" lon="10.6730729"><ele>503.0</ele></trkpt>
    <trkpt lat="59.9859896" lon="10.6730619"><ele>503.0</ele></trkpt>
    <trkpt lat="59.985798" lon="10.6730065"><ele>503.0</ele></trkpt>
    <trkpt lat="59.9856016" lon="10.672943"><ele>503.0</ele></trkpt>
    <trkpt lat="59.98542" lon="10.6728671"><ele>519.0</ele></trkpt>
    <trkpt lat="59.9853174" lon="10.6728154"><ele>496.0</ele></trkpt>
    <trkpt lat="59.9852279" lon="10.6727618"><ele>496.0</ele></trkpt>
    <trkpt lat="59.9850658" lon="10.672627"><ele>496.0</ele></trkpt>
    <trkpt lat="59.9849672" lon="10.6725551"><ele>496.0</ele></trkpt>
    <trkpt lat="59.9848498" lon="10.6725291"><ele>496.0</ele></trkpt>
    <trkpt lat="59.9807926" lon="10.6777449"><ele>475.0</ele></trkpt>
    <trkpt lat="59.9809008" lon="10.6776386"><ele>475.0</ele></trkpt>
    <trkpt lat="59.9810854" lon="10.6774704"><ele>475.0</ele></trkpt>
    <trkpt lat="59.9812617" lon="10.677288"><ele>481.0</ele></trkpt>
    <trkpt lat="59.9815185" lon="10.6770419"><ele>486.0</ele></trkpt>
    <trkpt lat="59.9816426" lon="10.6769306"><ele>486.0</ele></trkpt>
    <trkpt lat="59.9817306" lon="10.6768577"><ele>486.0</ele></trkpt>
    <trkpt lat="59.9818415" lon="10.6767784"><ele>486.0</ele></trkpt>
    <trkpt lat="59.9818928" lon="10.6767469"><ele>486.0</ele></trkpt>
    <trkpt lat="59.9819609" lon="10.6767134"><ele>486.0</ele></trkpt>
    <trkpt lat="59.9820468" lon="10.6766805"><ele>486.0</ele></trkpt>
    <trkpt lat="59.9821453" lon="10.6766508"><ele>486.0</ele></trkpt>
    <trkpt lat="59.9822155" lon="10.6766362"><ele>486.0</ele></trkpt>
    <trkpt lat="59.9823004" lon="10.6766262"><ele>486.0</ele></trkpt>
    <trkpt lat="59.9824057" lon="10.6766275"><ele>486.0</ele></trkpt>
    <trkpt lat="59.9825137" lon="10.6766396"><ele>486.0</ele></trkpt>
    <trkpt lat="59.9826506" lon="10.6766684"><ele>486.0</ele></trkpt>
    <trkpt lat="59.9827576" lon="10.6767073"><ele>486.0</ele></trkpt>
    <trkpt lat="59.9828779" lon="10.6767603"><ele>486.0</ele></trkpt>
    <trkpt lat="59.9830244" lon="10.6768185"><ele>486.0</ele></trkpt>
    <trkpt lat="59.9832135" lon="10.6769004"><ele>486.0</ele></trkpt>
    <trkpt lat="59.9834564" lon="10.6770091"><ele>493.0</ele></trkpt>
    <trkpt lat="59.9835932" lon="10.6770641"><ele>493.0</ele></trkpt>
    <trkpt lat="59.9836879" lon="10.677093"><ele>485.0</ele></trkpt>
    <trkpt lat="59.9837757" lon="10.6771164"><ele>485.0</ele></trkpt>
    <trkpt lat="59.9838405" lon="10.677117"><ele>485.0</ele></trkpt>
    <trkpt lat="59.9838888" lon="10.677117"><ele>485.0</ele></trkpt>
    <trkpt lat="59.9839537" lon="10.6771022"><ele>485.0</ele></trkpt>
    <trkpt lat="59.9840434" lon="10.6770654"><ele>493.0</ele></trkpt>
    <trkpt lat="59.9841021" lon="10.6770305"><ele>493.0</ele></trkpt>
    <trkpt lat="59.9841617" lon="10.6769899"><ele>493.0</ele></trkpt>
    <trkpt lat="59.9842222" lon="10.6769326"><ele>493.0</ele></trkpt>
    <trkpt lat="59.9842584" lon="10.6768958"><ele>493.0</ele></trkpt>
    <trkpt lat="59.9843019" lon="10.6768352"><ele>493.0</ele></trkpt>
    <trkpt lat="59.9843587" lon="10.6767489"><ele>493.0</ele></trkpt>
    <trkpt lat="59.9843934" lon="10.6766915"><ele>493.0</ele></trkpt>
    <trkpt lat="59.9844452" lon="10.676588"><ele>493.0</ele></trkpt>
    <trkpt lat="59.9844842" lon="10.6765015"><ele>493.0</ele></trkpt>
    <trkpt lat="59.9845249" lon="10.6763917"><ele>493.0</ele></trkpt>
    <trkpt lat="59.9845781" lon="10.6762064"><ele>493.0</ele></trkpt>
    <trkpt lat="59.9846288" lon="10.6759805"><ele>493.0</ele></trkpt>
    <trkpt lat="59.9846525" lon="10.675839"><ele>493.0</ele></trkpt>
    <trkpt lat="59.98467" lon="10.6757122"><ele>493.0</ele></trkpt>
    <trkpt lat="59.9846816" lon="10.6755949"><ele>493.0</ele></trkpt>
    <trkpt lat="59.9846982" lon="10.6753682"><ele>493.0</ele></trkpt>
    <trkpt lat="59.9847031" lon="10.6752558"><ele>493.0</ele></trkpt>
    <trkpt lat="59.9847136" lon="10.6751168"><ele>493.0</ele></trkpt>
    <trkpt lat="59.9847341" lon="10.6747976"><ele>493.0</ele></trkpt>
    <trkpt lat="59.984741" lon="10.6745742"><ele>493.0</ele></trkpt>
    <trkpt lat="59.9847589" lon="10.6741793"><ele>493.0</ele></trkpt>
    <trkpt lat="59.9847735" lon="10.6736734"><ele>493.0</ele></trkpt>
    <trkpt lat="59.9847924" lon="10.6732821"><ele>493.0</ele></trkpt>
    <trkpt lat="59.9848045" lon="10.6730904"><ele>493.0</ele></trkpt>
    <trkpt lat="59.9848492" lon="10.6726089"><ele>496.0</ele></trkpt>
    <trkpt lat="59.9848498" lon="10.6725291"><ele>496.0</ele></trkpt>
    <trkpt lat="59.98484" lon="10.6724835"><ele>496.0</ele></trkpt>
    <trkpt lat="59.9848279" lon="10.6724033"><ele>496.0</ele></trkpt>
    <trkpt lat="59.9848112" lon="10.6723092"><ele>496.0</ele></trkpt>
    <trkpt lat="59.9847934" lon="10.6722368"><ele>496.0</ele></trkpt>
    <trkpt lat="59.984772" lon="10.6721651"><ele>496.0</ele></trkpt>
    <trkpt lat="59.9847498" lon="10.6720986"><ele>496.0</ele></trkpt>
    <trkpt lat="59.9847039" lon="10.6719907"><ele>496.0</ele></trkpt>
    <trkpt lat="59.9846096" lon="10.6717869"><ele>496.0</ele></trkpt>
    <trkpt lat="59.9845566" lon="10.6716789"><ele>496.0</ele></trkpt>
    <trkpt lat="59.9844734" lon="10.6715166"><ele>496.0</ele></trkpt>
    <trkpt lat="59.9844202" lon="10.6714145"><ele>496.0</ele></trkpt>
    <trkpt lat="59.9843117" lon="10.6712021"><ele>496.0</ele></trkpt>
    <trkpt lat="59.9842637" lon="10.671093"><ele>496.0</ele></trkpt>
    <trkpt lat="59.9842374" lon="10.6710184"><ele>496.0</ele></trkpt>
    <trkpt lat="59.9841984" lon="10.6708923"><ele>496.0</ele></trkpt>
    <trkpt lat="59.9841287" lon="10.6706424"><ele>518.0</ele></trkpt>
    <trkpt lat="59.9840365" lon="10.6702474"><ele>518.0</ele></trkpt>
    <trkpt lat="59.9840119" lon="10.6701299"><ele>518.0</ele></trkpt>
    <trkpt lat="59.9839934" lon="10.6700306"><ele>518.0</ele></trkpt>
    <trkpt lat="59.9839773" lon="10.6698979"><ele>518.0</ele></trkpt>
    <trkpt lat="59.9839681" lon="10.6698044"><ele>518.0</ele></trkpt>
    <trkpt lat="59.9839558" lon="10.6696565"><ele>518.0</ele></trkpt>
    <trkpt lat="59.9839448" lon="10.6694855"><ele>518.0</ele></trkpt>
    <trkpt lat="59.9839421" lon="10.6693574"><ele>518.0</ele></trkpt>
    <trkpt lat="59.9839434" lon="10.6692159"><ele>518.0</ele></trkpt>
    <trkpt lat="59.9839532" lon="10.6689128"><ele>518.0</ele></trkpt>
    <trkpt lat="59.983953" lon="10.6687438"><ele>517.0</ele></trkpt>
    <trkpt lat="59.9839511" lon="10.6686264"><ele>517.0</ele></trkpt>
    <trkpt lat="59.9862136" lon="10.6696613"><ele>523.0</ele></trkpt>
    <trkpt lat="59.986246" lon="10.6695915"><ele>523.0</ele></trkpt>
    <trkpt lat="59.9862418" lon="10.6693313"><ele>523.0</ele></trkpt>
    <trkpt lat="59.9862047" lon="10.6690461"><ele>523.0</ele></trkpt>
    <trkpt lat="59.986122" lon="10.6687325"><ele>524.0</ele></trkpt>
    <trkpt lat="59.9859934" lon="10.6685953"><ele>524.0</ele></trkpt>
    <trkpt lat="59.9858767" lon="10.6685265"><ele>524.0</ele></trkpt>
    <trkpt lat="59.9858168" lon="10.6685145"><ele>524.0</ele></trkpt>
    <trkpt lat="59.9857478" lon="10.6685373"><ele>524.0</ele></trkpt>
    <trkpt lat="59.9856093" lon="10.6686345"><ele>524.0</ele></trkpt>
    <trkpt lat="59.9855162" lon="10.6686946"><ele>524.0</ele></trkpt>
    <trkpt lat="59.9853514" lon="10.6688359"><ele>518.0</ele></trkpt>
    <trkpt lat="59.9852119" lon="10.668887"><ele>518.0</ele></trkpt>
    <trkpt lat="59.9846383" lon="10.6688232"><ele>518.0</ele></trkpt>
    <trkpt lat="59.984291" lon="10.6687856"><ele>518.0</ele></trkpt>
    <trkpt lat="59.983953" lon="10.6687438"><ele>517.0</ele></trkpt>
    <trkpt lat="59.9838484" lon="10.6687743"><ele>518.0</ele></trkpt>
    <trkpt lat="59.983818" lon="10.6687723"><ele>518.0</ele></trkpt>
    <trkpt lat="59.9837803" lon="10.6687699"><ele>518.0</ele></trkpt>
    <trkpt lat="59.9831996" lon="10.668709"><ele>495.0</ele></trkpt>
    <trkpt lat="59.9830212" lon="10.6686729"><ele>495.0</ele></trkpt>
    <trkpt lat="59.9829282" lon="10.668654"><ele>495.0</ele></trkpt>
    <trkpt lat="59.982649" lon="10.6685881"><ele>495.0</ele></trkpt>
    <trkpt lat="59.9825236" lon="10.6685505"><ele>495.0</ele></trkpt>
    <trkpt lat="59.9823947" lon="10.6684976"><ele>495.0</ele></trkpt>
    <trkpt lat="59.9822728" lon="10.6684887"><ele>495.0</ele></trkpt>
    <trkpt lat="59.9821925" lon="10.6684904"><ele>495.0</ele></trkpt>
    <trkpt lat="59.9821653" lon="10.6684935"><ele>495.0</ele></trkpt>
    <trkpt lat="59.9821271" lon="10.6685123"><ele>495.0</ele></trkpt>
    <trkpt lat="59.982058" lon="10.6686055"><ele>495.0</ele></trkpt>
    <trkpt lat="59.9819677" lon="10.6687389"><ele>495.0</ele></trkpt>
    <trkpt lat="59.9819007" lon="10.6688511"><ele>488.0</ele></trkpt>
    <trkpt lat="59.9818463" lon="10.6690394"><ele>488.0</ele></trkpt>
    <trkpt lat="59.9817801" lon="10.6693422"><ele>488.0</ele></trkpt>
    <trkpt lat="59.9817368" lon="10.6695804"><ele>488.0</ele></trkpt>
    <trkpt lat="59.9816411" lon="10.6699309"><ele>488.0</ele></trkpt>
    <trkpt lat="59.9815138" lon="10.6704436"><ele>488.0</ele></trkpt>
    <trkpt lat="59.98144" lon="10.6706328"><ele>488.0</ele></trkpt>
    <trkpt lat="59.981412" lon="10.6707399"><ele>488.0</ele></trkpt>
    <trkpt lat="59.9814031" lon="10.6707884"><ele>488.0</ele></trkpt>
    <trkpt lat="59.9813947" lon="10.6708437"><ele>480.0</ele></trkpt>
    <trkpt lat="59.9813923" lon="10.6709011"><ele>480.0</ele></trkpt>
    <trkpt lat="59.9813907" lon="10.6709517"><ele>480.0</ele></trkpt>
    <trkpt lat="59.981389" lon="10.6710754"><ele>480.0</ele></trkpt>
    <trkpt lat="59.9813853" lon="10.6712075"><ele>480.0</ele></trkpt>
    <trkpt lat="59.9813798" lon="10.6713414"><ele>480.0</ele></trkpt>
    <trkpt lat="59.9813744" lon="10.6714767"><ele>480.0</ele></trkpt>
    <trkpt lat="59.9813726" lon="10.6715198"><ele>480.0</ele></trkpt>
    <trkpt lat="59.9813696" lon="10.6716024"><ele>480.0</ele></trkpt>
    <trkpt lat="59.9813635" lon="10.6717694"><ele>480.0</ele></trkpt>
    <trkpt lat="59.9813544" lon="10.6720363"><ele>480.0</ele></trkpt>
    <trkpt lat="59.9813477" lon="10.6721006"><ele>480.0</ele></trkpt>
    <trkpt lat="59.9813375" lon="10.6721742"><ele>480.0</ele></trkpt>
    <trkpt lat="59.9813299" lon="10.6722294"><ele>480.0</ele></trkpt>
    <trkpt lat="59.9813232" lon="10.672285"><ele>480.0</ele></trkpt>
    <trkpt lat="59.981311" lon="10.672364"><ele>480.0</ele></trkpt>
    <trkpt lat="59.9814439" lon="10.6724118"><ele>480.0</ele></trkpt>
    <trkpt lat="59.9815877" lon="10.6725592"><ele>480.0</ele></trkpt>
    <trkpt lat="59.9816787" lon="10.6727317"><ele>480.0</ele></trkpt>
    <trkpt lat="59.9818892" lon="10.673206"><ele>484.0</ele></trkpt>
    <trkpt lat="59.9820909" lon="10.6735746"><ele>484.0</ele></trkpt>
    <trkpt lat="59.9822563" lon="10.6737591"><ele>484.0</ele></trkpt>
    <trkpt lat="59.9824686" lon="10.673907"><ele>484.0</ele></trkpt>
    <trkpt lat="59.9827334" lon="10.6741864"><ele>484.0</ele></trkpt>
    <trkpt lat="59.9829932" lon="10.6743138"><ele>484.0</ele></trkpt>
    <trkpt lat="59.9831533" lon="10.6743237"><ele>484.0</ele></trkpt>
    <trkpt lat="59.9830973" lon="10.674426"><ele>484.0</ele></trkpt>
    <trkpt lat="59.9829936" lon="10.6745772"><ele>484.0</ele></trkpt>
    <trkpt lat="59.9829768" lon="10.674678"><ele>484.0</ele></trkpt>
    <trkpt lat="59.9830244" lon="10.6751259"><ele>486.0</ele></trkpt>
    <trkpt lat="59.9830357" lon="10.6753835"><ele>486.0</ele></trkpt>
    <trkpt lat="59.9830861" lon="10.6758426"><ele>486.0</ele></trkpt>
    <trkpt lat="59.9831253" lon="10.6759602"><ele>486.0</ele></trkpt>
    <trkpt lat="59.9831729" lon="10.6760274"><ele>486.0</ele></trkpt>
    <trkpt lat="59.9833102" lon="10.6761282"><ele>486.0</ele></trkpt>
    <trkpt lat="59.9833858" lon="10.676117"><ele>493.0</ele></trkpt>
    <trkpt lat="59.9837723" lon="10.6758791"><ele>493.0</ele></trkpt>
    <trkpt lat="59.9838928" lon="10.6758426"><ele>493.0</ele></trkpt>
    <trkpt lat="59.9841642" lon="10.6758841"><ele>493.0</ele></trkpt>
    <trkpt lat="59.9844222" lon="10.6759766"><ele>493.0</ele></trkpt>
    <trkpt lat="59.9846288" lon="10.6759805"><ele>493.0</ele></trkpt>
    <trkpt lat="59.9849562" lon="10.6760109"><ele>493.0</ele></trkpt>
    <trkpt lat="59.9851777" lon="10.6761191"><ele>493.0</ele></trkpt>
    <trkpt lat="59.9852419" lon="10.6762252"><ele>493.0</ele></trkpt>
    <trkpt lat="59.9852911" lon="10.6764019"><ele>493.0</ele></trkpt>
    <trkpt lat="59.9853063" lon="10.6765488"><ele>493.0</ele></trkpt>
    <trkpt lat="59.9852998" lon="10.6767882"><ele>493.0</ele></trkpt>
    <trkpt lat="59.9852155" lon="10.6770554"><ele>493.0</ele></trkpt>
    <trkpt lat="59.9851109" lon="10.6773005"><ele>485.0</ele></trkpt>
    <trkpt lat="59.9850461" lon="10.6773602"><ele>485.0</ele></trkpt>
    <trkpt lat="59.9848249" lon="10.6775639"><ele>485.0</ele></trkpt>
    <trkpt lat="59.9845292" lon="10.6777484"><ele>485.0</ele></trkpt>
    <trkpt lat="59.9843906" lon="10.6777867"><ele>485.0</ele></trkpt>
    <trkpt lat="59.9840796" lon="10.6778122"><ele>485.0</ele></trkpt>
    <trkpt lat="59.9839332" lon="10.6778353"><ele>485.0</ele></trkpt>
    <trkpt lat="59.9837935" lon="10.6779519"><ele>485.0</ele></trkpt>
    <trkpt lat="59.9836408" lon="10.6780832"><ele>485.0</ele></trkpt>
    <trkpt lat="59.9836078" lon="10.6781162"><ele>485.0</ele></trkpt>
    <trkpt lat="59.9835776" lon="10.6781564"><ele>485.0</ele></trkpt>
    <trkpt lat="59.983518" lon="10.6782343"><ele>485.0</ele></trkpt>
    <trkpt lat="59.9836654" lon="10.6783287"><ele>485.0</ele></trkpt>
    <trkpt lat="59.9838015" lon="10.6784461"><ele>485.0</ele></trkpt>
    <trkpt lat="59.9839499" lon="10.6785463"><ele>485.0</ele></trkpt>
    <trkpt lat="59.9840226" lon="10.6785849"><ele>485.0</ele></trkpt>
    <trkpt lat="59.9841111" lon="10.6786177"><ele>485.0</ele></trkpt>
    <trkpt lat="59.9841813" lon="10.6786358"><ele>485.0</ele></trkpt>
    <trkpt lat="59.9842945" lon="10.6786438"><ele>485.0</ele></trkpt>
    <trkpt lat="59.9843988" lon="10.6786563"><ele>485.0</ele></trkpt>
    <trkpt lat="59.9846563" lon="10.6787597"><ele>485.0</ele></trkpt>
    <trkpt lat="59.9847422" lon="10.6788026"><ele>485.0</ele></trkpt>
    <trkpt lat="59.9848739" lon="10.6787386"><ele>485.0</ele></trkpt>
    <trkpt lat="59.9849525" lon="10.6786591"><ele>485.0</ele></trkpt>
    <trkpt lat="59.9849793" lon="10.6786317"><ele>485.0</ele></trkpt>
    <trkpt lat="59.9851779" lon="10.6783979"><ele>485.0</ele></trkpt>
    <trkpt lat="59.985308" lon="10.6782554"><ele>485.0</ele></trkpt>
    <trkpt lat="59.9859562" lon="10.6778033"><ele>481.0</ele></trkpt>
    <trkpt lat="59.9861001" lon="10.6777384"><ele>481.0</ele></trkpt>
    <trkpt lat="59.9859142" lon="10.6774332"><ele>481.0</ele></trkpt>
    <trkpt lat="59.9857722" lon="10.6772971"><ele>481.0</ele></trkpt>
    <trkpt lat="59.985687" lon="10.6772307"><ele>481.0</ele></trkpt>
    <trkpt lat="59.9854887" lon="10.6777995"><ele>481.0</ele></trkpt>
    <trkpt lat="59.985308" lon="10.6782554"><ele>485.0</ele></trkpt>
    <trkpt lat="59.9862802" lon="10.6799764"><ele>480.0</ele></trkpt>
    <trkpt lat="59.986253" lon="10.6799464"><ele>480.0</ele></trkpt>
    <trkpt lat="59.9862007" lon="10.6799102"><ele>480.0</ele></trkpt>
    <trkpt lat="59.9861462" lon="10.6798731"><ele>480.0</ele></trkpt>
    <trkpt lat="59.9861106" lon="10.6798281"><ele>480.0</ele></trkpt>
    <trkpt lat="59.9860531" lon="10.6797263"><ele>480.0</ele></trkpt>
    <trkpt lat="59.9859044" lon="10.6794847"><ele>480.0</ele></trkpt>
    <trkpt lat="59.985855" lon="10.6793996"><ele>480.0</ele></trkpt>
    <trkpt lat="59.9858052" lon="10.6793362"><ele>480.0</ele></trkpt>
    <trkpt lat="59.9857363" lon="10.6792641"><ele>480.0</ele></trkpt>
    <trkpt lat="59.9857061" lon="10.679234"><ele>480.0</ele></trkpt>
    <trkpt lat="59.9856753" lon="10.6792118"><ele>480.0</ele></trkpt>
    <trkpt lat="59.9856263" lon="10.679189"><ele>480.0</ele></trkpt>
    <trkpt lat="59.9855199" lon="10.6791381"><ele>481.0</ele></trkpt>
    <trkpt lat="59.9854743" lon="10.6791079"><ele>481.0</ele></trkpt>
    <trkpt lat="59.9854485" lon="10.6790878"><ele>481.0</ele></trkpt>
    <trkpt lat="59.9851514" lon="10.6790085"><ele>485.0</ele></trkpt>
    <trkpt lat="59.9849268" lon="10.6788884"><ele>485.0</ele></trkpt>
    <trkpt lat="59.9847422" lon="10.6788026"><ele>485.0</ele></trkpt>
    <trkpt lat="59.9848739" lon="10.6787386"><ele>485.0</ele></trkpt>
    <trkpt lat="59.9849525" lon="10.6786591"><ele>485.0</ele></trkpt>
    <trkpt lat="59.9849793" lon="10.6786317"><ele>485.0</ele></trkpt>
    <trkpt lat="59.9851779" lon="10.6783979"><ele>485.0</ele></trkpt>
    <trkpt lat="59.985308" lon="10.6782554"><ele>485.0</ele></trkpt>
    <trkpt lat="59.9859562" lon="10.6778033"><ele>481.0</ele></trkpt>
    <trkpt lat="59.9861001" lon="10.6777384"><ele>481.0</ele></trkpt>
    <trkpt lat="59.986189" lon="10.677991"><ele>481.0</ele></trkpt>
    <trkpt lat="59.986223" lon="10.6782074"><ele>481.0</ele></trkpt>
    <trkpt lat="59.9862562" lon="10.6785051"><ele>481.0</ele></trkpt>
    <trkpt lat="59.9863595" lon="10.678833"><ele>481.0</ele></trkpt>
    <trkpt lat="59.9864075" lon="10.6790447"><ele>481.0</ele></trkpt>
    <trkpt lat="59.98644" lon="10.6792071"><ele>480.0</ele></trkpt>
    <trkpt lat="59.9864433" lon="10.6793185"><ele>480.0</ele></trkpt>
    <trkpt lat="59.9864122" lon="10.6795431"><ele>480.0</ele></trkpt>
    <trkpt lat="59.9863769" lon="10.6797465"><ele>480.0</ele></trkpt>
    <trkpt lat="59.9863236" lon="10.6798783"><ele>480.0</ele></trkpt>
    <trkpt lat="59.9862802" lon="10.6799764"><ele>480.0</ele></trkpt>
    <trkpt lat="59.9862272" lon="10.6800205"><ele>480.0</ele></trkpt>
    <trkpt lat="59.9861367" lon="10.6801083"><ele>480.0</ele></trkpt>
    <trkpt lat="59.9860325" lon="10.6801634"><ele>480.0</ele></trkpt>
    <trkpt lat="59.9859563" lon="10.6802299"><ele>480.0</ele></trkpt>
    <trkpt lat="59.9859132" lon="10.680409"><ele>480.0</ele></trkpt>
    <trkpt lat="59.9859101" lon="10.6805"><ele>480.0</ele></trkpt>
    <trkpt lat="59.9859117" lon="10.6805802"><ele>480.0</ele></trkpt>
    <trkpt lat="59.9859336" lon="10.6807257"><ele>480.0</ele></trkpt>
    <trkpt lat="59.985966" lon="10.6809083"><ele>480.0</ele></trkpt>
    <trkpt lat="59.9860534" lon="10.6810732"><ele>480.0</ele></trkpt>
    <trkpt lat="59.9861388" lon="10.6811518"><ele>480.0</ele></trkpt>
    <trkpt lat="59.9863644" lon="10.681304"><ele>473.0</ele></trkpt>
    <trkpt lat="59.9866581" lon="10.6813339"><ele>473.0</ele></trkpt>
    <trkpt lat="59.9867559" lon="10.6813642"><ele>473.0</ele></trkpt>
    <trkpt lat="59.9868157" lon="10.6814041"><ele>473.0</ele></trkpt>
    <trkpt lat="59.9868541" lon="10.6814501"><ele>473.0</ele></trkpt>
    <trkpt lat="59.9870021" lon="10.6817496"><ele>473.0</ele></trkpt>
    <trkpt lat="59.9870856" lon="10.6818093"><ele>473.0</ele></trkpt>
    <trkpt lat="59.9872074" lon="10.6810376"><ele>480.0</ele></trkpt>
    <trkpt lat="59.9872567" lon="10.6807536"><ele>480.0</ele></trkpt>
    <trkpt lat="59.9874135" lon="10.6805538"><ele>480.0</ele></trkpt>
    <trkpt lat="59.9874262" lon="10.6805409"><ele>480.0</ele></trkpt>
    <trkpt lat="59.9876173" lon="10.680331"><ele>461.0</ele></trkpt>
    <trkpt lat="59.9879874" lon="10.679931"><ele>461.0</ele></trkpt>
    <trkpt lat="59.988129" lon="10.6795953"><ele>461.0</ele></trkpt>
    <trkpt lat="59.9882117" lon="10.6793586"><ele>461.0</ele></trkpt>
    <trkpt lat="59.9882806" lon="10.6792436"><ele>461.0</ele></trkpt>
    <trkpt lat="59.9883683" lon="10.6791212"><ele>474.0</ele></trkpt>
    <trkpt lat="59.9885143" lon="10.6790927"><ele>474.0</ele></trkpt>
    <trkpt lat="59.9886967" lon="10.6789535"><ele>474.0</ele></trkpt>
    <trkpt lat="59.9887599" lon="10.6788863"><ele>474.0</ele></trkpt>
    <trkpt lat="59.9888428" lon="10.6787927"><ele>474.0</ele></trkpt>
    <trkpt lat="59.9888893" lon="10.6787243"><ele>474.0</ele></trkpt>
    <trkpt lat="59.9889128" lon="10.6786362"><ele>474.0</ele></trkpt>
    <trkpt lat="59.9889206" lon="10.6785695"><ele>474.0</ele></trkpt>
    <trkpt lat="59.9888922" lon="10.6783728"><ele>474.0</ele></trkpt>
    <trkpt lat="59.9888394" lon="10.6780965"><ele>474.0</ele></trkpt>
    <trkpt lat="59.9888204" lon="10.6779452"><ele>474.0</ele></trkpt>
    <trkpt lat="59.9888324" lon="10.6778072"><ele>474.0</ele></trkpt>
    <trkpt lat="59.9888672" lon="10.6776777"><ele>474.0</ele></trkpt>
    <trkpt lat="59.9889154" lon="10.6775529"><ele>474.0</ele></trkpt>
    <trkpt lat="59.9890018" lon="10.6774645"><ele>474.0</ele></trkpt>
    <trkpt lat="59.9892077" lon="10.6772894"><ele>474.0</ele></trkpt>
    <trkpt lat="59.9894" lon="10.6771345"><ele>474.0</ele></trkpt>
    <trkpt lat="59.9896712" lon="10.6769641"><ele>488.0</ele></trkpt>
    <trkpt lat="59.9898148" lon="10.6768616"><ele>488.0</ele></trkpt>
    <trkpt lat="59.9903759" lon="10.6767134"><ele>488.0</ele></trkpt>
    <trkpt lat="59.9905865" lon="10.6766401"><ele>488.0</ele></trkpt>
    <trkpt lat="59.9906776" lon="10.6765227"><ele>488.0</ele></trkpt>
    <trkpt lat="59.9909251" lon="10.6760324"><ele>488.0</ele></trkpt>
    <trkpt lat="59.9911375" lon="10.6754783"><ele>488.0</ele></trkpt>
    <trkpt lat="59.991163" lon="10.675311"><ele>488.0</ele></trkpt>
    <trkpt lat="59.991148" lon="10.6748734"><ele>500.0</ele></trkpt>
    <trkpt lat="59.9910753" lon="10.6745053"><ele>500.0</ele></trkpt>
    <trkpt lat="59.9910021" lon="10.6743653"><ele>500.0</ele></trkpt>
    <trkpt lat="59.9908725" lon="10.6742685"><ele>500.0</ele></trkpt>
    <trkpt lat="59.9905841" lon="10.6742329"><ele>500.0</ele></trkpt>
    <trkpt lat="59.990471" lon="10.6742609"><ele>500.0</ele></trkpt>
    <trkpt lat="59.9901911" lon="10.6744311"><ele>500.0</ele></trkpt>
    <trkpt lat="59.9898062" lon="10.6745988"><ele>500.0</ele></trkpt>
    <trkpt lat="59.9895734" lon="10.6747358"><ele>501.0</ele></trkpt>
    <trkpt lat="59.9890493" lon="10.6750943"><ele>484.0</ele></trkpt>
    <trkpt lat="59.9888923" lon="10.6751758"><ele>484.0</ele></trkpt>
    <trkpt lat="59.9885343" lon="10.6753587"><ele>484.0</ele></trkpt>
    <trkpt lat="59.9882628" lon="10.6754162"><ele>484.0</ele></trkpt>
    <trkpt lat="59.9878963" lon="10.675455"><ele>484.0</ele></trkpt>
    <trkpt lat="59.9877942" lon="10.6754495"><ele>484.0</ele></trkpt>
    <trkpt lat="59.9877316" lon="10.6754159"><ele>484.0</ele></trkpt>
    <trkpt lat="59.9875957" lon="10.6752967"><ele>484.0</ele></trkpt>
    <trkpt lat="59.9875476" lon="10.6751243"><ele>484.0</ele></trkpt>
    <trkpt lat="59.9875332" lon="10.6749246"><ele>501.0</ele></trkpt>
    <trkpt lat="59.9874966" lon="10.6747521"><ele>503.0</ele></trkpt>
    <trkpt lat="59.9874395" lon="10.6745706"><ele>503.0</ele></trkpt>
    <trkpt lat="59.9873866" lon="10.6745212"><ele>503.0</ele></trkpt>
    <trkpt lat="59.9872913" lon="10.6744866"><ele>503.0</ele></trkpt>
    <trkpt lat="59.9871633" lon="10.6743506"><ele>503.0</ele></trkpt>
    <trkpt lat="59.9870495" lon="10.6743384"><ele>503.0</ele></trkpt>
    <trkpt lat="59.9869549" lon="10.6744044"><ele>503.0</ele></trkpt>
    <trkpt lat="59.9866209" lon="10.6747087"><ele>503.0</ele></trkpt>
    <trkpt lat="59.9865444" lon="10.6748422"><ele>503.0</ele></trkpt>
    <trkpt lat="59.9864813" lon="10.6750575"><ele>484.0</ele></trkpt>
    <trkpt lat="59.9864541" lon="10.6752785"><ele>484.0</ele></trkpt>
    <trkpt lat="59.9864578" lon="10.6757851"><ele>484.0</ele></trkpt>
    <trkpt lat="59.9864595" lon="10.6760276"><ele>484.0</ele></trkpt>
    <trkpt lat="59.9864259" lon="10.6762991"><ele>484.0</ele></trkpt>
    <trkpt lat="59.9862238" lon="10.6766621"><ele>484.0</ele></trkpt>
    <trkpt lat="59.9860075" lon="10.67687"><ele>484.0</ele></trkpt>
    <trkpt lat="59.9859258" lon="10.6769085"><ele>484.0</ele></trkpt>
    <trkpt lat="59.9858525" lon="10.6768764"><ele>484.0</ele></trkpt>
    <trkpt lat="59.985816" lon="10.6767915"><ele>484.0</ele></trkpt>
    <trkpt lat="59.9857622" lon="10.6765266"><ele>484.0</ele></trkpt>
  </trkseg></trk>
</gpx>