<?xml version="1.0" encoding="UTF-8"?>
<gpx version="1.1" xmlns="http://www.topografix.com/GPX/1/1" creator="GlideCast">
  <trk><name>Östersund</name><trkseg>
    <trkpt lat="63.1578817" lon="14.7267501"><ele>0.0</ele></trkpt>
    <trkpt lat="63.1576924" lon="14.7265838"><ele>0.0</ele></trkpt>
    <trkpt lat="63.1574983" lon="14.7263838"><ele>0.0</ele></trkpt>
    <trkpt lat="63.1573338" lon="14.7258734"><ele>0.0</ele></trkpt>
    <trkpt lat="63.1571423" lon="14.7254089"><ele>0.0</ele></trkpt>
    <trkpt lat="63.1570468" lon="14.7252156"><ele>0.0</ele></trkpt>
    <trkpt lat="63.1569214" lon="14.7250888"><ele>0.0</ele></trkpt>
    <trkpt lat="63.156755" lon="14.7249197"><ele>0.0</ele></trkpt>
    <trkpt lat="63.156611" lon="14.7247738"><ele>0.0</ele></trkpt>
    <trkpt lat="63.1564288" lon="14.7245326"><ele>0.0</ele></trkpt>
    <trkpt lat="63.1562346" lon="14.7240491"><ele>0.0</ele></trkpt>
    <trkpt lat="63.1560382" lon="14.7235217"><ele>0.0</ele></trkpt>
    <trkpt lat="63.1557627" lon="14.723028"><ele>0.0</ele></trkpt>
    <trkpt lat="63.1555418" lon="14.7225577"><ele>0.0</ele></trkpt>
    <trkpt lat="63.1554541" lon="14.7221595"><ele>0.0</ele></trkpt>
    <trkpt lat="63.1553913" lon="14.7219313"><ele>0.0</ele></trkpt>
    <trkpt lat="63.155309" lon="14.7216783"><ele>0.0</ele></trkpt>
    <trkpt lat="63.1552079" lon="14.7215332"><ele>0.0</ele></trkpt>
    <trkpt lat="63.1550011" lon="14.7212678"><ele>0.0</ele></trkpt>
    <trkpt lat="63.1548984" lon="14.7209051"><ele>0.0</ele></trkpt>
    <trkpt lat="63.1548872" lon="14.7208657"><ele>0.0</ele></trkpt>
    <trkpt lat="63.1548349" lon="14.7197254"><ele>0.0</ele></trkpt>
    <trkpt lat="63.1547825" lon="14.7191485"><ele>0.0</ele></trkpt>
    <trkpt lat="63.1546658" lon="14.7186141"><ele>0.0</ele></trkpt>
    <trkpt lat="63.1545928" lon="14.718143"><ele>0.0</ele></trkpt>
    <trkpt lat="63.1545629" lon="14.717998"><ele>0.0</ele></trkpt>
    <trkpt lat="63.1545349" lon="14.7177021"><ele>0.0</ele></trkpt>
    <trkpt lat="63.1544796" lon="14.7171876"><ele>0.0</ele></trkpt>
    <trkpt lat="63.1543271" lon="14.7163484"><ele>0.0</ele></trkpt>
    <trkpt lat="63.1542316" lon="14.7158373"><ele>0.0</ele></trkpt>
    <trkpt lat="63.1544312" lon="14.7150931"><ele>0.0</ele></trkpt>
    <trkpt lat="63.1547695" lon="14.7142896"><ele>0.0</ele></trkpt>
    <trkpt lat="63.154914" lon="14.7140903"><ele>0.0</ele></trkpt>
    <trkpt lat="63.1550087" lon="14.7139601"><ele>0.0</ele></trkpt>
    <trkpt lat="63.1551134" lon="14.7137799"><ele>0.0</ele></trkpt>
    <trkpt lat="63.1551898" lon="14.7135474"><ele>0.0</ele></trkpt>
    <trkpt lat="63.1553119" lon="14.7131804"><ele>0.0</ele></trkpt>
    <trkpt lat="63.1554045" lon="14.7128823"><ele>0.0</ele></trkpt>
    <trkpt lat="63.1555169" lon="14.7124332"><ele>0.0</ele></trkpt>
    <trkpt lat="63.1555346" lon="14.7123702"><ele>0.0</ele></trkpt>
    <trkpt lat="63.1555628" lon="14.7122916"><ele>0.0</ele></trkpt>
    <trkpt lat="63.1555947" lon="14.7121828"><ele>0.0</ele></trkpt>
    <trkpt lat="63.1556418" lon="14.7121551"><ele>0.0</ele></trkpt>
    <trkpt lat="63.1556941" lon="14.7121636"><ele>0.0</ele></trkpt>
    <trkpt lat="63.1557487" lon="14.7121953"><ele>0.0</ele></trkpt>
    <trkpt lat="63.1558853" lon="14.7122916"><ele>0.0</ele></trkpt>
    <trkpt lat="63.1559427" lon="14.712602"><ele>0.0</ele></trkpt>
    <trkpt lat="63.1559535" lon="14.7129803"><ele>0.0</ele></trkpt>
    <trkpt lat="63.1558701" lon="14.7132216"><ele>0.0</ele></trkpt>
    <trkpt lat="63.1557583" lon="14.713446"><ele>0.0</ele></trkpt>
    <trkpt lat="63.1556107" lon="14.7137998"><ele>0.0</ele></trkpt>
    <trkpt lat="63.1554609" lon="14.7142101"><ele>0.0</ele></trkpt>
    <trkpt lat="63.155313" lon="14.7145159"><ele>0.0</ele></trkpt>
    <trkpt lat="63.1553177" lon="14.7145916"><ele>0.0</ele></trkpt>
    <trkpt lat="63.1553341" lon="14.7149177"><ele>0.0</ele></trkpt>
    <trkpt lat="63.1554132" lon="14.7152922"><ele>0.0</ele></trkpt>
    <trkpt lat="63.1559193" lon="14.7159541"><ele>0.0</ele></trkpt>
    <trkpt lat="63.1562272" lon="14.7164702"><ele>0.0</ele></trkpt>
    <trkpt lat="63.1563754" lon="14.7167461"><ele>0.0</ele></trkpt>
    <trkpt lat="63.1565683" lon="14.7171052"><ele>0.0</ele></trkpt>
    <trkpt lat="63.156707" lon="14.7173337"><ele>0.0</ele></trkpt>
    <trkpt lat="63.1568024" lon="14.7175945"><ele>0.0</ele></trkpt>
    <trkpt lat="63.1567862" lon="14.7183319"><ele>0.0</ele></trkpt>
    <trkpt lat="63.1567157" lon="14.7188297"><ele>0.0</ele></trkpt>
    <trkpt lat="63.1566873" lon="14.7189645"><ele>0.0</ele></trkpt>
    <trkpt lat="63.1566507" lon="14.7190625"><ele>0.0</ele></trkpt>
    <trkpt lat="63.1564083" lon="14.7197203"><ele>0.0</ele></trkpt>
    <trkpt lat="63.1563916" lon="14.7199793"><ele>0.0</ele></trkpt>
    <trkpt lat="63.1563863" lon="14.7203173"><ele>0.0</ele></trkpt>
    <trkpt lat="63.1564736" lon="14.7205374"><ele>0.0</ele></trkpt>
    <trkpt lat="63.15658" lon="14.7210989"><ele>0.0</ele></trkpt>
    <trkpt lat="63.1566722" lon="14.721332"><ele>0.0</ele></trkpt>
    <trkpt lat="63.1569063" lon="14.7217874"><ele>0.0</ele></trkpt>
    <trkpt lat="63.1570397" lon="14.7221674"><ele>0.0</ele></trkpt>
    <trkpt lat="63.1572041" lon="14.7226898"><ele>0.0</ele></trkpt>
    <trkpt lat="63.1572922" lon="14.7229306"><ele>0.0</ele></trkpt>
    <trkpt lat="63.1573389" lon="14.7232063"><ele>0.0</ele></trkpt>
    <trkpt lat="63.1573961" lon="14.7234097"><ele>0.0</ele></trkpt>
    <trkpt lat="63.1574896" lon="14.7236361"><ele>0.0</ele></trkpt>
    <trkpt lat="63.1577269" lon="14.7238096"><ele>0.0</ele></trkpt>
    <trkpt lat="63.1579377" lon="14.724239"><ele>0.0</ele></trkpt>
    <trkpt lat="63.1580811" lon="14.7244425"><ele>0.0</ele></trkpt>
    <trkpt lat="63.1582104" lon="14.7246491"><ele>0.0</ele></trkpt>
    <trkpt lat="63.1583118" lon="14.7247387"><ele>0.0</ele></trkpt>
    <trkpt lat="63.1584099" lon="14.7245332"><ele>0.0</ele></trkpt>
    <trkpt lat="63.1585727" lon="14.7242414"><ele>0.0</ele></trkpt>
    <trkpt lat="63.1587277" lon="14.7240096"><ele>0.0</ele></trkpt>
    <trkpt lat="63.1588982" lon="14.7238723"><ele>0.0</ele></trkpt>
    <trkpt lat="63.1590467" lon="14.7238306"><ele>0.0</ele></trkpt>
    <trkpt lat="63.1591471" lon="14.72388"><ele>0.0</ele></trkpt>
    <trkpt lat="63.1591909" lon="14.7239015"><ele>0.0</ele></trkpt>
    <trkpt lat="63.1592267" lon="14.7239244"><ele>0.0</ele></trkpt>
    <trkpt lat="63.1592751" lon="14.7240211"><ele>0.0</ele></trkpt>
    <trkpt lat="63.1593513" lon="14.7241768"><ele>0.0</ele></trkpt>
    <trkpt lat="63.1594502" lon="14.7244398"><ele>0.0</ele></trkpt>
    <trkpt lat="63.1593129" lon="14.7246705"><ele>0.0</ele></trkpt>
    <trkpt lat="63.159216" lon="14.7249194"><ele>0.0</ele></trkpt>
    <trkpt lat="63.1591191" lon="14.7252198"><ele>0.0</ele></trkpt>
    <trkpt lat="63.1590261" lon="14.7255889"><ele>0.0</ele></trkpt>
    <trkpt lat="63.158999" lon="14.7258464"><ele>0.0</ele></trkpt>
    <trkpt lat="63.1589757" lon="14.7260867"><ele>0.0</ele></trkpt>
    <trkpt lat="63.1589762" lon="14.726381"><ele>0.0</ele></trkpt>
    <trkpt lat="63.1590572" lon="14.7265278"><ele>0.0</ele></trkpt>
    <trkpt lat="63.1592712" lon="14.7265654"><ele>0.0</ele></trkpt>
    <trkpt lat="63.1594857" lon="14.7265402"><ele>0.0</ele></trkpt>
    <trkpt lat="63.1596653" lon="14.7266832"><ele>0.0</ele></trkpt>
    <trkpt lat="63.159835" lon="14.7267609"><ele>0.0</ele></trkpt>
    <trkpt lat="63.1599679" lon="14.7269803"><ele>0.0</ele></trkpt>
    <trkpt lat="63.1601297" lon="14.7271715"><ele>0.0</ele></trkpt>
    <trkpt lat="63.1603011" lon="14.727254"><ele>0.0</ele></trkpt>
    <trkpt lat="63.1604288" lon="14.7272816"><ele>0.0</ele></trkpt>
    <trkpt lat="63.1605711" lon="14.7270771"><ele>0.0</ele></trkpt>
    <trkpt lat="63.1606874" lon="14.7269254"><ele>0.0</ele></trkpt>
    <trkpt lat="63.1608702" lon="14.7270519"><ele>0.0</ele></trkpt>
    <trkpt lat="63.1610779" lon="14.7271581"><ele>0.0</ele></trkpt>
    <trkpt lat="63.1612519" lon="14.7273448"><ele>0.0</ele></trkpt>
    <trkpt lat="63.1615863" lon="14.7276538"><ele>0.0</ele></trkpt>
    <trkpt lat="63.1617702" lon="14.7278268"><ele>0.0</ele></trkpt>
    <trkpt lat="63.1620513" lon="14.727937"><ele>0.0</ele></trkpt>
    <trkpt lat="63.1623998" lon="14.7280019"><ele>0.0</ele></trkpt>
    <trkpt lat="63.1626027" lon="14.7280146"><ele>0.0</ele></trkpt>
    <trkpt lat="63.1630244" lon="14.7280186"><ele>0.0</ele></trkpt>
    <trkpt lat="63.1632" lon="14.7280826"><ele>0.0</ele></trkpt>
    <trkpt lat="63.163361" lon="14.7281593"><ele>0.0</ele></trkpt>
    <trkpt lat="63.1635433" lon="14.7282185"><ele>0.0</ele></trkpt>
    <trkpt lat="63.1639094" lon="14.7283993"><ele>0.0</ele></trkpt>
    <trkpt lat="63.164234" lon="14.7283321"><ele>0.0</ele></trkpt>
    <trkpt lat="63.1648474" lon="14.7280741"><ele>0.0</ele></trkpt>
    <trkpt lat="63.1650137" lon="14.7280105"><ele>0.0</ele></trkpt>
    <trkpt lat="63.165191" lon="14.7279974"><ele>0.0</ele></trkpt>
    <trkpt lat="63.1652847" lon="14.7280443"><ele>0.0</ele></trkpt>
    <trkpt lat="63.1653455" lon="14.7280722"><ele>0.0</ele></trkpt>
    <trkpt lat="63.1655349" lon="14.7282"><ele>0.0</ele></trkpt>
    <trkpt lat="63.1658581" lon="14.7281325"><ele>0.0</ele></trkpt>
    <trkpt lat="63.1660302" lon="14.7280645"><ele>0.0</ele></trkpt>
    <trkpt lat="63.1663213" lon="14.727973"><ele>0.0</ele></trkpt>
    <trkpt lat="63.1667145" lon="14.7278563"><ele>0.0</ele></trkpt>
    <trkpt lat="63.1669151" lon="14.7278729"><ele>0.0</ele></trkpt>
    <trkpt lat="63.1673098" lon="14.7280932"><ele>0.0</ele></trkpt>
    <trkpt lat="63.1675894" lon="14.7282194"><ele>0.0</ele></trkpt>
    <trkpt lat="63.1678434" lon="14.728254"><ele>0.0</ele></trkpt>
    <trkpt lat="63.1683062" lon="14.7277711"><ele>0.0</ele></trkpt>
    <trkpt lat="63.1684728" lon="14.7275756"><ele>0.0</ele></trkpt>
    <trkpt lat="63.1687182" lon="14.7273041"><ele>0.0</ele></trkpt>
    <trkpt lat="63.1691127" lon="14.7268639"><ele>0.0</ele></trkpt>
    <trkpt lat="63.1692325" lon="14.7266166"><ele>0.0</ele></trkpt>
    <trkpt lat="63.1693437" lon="14.7263279"><ele>0.0</ele></trkpt>
    <trkpt lat="63.1694224" lon="14.7260725"><ele>0.0</ele></trkpt>
    <trkpt lat="63.1695748" lon="14.7257005"><ele>0.0</ele></trkpt>
    <trkpt lat="63.1696548" lon="14.7254677"><ele>0.0</ele></trkpt>
    <trkpt lat="63.1697166" lon="14.725232"><ele>0.0</ele></trkpt>
    <trkpt lat="63.1697903" lon="14.7248382"><ele>0.0</ele></trkpt>
    <trkpt lat="63.1696995" lon="14.7242464"><ele>0.0</ele></trkpt>
    <trkpt lat="63.1696847" lon="14.7235077"><ele>0.0</ele></trkpt>
    <trkpt lat="63.1696737" lon="14.7232371"><ele>0.0</ele></trkpt>
    <trkpt lat="63.1696854" lon="14.7225677"><ele>0.0</ele></trkpt>
    <trkpt lat="63.1697047" lon="14.7221557"><ele>0.0</ele></trkpt>
    <trkpt lat="63.1697357" lon="14.7216664"><ele>0.0</ele></trkpt>
    <trkpt lat="63.1698127" lon="14.7211666"><ele>0.0</ele></trkpt>
    <trkpt lat="63.1699891" lon="14.7206285"><ele>0.0</ele></trkpt>
    <trkpt lat="63.1702284" lon="14.7202887"><ele>0.0</ele></trkpt>
    <trkpt lat="63.1703692" lon="14.7200202"><ele>0.0</ele></trkpt>
    <trkpt lat="63.170513" lon="14.7196762"><ele>0.0</ele></trkpt>
    <trkpt lat="63.1706739" lon="14.7192016"><ele>0.0</ele></trkpt>
    <trkpt lat="63.1708288" lon="14.7186437"><ele>0.0</ele></trkpt>
    <trkpt lat="63.1709729" lon="14.7179566"><ele>0.0</ele></trkpt>
    <trkpt lat="63.1710891" lon="14.7173901"><ele>0.0</ele></trkpt>
    <trkpt lat="63.1711968" lon="14.7168842"><ele>0.0</ele></trkpt>
    <trkpt lat="63.1713712" lon="14.7163692"><ele>0.0</ele></trkpt>
    <trkpt lat="63.1715067" lon="14.71594"><ele>0.0</ele></trkpt>
    <trkpt lat="63.1716487" lon="14.7155972"><ele>0.0</ele></trkpt>
    <trkpt lat="63.171893" lon="14.7151247"><ele>0.0</ele></trkpt>
    <trkpt lat="63.1720092" lon="14.7147475"><ele>0.0</ele></trkpt>
    <trkpt lat="63.1720957" lon="14.7143522"><ele>0.0</ele></trkpt>
    <trkpt lat="63.1722197" lon="14.7138372"><ele>0.0</ele></trkpt>
    <trkpt lat="63.1723031" lon="14.7133954"><ele>0.0</ele></trkpt>
    <trkpt lat="63.1723612" lon="14.7129188"><ele>0.0</ele></trkpt>
    <trkpt lat="63.1724635" lon="14.7122493"><ele>0.0</ele></trkpt>
    <trkpt lat="63.1726107" lon="14.7117773"><ele>0.0</ele></trkpt>
    <trkpt lat="63.1727979" lon="14.7113537"><ele>0.0</ele></trkpt>
    <trkpt lat="63.1728643" lon="14.7109672"><ele>0.0</ele></trkpt>
    <trkpt lat="63.1729206" lon="14.7107044"><ele>0.0</ele></trkpt>
    <trkpt lat="63.1730761" lon="14.7108187"><ele>0.0</ele></trkpt>
    <trkpt lat="63.1732892" lon="14.7106727"><ele>0.0</ele></trkpt>
    <trkpt lat="63.1734906" lon="14.7106127"><ele>0.0</ele></trkpt>
    <trkpt lat="63.1736959" lon="14.7104753"><ele>0.0</ele></trkpt>
    <trkpt lat="63.1738895" lon="14.7103895"><ele>0.0</ele></trkpt>
    <trkpt lat="63.1740057" lon="14.7102865"><ele>0.0</ele></trkpt>
    <trkpt lat="63.1741413" lon="14.710029"><ele>0.0</ele></trkpt>
    <trkpt lat="63.1743544" lon="14.7097029"><ele>0.0</ele></trkpt>
    <trkpt lat="63.1745364" lon="14.7095569"><ele>0.0</ele></trkpt>
    <trkpt lat="63.1747301" lon="14.7091278"><ele>0.0</ele></trkpt>
    <trkpt lat="63.1749082" lon="14.7090162"><ele>0.0</ele></trkpt>
    <trkpt lat="63.175129" lon="14.7088961"><ele>0.0</ele></trkpt>
    <trkpt lat="63.175373" lon="14.7086986"><ele>0.0</ele></trkpt>
    <trkpt lat="63.175497" lon="14.7083982"><ele>0.0</ele></trkpt>
    <trkpt lat="63.1755357" lon="14.7079862"><ele>0.0</ele></trkpt>
    <trkpt lat="63.1756984" lon="14.7074369"><ele>0.0</ele></trkpt>
    <trkpt lat="63.1758649" lon="14.7068533"><ele>0.0</ele></trkpt>
    <trkpt lat="63.1760702" lon="14.7064413"><ele>0.0</ele></trkpt>
    <trkpt lat="63.176291" lon="14.7062353"><ele>0.0</ele></trkpt>
    <trkpt lat="63.1765505" lon="14.7060808"><ele>0.0</ele></trkpt>
    <trkpt lat="63.1767286" lon="14.7059263"><ele>0.0</ele></trkpt>
    <trkpt lat="63.1768332" lon="14.7054972"><ele>0.0</ele></trkpt>
    <trkpt lat="63.17693" lon="14.704965"><ele>0.0</ele></trkpt>
    <trkpt lat="63.1771159" lon="14.7046388"><ele>0.0</ele></trkpt>
    <trkpt lat="63.1772786" lon="14.7043213"><ele>0.0</ele></trkpt>
    <trkpt lat="63.1775196" lon="14.7040916"><ele>0.0</ele></trkpt>
    <trkpt lat="63.1776271" lon="14.7040638"><ele>0.0</ele></trkpt>
    <trkpt lat="63.1777982" lon="14.7041566"><ele>0.0</ele></trkpt>
    <trkpt lat="63.1781384" lon="14.7044338"><ele>0.0</ele></trkpt>
    <trkpt lat="63.178332" lon="14.7046388"><ele>0.0</ele></trkpt>
    <trkpt lat="63.1784404" lon="14.7049478"><ele>0.0</ele></trkpt>
    <trkpt lat="63.1786127" lon="14.7054512"><ele>0.0</ele></trkpt>
    <trkpt lat="63.1787309" lon="14.7059521"><ele>0.0</ele></trkpt>
    <trkpt lat="63.1788664" lon="14.7062696"><ele>0.0</ele></trkpt>
    <trkpt lat="63.1789937" lon="14.7061382"><ele>0.0</ele></trkpt>
    <trkpt lat="63.1790595" lon="14.7058807"><ele>0.0</ele></trkpt>
    <trkpt lat="63.1790595" lon="14.7055717"><ele>0.0</ele></trkpt>
    <trkpt lat="63.1791254" lon="14.7050224"><ele>0.0</ele></trkpt>
    <trkpt lat="63.1795242" lon="14.7039667"><ele>0.0</ele></trkpt>
    <trkpt lat="63.1796404" lon="14.7036233"><ele>0.0</ele></trkpt>
    <trkpt lat="63.1796288" lon="14.7033058"><ele>0.0</ele></trkpt>
    <trkpt lat="63.1795436" lon="14.7028509"><ele>0.0</ele></trkpt>
    <trkpt lat="63.1795242" lon="14.7024818"><ele>0.0</ele></trkpt>
    <trkpt lat="63.1795746" lon="14.7021041"><ele>0.0</ele></trkpt>
    <trkpt lat="63.1796017" lon="14.7017351"><ele>0.0</ele></trkpt>
    <trkpt lat="63.179652" lon="14.7013917"><ele>0.0</ele></trkpt>
    <trkpt lat="63.1796598" lon="14.7010742"><ele>0.0</ele></trkpt>
    <trkpt lat="63.179563" lon="14.7007051"><ele>0.0</ele></trkpt>
    <trkpt lat="63.1794662" lon="14.7003875"><ele>0.0</ele></trkpt>
    <trkpt lat="63.1793306" lon="14.7000185"><ele>0.0</ele></trkpt>
    <trkpt lat="63.1791763" lon="14.699489"><ele>0.0</ele></trkpt>
    <trkpt lat="63.1791685" lon="14.6991457"><ele>0.0</ele></trkpt>
    <trkpt lat="63.1792072" lon="14.6986736"><ele>0.0</ele></trkpt>
    <trkpt lat="63.1793505" lon="14.6980986"><ele>0.0</ele></trkpt>
    <trkpt lat="63.1794938" lon="14.6977724"><ele>0.0</ele></trkpt>
    <trkpt lat="63.1796198" lon="14.6974711"><ele>0.0</ele></trkpt>
    <trkpt lat="63.1797369" lon="14.6972872"><ele>0.0</ele></trkpt>
    <trkpt lat="63.1798256" lon="14.6970171"><ele>0.0</ele></trkpt>
    <trkpt lat="63.1799176" lon="14.696685"><ele>0.0</ele></trkpt>
    <trkpt lat="63.1800469" lon="14.6962158"><ele>0.0</ele></trkpt>
    <trkpt lat="63.1801931" lon="14.6957213"><ele>0.0</ele></trkpt>
    <trkpt lat="63.1802814" lon="14.6950722"><ele>0.0</ele></trkpt>
    <trkpt lat="63.1803293" lon="14.6949759"><ele>0.0</ele></trkpt>
    <trkpt lat="63.1804472" lon="14.6948775"><ele>0.0</ele></trkpt>
    <trkpt lat="63.1806568" lon="14.694857"><ele>0.0</ele></trkpt>
    <trkpt lat="63.1808634" lon="14.6949094"><ele>0.0</ele></trkpt>
    <trkpt lat="63.1810033" lon="14.694887"><ele>0.0</ele></trkpt>
    <trkpt lat="63.1812085" lon="14.6948541"><ele>0.0</ele></trkpt>
    <trkpt lat="63.1813838" lon="14.6947914"><ele>0.0</ele></trkpt>
    <trkpt lat="63.1815962" lon="14.6947348"><ele>0.0</ele></trkpt>
    <trkpt lat="63.1819436" lon="14.6946929"><ele>0.0</ele></trkpt>
    <trkpt lat="63.1820195" lon="14.6946838"><ele>0.0</ele></trkpt>
    <trkpt lat="63.182696" lon="14.6946296"><ele>0.0</ele></trkpt>
    <trkpt lat="63.183154" lon="14.6946131"><ele>0.0</ele></trkpt>
    <trkpt lat="63.1835152" lon="14.6946772"><ele>0.0</ele></trkpt>
    <trkpt lat="63.1836498" lon="14.6946338"><ele>0.0</ele></trkpt>
    <trkpt lat="63.1837033" lon="14.6946166"><ele>0.0</ele></trkpt>
    <trkpt lat="63.1840028" lon="14.6944099"><ele>0.0</ele></trkpt>
    <trkpt lat="63.1842688" lon="14.6943379"><ele>0.0</ele></trkpt>
    <trkpt lat="63.1845226" lon="14.6944697"><ele>0.0</ele></trkpt>
    <trkpt lat="63.1848228" lon="14.6944637"><ele>0.0</ele></trkpt>
    <trkpt lat="63.1851441" lon="14.694353"><ele>0.0</ele></trkpt>
    <trkpt lat="63.1854009" lon="14.6944347"><ele>0.0</ele></trkpt>
    <trkpt lat="63.185577" lon="14.6944937"><ele>0.0</ele></trkpt>
    <trkpt lat="63.1858011" lon="14.6944738"><ele>0.0</ele></trkpt>
    <trkpt lat="63.1859733" lon="14.6942177"><ele>0.0</ele></trkpt>
    <trkpt lat="63.1860936" lon="14.6939813"><ele>0.0</ele></trkpt>
    <trkpt lat="63.1861116" lon="14.6939459"><ele>0.0</ele></trkpt>
    <trkpt lat="63.1862474" lon="14.6934835"><ele>0.0</ele></trkpt>
    <trkpt lat="63.1863085" lon="14.6930353"><ele>0.0</ele></trkpt>
    <trkpt lat="63.1862871" lon="14.6925686"><ele>0.0</ele></trkpt>
    <trkpt lat="63.1862334" lon="14.6922263"><ele>0.0</ele></trkpt>
    <trkpt lat="63.1861168" lon="14.6917056"><ele>0.0</ele></trkpt>
    <trkpt lat="63.1861009" lon="14.6915763"><ele>0.0</ele></trkpt>
    <trkpt lat="63.1860592" lon="14.6912363"><ele>0.0</ele></trkpt>
    <trkpt lat="63.1860464" lon="14.6911738"><ele>0.0</ele></trkpt>
    <trkpt lat="63.186073" lon="14.6906777"><ele>0.0</ele></trkpt>
    <trkpt lat="63.1860939" lon="14.6902219"><ele>0.0</ele></trkpt>
    <trkpt lat="63.1860877" lon="14.6899848"><ele>0.0</ele></trkpt>
    <trkpt lat="63.1860412" lon="14.6895697"><ele>0.0</ele></trkpt>
    <trkpt lat="63.1860036" lon="14.6892942"><ele>0.0</ele></trkpt>
    <trkpt lat="63.1858478" lon="14.6882121"><ele>0.0</ele></trkpt>
    <trkpt lat="63.1857575" lon="14.687944"><ele>0.0</ele></trkpt>
    <trkpt lat="63.1856252" lon="14.6877782"><ele>0.0</ele></trkpt>
    <trkpt lat="63.1854647" lon="14.6876563"><ele>0.0</ele></trkpt>
    <trkpt lat="63.1852223" lon="14.6873812"><ele>0.0</ele></trkpt>
    <trkpt lat="63.1850293" lon="14.687254"><ele>0.0</ele></trkpt>
    <trkpt lat="63.1848363" lon="14.6869881"><ele>0.0</ele></trkpt>
    <trkpt lat="63.184673" lon="14.686838"><ele>0.0</ele></trkpt>
    <trkpt lat="63.1846224" lon="14.6867915"><ele>0.0</ele></trkpt>
    <trkpt lat="63.1844451" lon="14.6866643"><ele>0.0</ele></trkpt>
    <trkpt lat="63.184299" lon="14.6866759"><ele>0.0</ele></trkpt>
    <trkpt lat="63.184106" lon="14.6866874"><ele>0.0</ele></trkpt>
    <trkpt lat="63.1838974" lon="14.6867568"><ele>0.0</ele></trkpt>
    <trkpt lat="63.1836261" lon="14.6867799"><ele>0.0</ele></trkpt>
    <trkpt lat="63.183334" lon="14.6866528"><ele>0.0</ele></trkpt>
    <trkpt lat="63.1830888" lon="14.6863637"><ele>0.0</ele></trkpt>
    <trkpt lat="63.182948" lon="14.6859474"><ele>0.0</ele></trkpt>
    <trkpt lat="63.1828698" lon="14.6856005"><ele>0.0</ele></trkpt>
    <trkpt lat="63.1828385" lon="14.6854618"><ele>0.0</ele></trkpt>
    <trkpt lat="63.1827967" lon="14.685034"><ele>0.0</ele></trkpt>
    <trkpt lat="63.1828353" lon="14.6841353"><ele>0.0</ele></trkpt>
    <trkpt lat="63.1828972" lon="14.6838612"><ele>0.0</ele></trkpt>
    <trkpt lat="63.1830004" lon="14.6836248"><ele>0.0</ele></trkpt>
    <trkpt lat="63.1831281" lon="14.6834058"><ele>0.0</ele></trkpt>
    <trkpt lat="63.1833117" lon="14.6830761"><ele>0.0</ele></trkpt>
    <trkpt lat="63.1834018" lon="14.6829643"><ele>0.0</ele></trkpt>
    <trkpt lat="63.1835197" lon="14.6828953"><ele>0.0</ele></trkpt>
    <trkpt lat="63.1835732" lon="14.6828486"><ele>0.0</ele></trkpt>
    <trkpt lat="63.1836261" lon="14.6828024"><ele>0.0</ele></trkpt>
    <trkpt lat="63.1838869" lon="14.6827446"><ele>0.0</ele></trkpt>
    <trkpt lat="63.1840591" lon="14.6827099"><ele>0.0</ele></trkpt>
    <trkpt lat="63.1842312" lon="14.6826058"><ele>0.0</ele></trkpt>
    <trkpt lat="63.184343" lon="14.6825255"><ele>0.0</ele></trkpt>
    <trkpt lat="63.1844242" lon="14.6824671"><ele>0.0</ele></trkpt>
    <trkpt lat="63.1846444" lon="14.6824069"><ele>0.0</ele></trkpt>
    <trkpt lat="63.184915" lon="14.6823584"><ele>0.0</ele></trkpt>
    <trkpt lat="63.1849406" lon="14.6823538"><ele>0.0</ele></trkpt>
    <trkpt lat="63.1853996" lon="14.6822011"><ele>0.0</ele></trkpt>
    <trkpt lat="63.1855947" lon="14.6818349"><ele>0.0</ele></trkpt>
    <trkpt lat="63.1856645" lon="14.681638"><ele>0.0</ele></trkpt>
    <trkpt lat="63.1857311" lon="14.6813638"><ele>0.0</ele></trkpt>
    <trkpt lat="63.1858241" lon="14.6811766"><ele>0.0</ele></trkpt>
    <trkpt lat="63.1858988" lon="14.6809742"><ele>0.0</ele></trkpt>
    <trkpt lat="63.1859155" lon="14.6807004"><ele>0.0</ele></trkpt>
    <trkpt lat="63.1860056" lon="14.6805154"><ele>0.0</ele></trkpt>
    <trkpt lat="63.1860857" lon="14.680471"><ele>0.0</ele></trkpt>
    <trkpt lat="63.1862293" lon="14.6805154"><ele>0.0</ele></trkpt>
    <trkpt lat="63.1863628" lon="14.680397"><ele>0.0</ele></trkpt>
    <trkpt lat="63.1864462" lon="14.6802712"><ele>0.0</ele></trkpt>
    <trkpt lat="63.186523" lon="14.6800418"><ele>0.0</ele></trkpt>
    <trkpt lat="63.1865664" lon="14.6796866"><ele>0.0</ele></trkpt>
    <trkpt lat="63.1866298" lon="14.6794128"><ele>0.0</ele></trkpt>
    <trkpt lat="63.1868201" lon="14.678917"><ele>0.0</ele></trkpt>
    <trkpt lat="63.1870871" lon="14.6784656"><ele>0.0</ele></trkpt>
    <trkpt lat="63.1873141" lon="14.6781696"><ele>0.0</ele></trkpt>
    <trkpt lat="63.1873842" lon="14.677992"><ele>0.0</ele></trkpt>
    <trkpt lat="63.1874009" lon="14.677844"><ele>0.0</ele></trkpt>
    <trkpt lat="63.1873876" lon="14.6776664"><ele>0.0</ele></trkpt>
    <trkpt lat="63.1873308" lon="14.6775184"><ele>0.0</ele></trkpt>
    <trkpt lat="63.1872273" lon="14.6774814"><ele>0.0</ele></trkpt>
    <trkpt lat="63.1871339" lon="14.6774814"><ele>0.0</ele></trkpt>
    <trkpt lat="63.1870104" lon="14.6776146"><ele>0.0</ele></trkpt>
    <trkpt lat="63.1868268" lon="14.6779328"><ele>0.0</ele></trkpt>
    <trkpt lat="63.1865531" lon="14.678288"><ele>0.0</ele></trkpt>
    <trkpt lat="63.1862326" lon="14.6783916"><ele>0.0</ele></trkpt>
    <trkpt lat="63.1859756" lon="14.6786728"><ele>0.0</ele></trkpt>
    <trkpt lat="63.1856785" lon="14.6787542"><ele>0.0</ele></trkpt>
    <trkpt lat="63.1854314" lon="14.6786728"><ele>0.0</ele></trkpt>
    <trkpt lat="63.1852111" lon="14.678473"><ele>0.0</ele></trkpt>
    <trkpt lat="63.185111" lon="14.6782954"><ele>0.0</ele></trkpt>
    <trkpt lat="63.1850609" lon="14.6781474"><ele>0.0</ele></trkpt>
    <trkpt lat="63.1850475" lon="14.6779624"><ele>0.0</ele></trkpt>
    <trkpt lat="63.1850742" lon="14.6777922"><ele>0.0</ele></trkpt>
    <trkpt lat="63.185163" lon="14.6777174"><ele>0.0</ele></trkpt>
    <trkpt lat="63.185252" lon="14.6777085"><ele>0.0</ele></trkpt>
    <trkpt lat="63.1853571" lon="14.677698"><ele>0.0</ele></trkpt>
    <trkpt lat="63.185564" lon="14.6777681"><ele>0.0</ele></trkpt>
    <trkpt lat="63.1856938" lon="14.6777537"><ele>0.0</ele></trkpt>
    <trkpt lat="63.186039" lon="14.6776072"><ele>0.0</ele></trkpt>
    <trkpt lat="63.186296" lon="14.6774222"><ele>0.0</ele></trkpt>
    <trkpt lat="63.1864229" lon="14.6771484"><ele>0.0</ele></trkpt>
    <trkpt lat="63.186483" lon="14.6769486"><ele>0.0</ele></trkpt>
    <trkpt lat="63.1864934" lon="14.676748"><ele>0.0</ele></trkpt>
    <trkpt lat="63.186483" lon="14.6766082"><ele>0.0</ele></trkpt>
    <trkpt lat="63.1864295" lon="14.6764454"><ele>0.0</ele></trkpt>
    <trkpt lat="63.1863176" lon="14.6760362"><ele>0.0</ele></trkpt>
    <trkpt lat="63.1862939" lon="14.675881"><ele>0.0</ele></trkpt>
    <trkpt lat="63.1863109" lon="14.6757239"><ele>0.0</ele></trkpt>
    <trkpt lat="63.1863424" lon="14.6755944"><ele>0.0</ele></trkpt>
    <trkpt lat="63.1864028" lon="14.6754168"><ele>0.0</ele></trkpt>
    <trkpt lat="63.1865497" lon="14.6750764"><ele>0.0</ele></trkpt>
    <trkpt lat="63.1865731" lon="14.6749579"><ele>0.0</ele></trkpt>
    <trkpt lat="63.1865664" lon="14.6742105"><ele>0.0</ele></trkpt>
    <trkpt lat="63.1864996" lon="14.6731523"><ele>0.0</ele></trkpt>
    <trkpt lat="63.1864865" lon="14.6727687"><ele>0.0</ele></trkpt>
    <trkpt lat="63.1865042" lon="14.6720416"><ele>0.0</ele></trkpt>
    <trkpt lat="63.1865066" lon="14.6719631"><ele>0.0</ele></trkpt>
    <trkpt lat="63.1865272" lon="14.6712894"><ele>0.0</ele></trkpt>
    <trkpt lat="63.1866977" lon="14.6701906"><ele>0.0</ele></trkpt>
    <trkpt lat="63.1868595" lon="14.6691481"><ele>0.0</ele></trkpt>
    <trkpt lat="63.1876562" lon="14.671159"><ele>0.0</ele></trkpt>
    <trkpt lat="63.1877689" lon="14.6714396"><ele>0.0</ele></trkpt>
    <trkpt lat="63.1884669" lon="14.673157"><ele>0.0</ele></trkpt>
    <trkpt lat="63.1894788" lon="14.6754078"><ele>0.0</ele></trkpt>
    <trkpt lat="63.1895971" lon="14.6757005"><ele>0.0</ele></trkpt>
    <trkpt lat="63.1900712" lon="14.6767181"><ele>0.0</ele></trkpt>
    <trkpt lat="63.190661" lon="14.678279"><ele>0.0</ele></trkpt>
    <trkpt lat="63.1907472" lon="14.6784675"><ele>0.0</ele></trkpt>
    <trkpt lat="63.1909519" lon="14.6789154"><ele>0.0</ele></trkpt>
    <trkpt lat="63.1910113" lon="14.6791807"><ele>0.0</ele></trkpt>
    <trkpt lat="63.1911892" lon="14.6795035"><ele>0.0</ele></trkpt>
    <trkpt lat="63.191373" lon="14.6799571"><ele>0.0</ele></trkpt>
    <trkpt lat="63.1915571" lon="14.6802867"><ele>0.0</ele></trkpt>
    <trkpt lat="63.1918533" lon="14.6799215"><ele>0.0</ele></trkpt>
    <trkpt lat="63.1918222" lon="14.6802225"><ele>0.0</ele></trkpt>
    <trkpt lat="63.1917761" lon="14.6804089"><ele>0.0</ele></trkpt>
    <trkpt lat="63.1917462" lon="14.6805143"><ele>0.0</ele></trkpt>
    <trkpt lat="63.1916947" lon="14.6807199"><ele>0.0</ele></trkpt>
    <trkpt lat="63.191511" lon="14.6814213"><ele>0.0</ele></trkpt>
    <trkpt lat="63.1914525" lon="14.6817276"><ele>0.0</ele></trkpt>
    <trkpt lat="63.1913948" lon="14.6822303"><ele>0.0</ele></trkpt>
    <trkpt lat="63.1913578" lon="14.6826776"><ele>0.0</ele></trkpt>
    <trkpt lat="63.1913154" lon="14.6829755"><ele>0.0</ele></trkpt>
    <trkpt lat="63.1912452" lon="14.6832529"><ele>0.0</ele></trkpt>
    <trkpt lat="63.1914146" lon="14.6837733"><ele>0.0</ele></trkpt>
    <trkpt lat="63.1916493" lon="14.6842936"><ele>0.0</ele></trkpt>
    <trkpt lat="63.1917536" lon="14.6845971"><ele>0.0</ele></trkpt>
    <trkpt lat="63.1918579" lon="14.6849151"><ele>0.0</ele></trkpt>
    <trkpt lat="63.1919752" lon="14.6850307"><ele>0.0</ele></trkpt>
    <trkpt lat="63.1919752" lon="14.685392"><ele>0.0</ele></trkpt>
    <trkpt lat="63.1920339" lon="14.6856522"><ele>0.0</ele></trkpt>
    <trkpt lat="63.1922425" lon="14.6859413"><ele>0.0</ele></trkpt>
    <trkpt lat="63.1924185" lon="14.6863026"><ele>0.0</ele></trkpt>
    <trkpt lat="63.1927183" lon="14.6870831"><ele>0.0</ele></trkpt>
    <trkpt lat="63.1929595" lon="14.6874011"><ele>0.0</ele></trkpt>
    <trkpt lat="63.1931055" lon="14.687518"><ele>0.0</ele></trkpt>
    <trkpt lat="63.1931858" lon="14.6875653"><ele>0.0</ele></trkpt>
    <trkpt lat="63.1932413" lon="14.6874174"><ele>0.0</ele></trkpt>
    <trkpt lat="63.1933103" lon="14.6873188"><ele>0.0</ele></trkpt>
    <trkpt lat="63.1934814" lon="14.6871068"><ele>0.0</ele></trkpt>
    <trkpt lat="63.1935815" lon="14.6869244"><ele>0.0</ele></trkpt>
    <trkpt lat="63.1937082" lon="14.6867075"><ele>0.0</ele></trkpt>
    <trkpt lat="63.1939794" lon="14.6864561"><ele>0.0</ele></trkpt>
    <trkpt lat="63.1941751" lon="14.6863674"><ele>0.0</ele></trkpt>
    <trkpt lat="63.1943685" lon="14.6861456"><ele>0.0</ele></trkpt>
    <trkpt lat="63.194473" lon="14.6860667"><ele>0.0</ele></trkpt>
    <trkpt lat="63.1946686" lon="14.6861672"><ele>0.0</ele></trkpt>
    <trkpt lat="63.1948284" lon="14.6861583"><ele>0.0</ele></trkpt>
    <trkpt lat="63.1953869" lon="14.6853524"><ele>0.0</ele></trkpt>
    <trkpt lat="63.195488" lon="14.6852811"><ele>0.0</ele></trkpt>
    <trkpt lat="63.1958267" lon="14.6849335"><ele>0.0</ele></trkpt>
    <trkpt lat="63.1959931" lon="14.6847061"><ele>0.0</ele></trkpt>
    <trkpt lat="63.196266" lon="14.6841868"><ele>0.0</ele></trkpt>
    <trkpt lat="63.1966859" lon="14.6835731"><ele>0.0</ele></trkpt>
    <trkpt lat="63.1971813" lon="14.6828607"><ele>0.0</ele></trkpt>
    <trkpt lat="63.1976457" lon="14.6820839"><ele>0.0</ele></trkpt>
    <trkpt lat="63.1977754" lon="14.681908"><ele>0.0</ele></trkpt>
    <trkpt lat="63.1980134" lon="14.6816719"><ele>0.0</ele></trkpt>
    <trkpt lat="63.1981818" lon="14.6813501"><ele>0.0</ele></trkpt>
    <trkpt lat="63.1983521" lon="14.681114"><ele>0.0</ele></trkpt>
    <trkpt lat="63.1984391" lon="14.6810411"><ele>0.0</ele></trkpt>
    <trkpt lat="63.1987004" lon="14.6807836"><ele>0.0</ele></trkpt>
    <trkpt lat="63.198919" lon="14.6805776"><ele>0.0</ele></trkpt>
    <trkpt lat="63.1990672" lon="14.6805212"><ele>0.0</ele></trkpt>
    <trkpt lat="63.1991538" lon="14.680595"><ele>0.0</ele></trkpt>
    <trkpt lat="63.1993949" lon="14.6808391"><ele>0.0</ele></trkpt>
    <trkpt lat="63.1994833" lon="14.6806784"><ele>0.0</ele></trkpt>
    <trkpt lat="63.1996442" lon="14.6802374"><ele>0.0</ele></trkpt>
    <trkpt lat="63.1998469" lon="14.6794282"><ele>0.0</ele></trkpt>
    <trkpt lat="63.1999153" lon="14.6788775"><ele>0.0</ele></trkpt>
    <trkpt lat="63.1999558" lon="14.6782144"><ele>0.0</ele></trkpt>
    <trkpt lat="63.200009" lon="14.677703"><ele>0.0</ele></trkpt>
    <trkpt lat="63.2001408" lon="14.677394"><ele>0.0</ele></trkpt>
    <trkpt lat="63.2002573" lon="14.6771411"><ele>0.0</ele></trkpt>
    <trkpt lat="63.2002953" lon="14.6768545"><ele>0.0</ele></trkpt>
    <trkpt lat="63.2002193" lon="14.6763038"><ele>0.0</ele></trkpt>
    <trkpt lat="63.2000427" lon="14.6757651"><ele>0.0</ele></trkpt>
    <trkpt lat="63.2000232" lon="14.6757277"><ele>0.0</ele></trkpt>
    <trkpt lat="63.1999026" lon="14.6755283"><ele>0.0</ele></trkpt>
    <trkpt lat="63.199705" lon="14.6752979"><ele>0.0</ele></trkpt>
    <trkpt lat="63.1995276" lon="14.6750506"><ele>0.0</ele></trkpt>
    <trkpt lat="63.1993046" lon="14.6747247"><ele>0.0</ele></trkpt>
    <trkpt lat="63.1992086" lon="14.6744311"><ele>0.0</ele></trkpt>
    <trkpt lat="63.1990071" lon="14.6740225"><ele>0.0</ele></trkpt>
    <trkpt lat="63.1988776" lon="14.6736012"><ele>0.0</ele></trkpt>
    <trkpt lat="63.1987768" lon="14.6732054"><ele>0.0</ele></trkpt>
    <trkpt lat="63.1988171" lon="14.6726691"><ele>0.0</ele></trkpt>
    <trkpt lat="63.1988185" lon="14.6723021"><ele>0.0</ele></trkpt>
    <trkpt lat="63.1987164" lon="14.671836"><ele>0.0</ele></trkpt>
    <trkpt lat="63.1985192" lon="14.6710795"><ele>0.0</ele></trkpt>
    <trkpt lat="63.1983249" lon="14.6704316"><ele>0.0</ele></trkpt>
    <trkpt lat="63.1981939" lon="14.6702305"><ele>0.0</ele></trkpt>
    <trkpt lat="63.1980255" lon="14.6701411"><ele>0.0</ele></trkpt>
    <trkpt lat="63.1976571" lon="14.6700613"><ele>0.0</ele></trkpt>
    <trkpt lat="63.1975433" lon="14.6699592"><ele>0.0</ele></trkpt>
    <trkpt lat="63.1974081" lon="14.6695921"><ele>0.0</ele></trkpt>
    <trkpt lat="63.197339" lon="14.6694389"><ele>0.0</ele></trkpt>
    <trkpt lat="63.1968755" lon="14.6690048"><ele>0.0</ele></trkpt>
    <trkpt lat="63.1962393" lon="14.6684813"><ele>0.0</ele></trkpt>
    <trkpt lat="63.1956967" lon="14.6679099"><ele>0.0</ele></trkpt>
    <trkpt lat="63.1955209" lon="14.6678256"><ele>0.0</ele></trkpt>
    <trkpt lat="63.1954738" lon="14.6677396"><ele>0.0</ele></trkpt>
    <trkpt lat="63.1953818" lon="14.6675412"><ele>0.0</ele></trkpt>
    <trkpt lat="63.1952056" lon="14.6672452"><ele>0.0</ele></trkpt>
    <trkpt lat="63.1949887" lon="14.6670099"><ele>0.0</ele></trkpt>
    <trkpt lat="63.1948159" lon="14.6668012"><ele>0.0</ele></trkpt>
    <trkpt lat="63.1945676" lon="14.666517"><ele>0.0</ele></trkpt>
    <trkpt lat="63.1943805" lon="14.6662236"><ele>0.0</ele></trkpt>
    <trkpt lat="63.1942365" lon="14.6661381"><ele>0.0</ele></trkpt>
    <trkpt lat="63.1939743" lon="14.665965"><ele>0.0</ele></trkpt>
    <trkpt lat="63.1940542" lon="14.6661342"><ele>0.0</ele></trkpt>
    <trkpt lat="63.1941276" lon="14.666334"><ele>0.0</ele></trkpt>
    <trkpt lat="63.194171" lon="14.666482"><ele>0.0</ele></trkpt>
    <trkpt lat="63.1941877" lon="14.6666892"><ele>0.0</ele></trkpt>
    <trkpt lat="63.1941744" lon="14.6668816"><ele>0.0</ele></trkpt>
    <trkpt lat="63.1940709" lon="14.667592"><ele>0.0</ele></trkpt>
    <trkpt lat="63.1940242" lon="14.6679028"><ele>0.0</ele></trkpt>
    <trkpt lat="63.1939961" lon="14.6681485"><ele>0.0</ele></trkpt>
    <trkpt lat="63.1938039" lon="14.668036"><ele>0.0</ele></trkpt>
    <trkpt lat="63.1937439" lon="14.6679324"><ele>0.0</ele></trkpt>
    <trkpt lat="63.193617" lon="14.6678214"><ele>0.0</ele></trkpt>
    <trkpt lat="63.1934602" lon="14.6677474"><ele>0.0</ele></trkpt>
    <trkpt lat="63.1933528" lon="14.6676537"><ele>0.0</ele></trkpt>
    <trkpt lat="63.1933348" lon="14.6672485"><ele>0.0</ele></trkpt>
    <trkpt lat="63.1932591" lon="14.6669925"><ele>0.0</ele></trkpt>
    <trkpt lat="63.1931459" lon="14.6668315"><ele>0.0</ele></trkpt>
    <trkpt lat="63.1930455" lon="14.6667936"><ele>0.0</ele></trkpt>
    <trkpt lat="63.1929238" lon="14.666751"><ele>0.0</ele></trkpt>
    <trkpt lat="63.192817" lon="14.6667794"><ele>0.0</ele></trkpt>
    <trkpt lat="63.1927038" lon="14.6668078"><ele>0.0</ele></trkpt>
    <trkpt lat="63.1926141" lon="14.6668173"><ele>0.0</ele></trkpt>
    <trkpt lat="63.1925622" lon="14.6668896"><ele>0.0</ele></trkpt>
    <trkpt lat="63.1925564" lon="14.6669831"><ele>0.0</ele></trkpt>
    <trkpt lat="63.1925863" lon="14.6671583"><ele>0.0</ele></trkpt>
    <trkpt lat="63.1926098" lon="14.6673572"><ele>0.0</ele></trkpt>
    <trkpt lat="63.192644" lon="14.6676082"><ele>0.0</ele></trkpt>
    <trkpt lat="63.1926547" lon="14.6677977"><ele>0.0</ele></trkpt>
    <trkpt lat="63.1926483" lon="14.668025"><ele>0.0</ele></trkpt>
    <trkpt lat="63.192629" lon="14.6681908"><ele>0.0</ele></trkpt>
    <trkpt lat="63.1925756" lon="14.6683849"><ele>0.0</ele></trkpt>
    <trkpt lat="63.1924923" lon="14.6685933"><ele>0.0</ele></trkpt>
    <trkpt lat="63.1924133" lon="14.6687212"><ele>0.0</ele></trkpt>
    <trkpt lat="63.1923407" lon="14.6688112"><ele>0.0</ele></trkpt>
    <trkpt lat="63.1918757" lon="14.6682979"><ele>0.0</ele></trkpt>
    <trkpt lat="63.1920496" lon="14.6681117"><ele>0.0</ele></trkpt>
    <trkpt lat="63.1921852" lon="14.6678111"><ele>0.0</ele></trkpt>
    <trkpt lat="63.1922477" lon="14.6675336"><ele>0.0</ele></trkpt>
    <trkpt lat="63.1922999" lon="14.6671982"><ele>0.0</ele></trkpt>
    <trkpt lat="63.1922934" lon="14.6669259"><ele>0.0</ele></trkpt>
    <trkpt lat="63.1920791" lon="14.666714"><ele>0.0</ele></trkpt>
    <trkpt lat="63.1919714" lon="14.6669786"><ele>0.0</ele></trkpt>
    <trkpt lat="63.1918566" lon="14.6670595"><ele>0.0</ele></trkpt>
    <trkpt lat="63.1917367" lon="14.6670248"><ele>0.0</ele></trkpt>
    <trkpt lat="63.1915229" lon="14.6670479"><ele>0.0</ele></trkpt>
    <trkpt lat="63.1914134" lon="14.6671751"><ele>0.0</ele></trkpt>
    <trkpt lat="63.1912621" lon="14.6673023"><ele>0.0</ele></trkpt>
    <trkpt lat="63.1911519" lon="14.6671665"><ele>0.0</ele></trkpt>
    <trkpt lat="63.1912621" lon="14.6673023"><ele>0.0</ele></trkpt>
    <trkpt lat="63.191283" lon="14.6677301"><ele>0.0</ele></trkpt>
    <trkpt lat="63.1913351" lon="14.6679614"><ele>0.0</ele></trkpt>
    <trkpt lat="63.1914551" lon="14.6680076"><ele>0.0</ele></trkpt>
    <trkpt lat="63.191648" lon="14.6680654"><ele>0.0</ele></trkpt>
    <trkpt lat="63.1917888" lon="14.6681579"><ele>0.0</ele></trkpt>
    <trkpt lat="63.1918757" lon="14.6682979"><ele>0.0</ele></trkpt>
    <trkpt lat="63.1919609" lon="14.6684354"><ele>0.0</ele></trkpt>
    <trkpt lat="63.1921904" lon="14.6686551"><ele>0.0</ele></trkpt>
    <trkpt lat="63.1923407" lon="14.6688112"><ele>0.0</ele></trkpt>
    <trkpt lat="63.1923833" lon="14.6690598"><ele>0.0</ele></trkpt>
    <trkpt lat="63.1924132" lon="14.6691326"><ele>0.0</ele></trkpt>
    <trkpt lat="63.1924876" lon="14.6693142"><ele>0.0</ele></trkpt>
    <trkpt lat="63.1926596" lon="14.6694309"><ele>0.0</ele></trkpt>
    <trkpt lat="63.1927412" lon="14.6694639"><ele>0.0</ele></trkpt>
    <trkpt lat="63.1928214" lon="14.6695686"><ele>0.0</ele></trkpt>
    <trkpt lat="63.1928702" lon="14.6697731"><ele>0.0</ele></trkpt>
    <trkpt lat="63.1929179" lon="14.6700228"><ele>0.0</ele></trkpt>
    <trkpt lat="63.1929122" lon="14.6703565"><ele>0.0</ele></trkpt>
    <trkpt lat="63.1928791" lon="14.6706486"><ele>0.0</ele></trkpt>
    <trkpt lat="63.1928204" lon="14.6709915"><ele>0.0</ele></trkpt>
    <trkpt lat="63.192747" lon="14.6713414"><ele>0.0</ele></trkpt>
  </trkseg></trk>
</gpx>