<?xml version="1.0" encoding="UTF-8"?>
<gpx version="1.1" xmlns="http://www.topografix.com/GPX/1/1" creator="GlideCast">
  <trk><name>Planica</name><trkseg>
    <trkpt lat="46.4927789" lon="13.6688311"><ele>826.0</ele></trkpt>
    <trkpt lat="46.4928068" lon="13.6686261"><ele>848.0</ele></trkpt>
    <trkpt lat="46.4928518" lon="13.66842"><ele>848.0</ele></trkpt>
    <trkpt lat="46.4929026" lon="13.6681786"><ele>848.0</ele></trkpt>
    <trkpt lat="46.4929463" lon="13.6680065"><ele>848.0</ele></trkpt>
    <trkpt lat="46.4930154" lon="13.6678007"><ele>848.0</ele></trkpt>
    <trkpt lat="46.4930478" lon="13.6677206"><ele>848.0</ele></trkpt>
    <trkpt lat="46.4931588" lon="13.6674598"><ele>848.0</ele></trkpt>
    <trkpt lat="46.4933733" lon="13.6669922"><ele>848.0</ele></trkpt>
    <trkpt lat="46.4934099" lon="13.6669128"><ele>848.0</ele></trkpt>
    <trkpt lat="46.4935005" lon="13.6667163"><ele>848.0</ele></trkpt>
    <trkpt lat="46.4935722" lon="13.6664928"><ele>868.0</ele></trkpt>
    <trkpt lat="46.4936269" lon="13.6663094"><ele>868.0</ele></trkpt>
    <trkpt lat="46.4936943" lon="13.6660635"><ele>868.0</ele></trkpt>
    <trkpt lat="46.4937361" lon="13.6657856"><ele>868.0</ele></trkpt>
    <trkpt lat="46.4937858" lon="13.6654943"><ele>808.0</ele></trkpt>
    <trkpt lat="46.4938071" lon="13.6653353"><ele>808.0</ele></trkpt>
    <trkpt lat="46.4938132" lon="13.6651616"><ele>808.0</ele></trkpt>
    <trkpt lat="46.4938215" lon="13.6649546"><ele>808.0</ele></trkpt>
    <trkpt lat="46.4938186" lon="13.6647488"><ele>808.0</ele></trkpt>
    <trkpt lat="46.4938057" lon="13.6645136"><ele>794.0</ele></trkpt>
    <trkpt lat="46.4937666" lon="13.6641887"><ele>794.0</ele></trkpt>
    <trkpt lat="46.4937281" lon="13.6639524"><ele>870.0</ele></trkpt>
    <trkpt lat="46.4936781" lon="13.6636727"><ele>870.0</ele></trkpt>
    <trkpt lat="46.4936439" lon="13.6633726"><ele>870.0</ele></trkpt>
    <trkpt lat="46.4936205" lon="13.6631583"><ele>870.0</ele></trkpt>
    <trkpt lat="46.4936075" lon="13.6628769"><ele>870.0</ele></trkpt>
    <trkpt lat="46.4936126" lon="13.662607"><ele>870.0</ele></trkpt>
    <trkpt lat="46.4936095" lon="13.6623435"><ele>865.0</ele></trkpt>
    <trkpt lat="46.4936359" lon="13.6620694"><ele>865.0</ele></trkpt>
    <trkpt lat="46.4936932" lon="13.66172"><ele>865.0</ele></trkpt>
    <trkpt lat="46.4938499" lon="13.6612083"><ele>803.0</ele></trkpt>
    <trkpt lat="46.4938874" lon="13.661076"><ele>803.0</ele></trkpt>
    <trkpt lat="46.494016" lon="13.6607329"><ele>803.0</ele></trkpt>
    <trkpt lat="46.4941414" lon="13.6604009"><ele>820.0</ele></trkpt>
    <trkpt lat="46.4942324" lon="13.660162"><ele>820.0</ele></trkpt>
    <trkpt lat="46.4943013" lon="13.6598445"><ele>820.0</ele></trkpt>
    <trkpt lat="46.4943887" lon="13.6594545"><ele>820.0</ele></trkpt>
    <trkpt lat="46.4944308" lon="13.6591318"><ele>820.0</ele></trkpt>
    <trkpt lat="46.4944549" lon="13.6589141"><ele>820.0</ele></trkpt>
    <trkpt lat="46.4944564" lon="13.6585581"><ele>820.0</ele></trkpt>
    <trkpt lat="46.4944403" lon="13.6582258"><ele>792.0</ele></trkpt>
    <trkpt lat="46.4944092" lon="13.6579572"><ele>792.0</ele></trkpt>
    <trkpt lat="46.4943718" lon="13.6576833"><ele>792.0</ele></trkpt>
    <trkpt lat="46.4943147" lon="13.6573864"><ele>792.0</ele></trkpt>
    <trkpt lat="46.4942706" lon="13.6571893"><ele>792.0</ele></trkpt>
    <trkpt lat="46.4942558" lon="13.6571158"><ele>792.0</ele></trkpt>
    <trkpt lat="46.4941783" lon="13.6567298"><ele>792.0</ele></trkpt>
    <trkpt lat="46.4940441" lon="13.6560746"><ele>784.0</ele></trkpt>
    <trkpt lat="46.4939245" lon="13.6553087"><ele>784.0</ele></trkpt>
    <trkpt lat="46.4938719" lon="13.6548525"><ele>784.0</ele></trkpt>
    <trkpt lat="46.4938586" lon="13.6546661"><ele>784.0</ele></trkpt>
    <trkpt lat="46.4938518" lon="13.6545705"><ele>784.0</ele></trkpt>
    <trkpt lat="46.4938388" lon="13.6543891"><ele>784.0</ele></trkpt>
    <trkpt lat="46.4937763" lon="13.6538221"><ele>777.0</ele></trkpt>
    <trkpt lat="46.4937803" lon="13.6525669"><ele>777.0</ele></trkpt>
    <trkpt lat="46.4937844" lon="13.6523445"><ele>777.0</ele></trkpt>
    <trkpt lat="46.4937906" lon="13.6519612"><ele>772.0</ele></trkpt>
    <trkpt lat="46.4938384" lon="13.6507856"><ele>772.0</ele></trkpt>
    <trkpt lat="46.4938802" lon="13.6498849"><ele>775.0</ele></trkpt>
    <trkpt lat="46.4938843" lon="13.6492972"><ele>775.0</ele></trkpt>
    <trkpt lat="46.4938711" lon="13.6489207"><ele>775.0</ele></trkpt>
    <trkpt lat="46.4938482" lon="13.6486074"><ele>775.0</ele></trkpt>
    <trkpt lat="46.4937903" lon="13.6482584"><ele>775.0</ele></trkpt>
    <trkpt lat="46.4937535" lon="13.6479832"><ele>775.0</ele></trkpt>
    <trkpt lat="46.493726" lon="13.6477772"><ele>823.0</ele></trkpt>
    <trkpt lat="46.4936023" lon="13.6468515"><ele>823.0</ele></trkpt>
    <trkpt lat="46.4934225" lon="13.6456405"><ele>816.0</ele></trkpt>
    <trkpt lat="46.4932827" lon="13.6447263"><ele>816.0</ele></trkpt>
    <trkpt lat="46.493127" lon="13.6435813"><ele>808.0</ele></trkpt>
  </trkseg></trk>
</gpx>