<?xml version="1.0" encoding="UTF-8"?>
<gpx version="1.1" xmlns="http://www.topografix.com/GPX/1/1" creator="GlideCast">
  <trk><name>Ruka/Kuusamo</name><trkseg>
    <trkpt lat="66.1562886" lon="29.1379858"><ele>0.0</ele></trkpt>
    <trkpt lat="66.1564098" lon="29.1376216"><ele>0.0</ele></trkpt>
    <trkpt lat="66.1565948" lon="29.1371222"><ele>0.0</ele></trkpt>
    <trkpt lat="66.1567871" lon="29.1366242"><ele>0.0</ele></trkpt>
    <trkpt lat="66.1571164" lon="29.1359706"><ele>0.0</ele></trkpt>
    <trkpt lat="66.157552" lon="29.135294"><ele>0.0</ele></trkpt>
    <trkpt lat="66.1577863" lon="29.13493"><ele>0.0</ele></trkpt>
    <trkpt lat="66.1581312" lon="29.1346617"><ele>0.0</ele></trkpt>
    <trkpt lat="66.15871" lon="29.134363"><ele>0.0</ele></trkpt>
    <trkpt lat="66.1589265" lon="29.1346435"><ele>0.0</ele></trkpt>
    <trkpt lat="66.1590558" lon="29.1350001"><ele>0.0</ele></trkpt>
    <trkpt lat="66.1592397" lon="29.1352092"><ele>0.0</ele></trkpt>
    <trkpt lat="66.1594336" lon="29.1352092"><ele>0.0</ele></trkpt>
    <trkpt lat="66.1608154" lon="29.1343607"><ele>0.0</ele></trkpt>
    <trkpt lat="66.1613025" lon="29.1342008"><ele>0.0</ele></trkpt>
    <trkpt lat="66.1618244" lon="29.1337458"><ele>0.0</ele></trkpt>
    <trkpt lat="66.1620828" lon="29.1334137"><ele>0.0</ele></trkpt>
    <trkpt lat="66.1637179" lon="29.132393"><ele>0.0</ele></trkpt>
    <trkpt lat="66.1639565" lon="29.1319995"><ele>0.0</ele></trkpt>
    <trkpt lat="66.1650101" lon="29.1313477"><ele>0.0</ele></trkpt>
    <trkpt lat="66.1654126" lon="29.1308066"><ele>0.0</ele></trkpt>
    <trkpt lat="66.16583" lon="29.1306467"><ele>0.0</ele></trkpt>
    <trkpt lat="66.1662886" lon="29.1300329"><ele>0.0</ele></trkpt>
    <trkpt lat="66.1663997" lon="29.1299499"><ele>0.0</ele></trkpt>
    <trkpt lat="66.1664607" lon="29.1299552"><ele>0.0</ele></trkpt>
    <trkpt lat="66.1665592" lon="29.1302373"><ele>0.0</ele></trkpt>
    <trkpt lat="66.1666509" lon="29.1307211"><ele>0.0</ele></trkpt>
    <trkpt lat="66.1666586" lon="29.1310703"><ele>0.0</ele></trkpt>
    <trkpt lat="66.1666261" lon="29.1314739"><ele>0.0</ele></trkpt>
    <trkpt lat="66.1667098" lon="29.1316116"><ele>0.0</ele></trkpt>
    <trkpt lat="66.1668526" lon="29.1317789"><ele>0.0</ele></trkpt>
    <trkpt lat="66.166953" lon="29.1318352"><ele>0.0</ele></trkpt>
    <trkpt lat="66.167139" lon="29.1316012"><ele>0.0</ele></trkpt>
    <trkpt lat="66.1672537" lon="29.1314097"><ele>0.0</ele></trkpt>
    <trkpt lat="66.1674874" lon="29.13124"><ele>0.0</ele></trkpt>
    <trkpt lat="66.1681456" lon="29.1304206"><ele>0.0</ele></trkpt>
    <trkpt lat="66.1692424" lon="29.129895"><ele>0.0</ele></trkpt>
  </trkseg></trk>
</gpx>