<?xml version="1.0" encoding="UTF-8"?>
<gpx version="1.1" xmlns="http://www.topografix.com/GPX/1/1" creator="GlideCast">
  <trk><name>Trondheim/Granåsen</name><trkseg>
    <trkpt lat="63.4134029" lon="10.432715"><ele>0.0</ele></trkpt>
    <trkpt lat="63.4133904" lon="10.4333087"><ele>0.0</ele></trkpt>
    <trkpt lat="63.4133853" lon="10.4335514"><ele>0.0</ele></trkpt>
    <trkpt lat="63.413466" lon="10.4341902"><ele>0.0</ele></trkpt>
    <trkpt lat="63.413515" lon="10.4346841"><ele>0.0</ele></trkpt>
    <trkpt lat="63.4136908" lon="10.4359623"><ele>0.0</ele></trkpt>
    <trkpt lat="63.4137444" lon="10.4365104"><ele>0.0</ele></trkpt>
    <trkpt lat="63.4138235" lon="10.4374461"><ele>0.0</ele></trkpt>
    <trkpt lat="63.4138542" lon="10.4381161"><ele>0.0</ele></trkpt>
    <trkpt lat="63.4139855" lon="10.4383798"><ele>0.0</ele></trkpt>
    <trkpt lat="63.4140346" lon="10.438437"><ele>0.0</ele></trkpt>
    <trkpt lat="63.4142354" lon="10.4385941"><ele>0.0</ele></trkpt>
    <trkpt lat="63.4143709" lon="10.4385954"><ele>0.0</ele></trkpt>
    <trkpt lat="63.4147339" lon="10.4385989"><ele>0.0</ele></trkpt>
    <trkpt lat="63.4150755" lon="10.4386021"><ele>0.0</ele></trkpt>
    <trkpt lat="63.4154451" lon="10.4384879"><ele>0.0</ele></trkpt>
    <trkpt lat="63.4156757" lon="10.4384149"><ele>0.0</ele></trkpt>
    <trkpt lat="63.4159106" lon="10.4384064"><ele>0.0</ele></trkpt>
    <trkpt lat="63.4159801" lon="10.4383655"><ele>0.0</ele></trkpt>
    <trkpt lat="63.4160126" lon="10.4383464"><ele>0.0</ele></trkpt>
    <trkpt lat="63.4161005" lon="10.4382947"><ele>0.0</ele></trkpt>
    <trkpt lat="63.4162513" lon="10.4382917"><ele>0.0</ele></trkpt>
    <trkpt lat="63.4165439" lon="10.4388774"><ele>0.0</ele></trkpt>
    <trkpt lat="63.4167208" lon="10.4393479"><ele>0.0</ele></trkpt>
    <trkpt lat="63.4169032" lon="10.4401043"><ele>0.0</ele></trkpt>
    <trkpt lat="63.416998" lon="10.4404262"><ele>0.0</ele></trkpt>
    <trkpt lat="63.4171637" lon="10.4407105"><ele>0.0</ele></trkpt>
    <trkpt lat="63.4175376" lon="10.4414386"><ele>0.0</ele></trkpt>
    <trkpt lat="63.4177301" lon="10.4419156"><ele>0.0</ele></trkpt>
    <trkpt lat="63.4178535" lon="10.4423022"><ele>0.0</ele></trkpt>
    <trkpt lat="63.4179867" lon="10.4425861"><ele>0.0</ele></trkpt>
    <trkpt lat="63.4181344" lon="10.4427257"><ele>0.0</ele></trkpt>
    <trkpt lat="63.4183063" lon="10.4425693"><ele>0.0</ele></trkpt>
    <trkpt lat="63.4184263" lon="10.4421133"><ele>0.0</ele></trkpt>
    <trkpt lat="63.4185535" lon="10.441668"><ele>0.0</ele></trkpt>
    <trkpt lat="63.418724" lon="10.441491"><ele>0.0</ele></trkpt>
    <trkpt lat="63.4188008" lon="10.4412818"><ele>0.0</ele></trkpt>
    <trkpt lat="63.4188176" lon="10.4407507"><ele>0.0</ele></trkpt>
    <trkpt lat="63.418772" lon="10.4403323"><ele>0.0</ele></trkpt>
    <trkpt lat="63.4186568" lon="10.4401982"><ele>0.0</ele></trkpt>
    <trkpt lat="63.4184431" lon="10.4403913"><ele>0.0</ele></trkpt>
    <trkpt lat="63.4182775" lon="10.4406327"><ele>0.0</ele></trkpt>
    <trkpt lat="63.4181215" lon="10.4407293"><ele>0.0</ele></trkpt>
    <trkpt lat="63.417951" lon="10.4406917"><ele>0.0</ele></trkpt>
    <trkpt lat="63.4178274" lon="10.4404825"><ele>0.0</ele></trkpt>
    <trkpt lat="63.4177594" lon="10.4404945"><ele>0.0</ele></trkpt>
    <trkpt lat="63.4177302" lon="10.4405469"><ele>0.0</ele></trkpt>
    <trkpt lat="63.4176858" lon="10.4405844"><ele>0.0</ele></trkpt>
    <trkpt lat="63.4176042" lon="10.4406649"><ele>0.0</ele></trkpt>
    <trkpt lat="63.4175429" lon="10.4406622"><ele>0.0</ele></trkpt>
    <trkpt lat="63.4174709" lon="10.4405469"><ele>0.0</ele></trkpt>
    <trkpt lat="63.4174025" lon="10.4403859"><ele>0.0</ele></trkpt>
    <trkpt lat="63.4173785" lon="10.4403377"><ele>0.0</ele></trkpt>
    <trkpt lat="63.4172465" lon="10.4403055"><ele>0.0</ele></trkpt>
    <trkpt lat="63.4171481" lon="10.4403001"><ele>0.0</ele></trkpt>
    <trkpt lat="63.41707" lon="10.4403618"><ele>0.0</ele></trkpt>
    <trkpt lat="63.416998" lon="10.4404262"><ele>0.0</ele></trkpt>
  </trkseg></trk>
</gpx>